<?xml version="1.0" encoding="UTF-8"?>
<gpx version="1.1" creator="TrailShare content prep" xmlns="http://www.topografix.com/GPX/1/1">
  <metadata>
    <name>Garda Brenta Tappa 3: Malga Stabio → Stenico</name>
    <desc>Itinerario Garda Brenta (SAT, ref GB), tappa 3/7. Geometria: OpenStreetMap contributors (ODbL). Elevazione: Open-Elevation (SRTM), serie smussata e calibrata.</desc>
  </metadata>
  <trk>
    <name>Garda Brenta Tappa 3: Malga Stabio → Stenico</name>
    <trkseg>
      <trkpt lat="46.018947" lon="10.778516"><ele>1446.6</ele></trkpt>
      <trkpt lat="46.018675" lon="10.778575"><ele>1446.4</ele></trkpt>
      <trkpt lat="46.018426" lon="10.778442"><ele>1446.0</ele></trkpt>
      <trkpt lat="46.018138" lon="10.778189"><ele>1445.6</ele></trkpt>
      <trkpt lat="46.017844" lon="10.778216"><ele>1445.3</ele></trkpt>
      <trkpt lat="46.018947" lon="10.778516"><ele>1445.0</ele></trkpt>
      <trkpt lat="46.019171" lon="10.778386"><ele>1444.9</ele></trkpt>
      <trkpt lat="46.019481" lon="10.778305"><ele>1445.2</ele></trkpt>
      <trkpt lat="46.019806" lon="10.778305"><ele>1444.7</ele></trkpt>
      <trkpt lat="46.020091" lon="10.778118"><ele>1443.4</ele></trkpt>
      <trkpt lat="46.020347" lon="10.777766"><ele>1441.3</ele></trkpt>
      <trkpt lat="46.020658" lon="10.777454"><ele>1438.1</ele></trkpt>
      <trkpt lat="46.020866" lon="10.777309"><ele>1433.8</ele></trkpt>
      <trkpt lat="46.021202" lon="10.777347"><ele>1429.4</ele></trkpt>
      <trkpt lat="46.021319" lon="10.777027"><ele>1425.1</ele></trkpt>
      <trkpt lat="46.021381" lon="10.776652"><ele>1421.4</ele></trkpt>
      <trkpt lat="46.021766" lon="10.776558"><ele>1418.4</ele></trkpt>
      <trkpt lat="46.021991" lon="10.776448"><ele>1417.2</ele></trkpt>
      <trkpt lat="46.022182" lon="10.776215"><ele>1418.0</ele></trkpt>
      <trkpt lat="46.022492" lon="10.776054"><ele>1418.0</ele></trkpt>
      <trkpt lat="46.022822" lon="10.775949"><ele>1417.0</ele></trkpt>
      <trkpt lat="46.023102" lon="10.775858"><ele>1415.1</ele></trkpt>
      <trkpt lat="46.023573" lon="10.775494"><ele>1410.9</ele></trkpt>
      <trkpt lat="46.023932" lon="10.775273"><ele>1405.8</ele></trkpt>
      <trkpt lat="46.024496" lon="10.775053"><ele>1401.3</ele></trkpt>
      <trkpt lat="46.024931" lon="10.774973"><ele>1397.1</ele></trkpt>
      <trkpt lat="46.025493" lon="10.774771"><ele>1393.1</ele></trkpt>
      <trkpt lat="46.025770" lon="10.774745"><ele>1389.3</ele></trkpt>
      <trkpt lat="46.026010" lon="10.774894"><ele>1384.0</ele></trkpt>
      <trkpt lat="46.026109" lon="10.775533"><ele>1379.3</ele></trkpt>
      <trkpt lat="46.026197" lon="10.775922"><ele>1375.1</ele></trkpt>
      <trkpt lat="46.026424" lon="10.776174"><ele>1371.4</ele></trkpt>
      <trkpt lat="46.026826" lon="10.776271"><ele>1367.1</ele></trkpt>
      <trkpt lat="46.027003" lon="10.776676"><ele>1362.5</ele></trkpt>
      <trkpt lat="46.027109" lon="10.777065"><ele>1356.7</ele></trkpt>
      <trkpt lat="46.027292" lon="10.777271"><ele>1349.7</ele></trkpt>
      <trkpt lat="46.027482" lon="10.777658"><ele>1341.3</ele></trkpt>
      <trkpt lat="46.027673" lon="10.778026"><ele>1336.1</ele></trkpt>
      <trkpt lat="46.027746" lon="10.778476"><ele>1332.6</ele></trkpt>
      <trkpt lat="46.027922" lon="10.778830"><ele>1330.4</ele></trkpt>
      <trkpt lat="46.028169" lon="10.778870"><ele>1329.4</ele></trkpt>
      <trkpt lat="46.028391" lon="10.778755"><ele>1329.7</ele></trkpt>
      <trkpt lat="46.028646" lon="10.778832"><ele>1328.2</ele></trkpt>
      <trkpt lat="46.028866" lon="10.778983"><ele>1326.3</ele></trkpt>
      <trkpt lat="46.029087" lon="10.778875"><ele>1324.4</ele></trkpt>
      <trkpt lat="46.029439" lon="10.778655"><ele>1321.5</ele></trkpt>
      <trkpt lat="46.029663" lon="10.778446"><ele>1317.4</ele></trkpt>
      <trkpt lat="46.029989" lon="10.778379"><ele>1312.2</ele></trkpt>
      <trkpt lat="46.030364" lon="10.778504"><ele>1307.3</ele></trkpt>
      <trkpt lat="46.030614" lon="10.778545"><ele>1302.5</ele></trkpt>
      <trkpt lat="46.031013" lon="10.778521"><ele>1299.1</ele></trkpt>
      <trkpt lat="46.031441" lon="10.778365"><ele>1297.4</ele></trkpt>
      <trkpt lat="46.031854" lon="10.778714"><ele>1297.4</ele></trkpt>
      <trkpt lat="46.031969" lon="10.779034"><ele>1297.9</ele></trkpt>
      <trkpt lat="46.032089" lon="10.779428"><ele>1299.3</ele></trkpt>
      <trkpt lat="46.032398" lon="10.779938"><ele>1301.5</ele></trkpt>
      <trkpt lat="46.032535" lon="10.780364"><ele>1304.2</ele></trkpt>
      <trkpt lat="46.032754" lon="10.781304"><ele>1306.3</ele></trkpt>
      <trkpt lat="46.032827" lon="10.781759"><ele>1307.1</ele></trkpt>
      <trkpt lat="46.032919" lon="10.782121"><ele>1306.2</ele></trkpt>
      <trkpt lat="46.033130" lon="10.783392"><ele>1303.2</ele></trkpt>
      <trkpt lat="46.033051" lon="10.783900"><ele>1294.7</ele></trkpt>
      <trkpt lat="46.033101" lon="10.784408"><ele>1281.7</ele></trkpt>
      <trkpt lat="46.033133" lon="10.785120"><ele>1265.7</ele></trkpt>
      <trkpt lat="46.033105" lon="10.786101"><ele>1246.6</ele></trkpt>
      <trkpt lat="46.033196" lon="10.786584"><ele>1225.0</ele></trkpt>
      <trkpt lat="46.033324" lon="10.786928"><ele>1204.1</ele></trkpt>
      <trkpt lat="46.033580" lon="10.787520"><ele>1183.7</ele></trkpt>
      <trkpt lat="46.033796" lon="10.788037"><ele>1163.1</ele></trkpt>
      <trkpt lat="46.034049" lon="10.788600"><ele>1142.2</ele></trkpt>
      <trkpt lat="46.034177" lon="10.788936"><ele>1124.5</ele></trkpt>
      <trkpt lat="46.034411" lon="10.789217"><ele>1108.9</ele></trkpt>
      <trkpt lat="46.034640" lon="10.789400"><ele>1095.7</ele></trkpt>
      <trkpt lat="46.034595" lon="10.789731"><ele>1084.9</ele></trkpt>
      <trkpt lat="46.034384" lon="10.789926"><ele>1076.6</ele></trkpt>
      <trkpt lat="46.034270" lon="10.790261"><ele>1067.3</ele></trkpt>
      <trkpt lat="46.033942" lon="10.791353"><ele>1059.1</ele></trkpt>
      <trkpt lat="46.033927" lon="10.791833"><ele>1051.9</ele></trkpt>
      <trkpt lat="46.033843" lon="10.792272"><ele>1045.7</ele></trkpt>
      <trkpt lat="46.033692" lon="10.792893"><ele>1040.4</ele></trkpt>
      <trkpt lat="46.033644" lon="10.793311"><ele>1036.3</ele></trkpt>
      <trkpt lat="46.033620" lon="10.793904"><ele>1032.3</ele></trkpt>
      <trkpt lat="46.033620" lon="10.794250"><ele>1028.4</ele></trkpt>
      <trkpt lat="46.033754" lon="10.794691"><ele>1024.7</ele></trkpt>
      <trkpt lat="46.033713" lon="10.795159"><ele>1021.0</ele></trkpt>
      <trkpt lat="46.033648" lon="10.795819"><ele>1017.5</ele></trkpt>
      <trkpt lat="46.033540" lon="10.796236"><ele>1013.9</ele></trkpt>
      <trkpt lat="46.033552" lon="10.796638"><ele>1010.4</ele></trkpt>
      <trkpt lat="46.033633" lon="10.797110"><ele>1007.0</ele></trkpt>
      <trkpt lat="46.033625" lon="10.797709"><ele>1004.3</ele></trkpt>
      <trkpt lat="46.033628" lon="10.798070"><ele>1002.3</ele></trkpt>
      <trkpt lat="46.033540" lon="10.798587"><ele>1001.1</ele></trkpt>
      <trkpt lat="46.033532" lon="10.798987"><ele>1000.5</ele></trkpt>
      <trkpt lat="46.033544" lon="10.799313"><ele>1001.0</ele></trkpt>
      <trkpt lat="46.033588" lon="10.799645"><ele>1001.7</ele></trkpt>
      <trkpt lat="46.033909" lon="10.799266"><ele>1002.6</ele></trkpt>
      <trkpt lat="46.034162" lon="10.798930"><ele>1003.9</ele></trkpt>
      <trkpt lat="46.034970" lon="10.798036"><ele>1005.4</ele></trkpt>
      <trkpt lat="46.035315" lon="10.797644"><ele>1007.0</ele></trkpt>
      <trkpt lat="46.035506" lon="10.797465"><ele>1008.6</ele></trkpt>
      <trkpt lat="46.036145" lon="10.796861"><ele>1011.2</ele></trkpt>
      <trkpt lat="46.036640" lon="10.796607"><ele>1015.0</ele></trkpt>
      <trkpt lat="46.036901" lon="10.796611"><ele>1019.5</ele></trkpt>
      <trkpt lat="46.036875" lon="10.796953"><ele>1024.9</ele></trkpt>
      <trkpt lat="46.036575" lon="10.797407"><ele>1029.6</ele></trkpt>
      <trkpt lat="46.036510" lon="10.797812"><ele>1034.2</ele></trkpt>
      <trkpt lat="46.036536" lon="10.798160"><ele>1038.6</ele></trkpt>
      <trkpt lat="46.036046" lon="10.798793"><ele>1043.1</ele></trkpt>
      <trkpt lat="46.035847" lon="10.799121"><ele>1047.9</ele></trkpt>
      <trkpt lat="46.035614" lon="10.799271"><ele>1054.6</ele></trkpt>
      <trkpt lat="46.035308" lon="10.799630"><ele>1061.6</ele></trkpt>
      <trkpt lat="46.035063" lon="10.800521"><ele>1069.0</ele></trkpt>
      <trkpt lat="46.034880" lon="10.801191"><ele>1076.8</ele></trkpt>
      <trkpt lat="46.034731" lon="10.801521"><ele>1086.3</ele></trkpt>
      <trkpt lat="46.034584" lon="10.801849"><ele>1096.6</ele></trkpt>
      <trkpt lat="46.034508" lon="10.802202"><ele>1107.6</ele></trkpt>
      <trkpt lat="46.034335" lon="10.802479"><ele>1119.5</ele></trkpt>
      <trkpt lat="46.034150" lon="10.802825"><ele>1132.1</ele></trkpt>
      <trkpt lat="46.034143" lon="10.803168"><ele>1142.7</ele></trkpt>
      <trkpt lat="46.034126" lon="10.803729"><ele>1151.8</ele></trkpt>
      <trkpt lat="46.034230" lon="10.804375"><ele>1159.4</ele></trkpt>
      <trkpt lat="46.033808" lon="10.804611"><ele>1166.6</ele></trkpt>
      <trkpt lat="46.033614" lon="10.804933"><ele>1173.2</ele></trkpt>
      <trkpt lat="46.033480" lon="10.805196"><ele>1179.9</ele></trkpt>
      <trkpt lat="46.033687" lon="10.805341"><ele>1186.5</ele></trkpt>
      <trkpt lat="46.033940" lon="10.805309"><ele>1193.0</ele></trkpt>
      <trkpt lat="46.033998" lon="10.806086"><ele>1198.9</ele></trkpt>
      <trkpt lat="46.033811" lon="10.806381"><ele>1204.0</ele></trkpt>
      <trkpt lat="46.033579" lon="10.806679"><ele>1209.3</ele></trkpt>
      <trkpt lat="46.033759" lon="10.806923"><ele>1214.9</ele></trkpt>
      <trkpt lat="46.033795" lon="10.807347"><ele>1219.7</ele></trkpt>
      <trkpt lat="46.033906" lon="10.807814"><ele>1223.6</ele></trkpt>
      <trkpt lat="46.034227" lon="10.808538"><ele>1228.3</ele></trkpt>
      <trkpt lat="46.034379" lon="10.809037"><ele>1233.6</ele></trkpt>
      <trkpt lat="46.034507" lon="10.809430"><ele>1239.6</ele></trkpt>
      <trkpt lat="46.034588" lon="10.809739"><ele>1247.1</ele></trkpt>
      <trkpt lat="46.034756" lon="10.810040"><ele>1256.0</ele></trkpt>
      <trkpt lat="46.035035" lon="10.810407"><ele>1264.0</ele></trkpt>
      <trkpt lat="46.035461" lon="10.811003"><ele>1271.2</ele></trkpt>
      <trkpt lat="46.035701" lon="10.811537"><ele>1277.5</ele></trkpt>
      <trkpt lat="46.036208" lon="10.812081"><ele>1285.8</ele></trkpt>
      <trkpt lat="46.036604" lon="10.812314"><ele>1294.4</ele></trkpt>
      <trkpt lat="46.036902" lon="10.812490"><ele>1304.0</ele></trkpt>
      <trkpt lat="46.037062" lon="10.812896"><ele>1314.7</ele></trkpt>
      <trkpt lat="46.037184" lon="10.813260"><ele>1326.3</ele></trkpt>
      <trkpt lat="46.037349" lon="10.813515"><ele>1336.2</ele></trkpt>
      <trkpt lat="46.037568" lon="10.813285"><ele>1346.8</ele></trkpt>
      <trkpt lat="46.037619" lon="10.812934"><ele>1358.5</ele></trkpt>
      <trkpt lat="46.037698" lon="10.812629"><ele>1371.6</ele></trkpt>
      <trkpt lat="46.037922" lon="10.812344"><ele>1383.2</ele></trkpt>
      <trkpt lat="46.038266" lon="10.811689"><ele>1393.4</ele></trkpt>
      <trkpt lat="46.038349" lon="10.811338"><ele>1401.0</ele></trkpt>
      <trkpt lat="46.038517" lon="10.810933"><ele>1405.3</ele></trkpt>
      <trkpt lat="46.038766" lon="10.810399"><ele>1406.5</ele></trkpt>
      <trkpt lat="46.038871" lon="10.810016"><ele>1407.0</ele></trkpt>
      <trkpt lat="46.039109" lon="10.809968"><ele>1407.0</ele></trkpt>
      <trkpt lat="46.039147" lon="10.810350"><ele>1406.4</ele></trkpt>
      <trkpt lat="46.039148" lon="10.810676"><ele>1405.3</ele></trkpt>
      <trkpt lat="46.039217" lon="10.811014"><ele>1403.5</ele></trkpt>
      <trkpt lat="46.039267" lon="10.811445"><ele>1401.2</ele></trkpt>
      <trkpt lat="46.039343" lon="10.811778"><ele>1398.9</ele></trkpt>
      <trkpt lat="46.039595" lon="10.812304"><ele>1396.9</ele></trkpt>
      <trkpt lat="46.039578" lon="10.812764"><ele>1395.3</ele></trkpt>
      <trkpt lat="46.039571" lon="10.813119"><ele>1394.1</ele></trkpt>
      <trkpt lat="46.039559" lon="10.813457"><ele>1393.5</ele></trkpt>
      <trkpt lat="46.039522" lon="10.814020"><ele>1391.9</ele></trkpt>
      <trkpt lat="46.039463" lon="10.814533"><ele>1389.8</ele></trkpt>
      <trkpt lat="46.039476" lon="10.814932"><ele>1386.9</ele></trkpt>
      <trkpt lat="46.039638" lon="10.815254"><ele>1383.2</ele></trkpt>
      <trkpt lat="46.039692" lon="10.815887"><ele>1378.8</ele></trkpt>
      <trkpt lat="46.039986" lon="10.816622"><ele>1373.9</ele></trkpt>
      <trkpt lat="46.040029" lon="10.816941"><ele>1368.3</ele></trkpt>
      <trkpt lat="46.040148" lon="10.817298"><ele>1362.0</ele></trkpt>
      <trkpt lat="46.040351" lon="10.817659"><ele>1355.1</ele></trkpt>
      <trkpt lat="46.040437" lon="10.817976"><ele>1348.2</ele></trkpt>
      <trkpt lat="46.040325" lon="10.818368"><ele>1340.5</ele></trkpt>
      <trkpt lat="46.040148" lon="10.818915"><ele>1332.3</ele></trkpt>
      <trkpt lat="46.040086" lon="10.819385"><ele>1323.6</ele></trkpt>
      <trkpt lat="46.040110" lon="10.819758"><ele>1314.3</ele></trkpt>
      <trkpt lat="46.040073" lon="10.820165"><ele>1304.6</ele></trkpt>
      <trkpt lat="46.040267" lon="10.820477"><ele>1295.7</ele></trkpt>
      <trkpt lat="46.040237" lon="10.820846"><ele>1287.6</ele></trkpt>
      <trkpt lat="46.039861" lon="10.821015"><ele>1280.3</ele></trkpt>
      <trkpt lat="46.039725" lon="10.821410"><ele>1273.9</ele></trkpt>
      <trkpt lat="46.039794" lon="10.821751"><ele>1267.6</ele></trkpt>
      <trkpt lat="46.040056" lon="10.822006"><ele>1261.5</ele></trkpt>
      <trkpt lat="46.040310" lon="10.822233"><ele>1255.6</ele></trkpt>
      <trkpt lat="46.040576" lon="10.822214"><ele>1249.9</ele></trkpt>
      <trkpt lat="46.040842" lon="10.822539"><ele>1244.3</ele></trkpt>
      <trkpt lat="46.040807" lon="10.822866"><ele>1238.8</ele></trkpt>
      <trkpt lat="46.040993" lon="10.823226"><ele>1233.2</ele></trkpt>
      <trkpt lat="46.041077" lon="10.823671"><ele>1226.8</ele></trkpt>
      <trkpt lat="46.040995" lon="10.824015"><ele>1219.5</ele></trkpt>
      <trkpt lat="46.040878" lon="10.824344"><ele>1212.5</ele></trkpt>
      <trkpt lat="46.041067" lon="10.824535"><ele>1205.7</ele></trkpt>
      <trkpt lat="46.041355" lon="10.824517"><ele>1199.0</ele></trkpt>
      <trkpt lat="46.041575" lon="10.824387"><ele>1193.3</ele></trkpt>
      <trkpt lat="46.041857" lon="10.824382"><ele>1188.5</ele></trkpt>
      <trkpt lat="46.042088" lon="10.824556"><ele>1183.7</ele></trkpt>
      <trkpt lat="46.042384" lon="10.824650"><ele>1178.7</ele></trkpt>
      <trkpt lat="46.042574" lon="10.824827"><ele>1174.2</ele></trkpt>
      <trkpt lat="46.042784" lon="10.825127"><ele>1170.1</ele></trkpt>
      <trkpt lat="46.042873" lon="10.825642"><ele>1166.6</ele></trkpt>
      <trkpt lat="46.042754" lon="10.826179"><ele>1163.6</ele></trkpt>
      <trkpt lat="46.042568" lon="10.826603"><ele>1161.1</ele></trkpt>
      <trkpt lat="46.042408" lon="10.826997"><ele>1158.8</ele></trkpt>
      <trkpt lat="46.042445" lon="10.827342"><ele>1156.3</ele></trkpt>
      <trkpt lat="46.042711" lon="10.827465"><ele>1153.4</ele></trkpt>
      <trkpt lat="46.042935" lon="10.827517"><ele>1150.2</ele></trkpt>
      <trkpt lat="46.043101" lon="10.827775"><ele>1147.0</ele></trkpt>
      <trkpt lat="46.043320" lon="10.828386"><ele>1142.5</ele></trkpt>
      <trkpt lat="46.043445" lon="10.828799"><ele>1138.3</ele></trkpt>
      <trkpt lat="46.043446" lon="10.829191"><ele>1133.0</ele></trkpt>
      <trkpt lat="46.043460" lon="10.829550"><ele>1126.8</ele></trkpt>
      <trkpt lat="46.043467" lon="10.829915"><ele>1119.3</ele></trkpt>
      <trkpt lat="46.043747" lon="10.830038"><ele>1112.2</ele></trkpt>
      <trkpt lat="46.043776" lon="10.830516"><ele>1104.2</ele></trkpt>
      <trkpt lat="46.043717" lon="10.830932"><ele>1096.6</ele></trkpt>
      <trkpt lat="46.043670" lon="10.831299"><ele>1089.6</ele></trkpt>
      <trkpt lat="46.043760" lon="10.831720"><ele>1084.2</ele></trkpt>
      <trkpt lat="46.044059" lon="10.831696"><ele>1078.9</ele></trkpt>
      <trkpt lat="46.044249" lon="10.831323"><ele>1075.0</ele></trkpt>
      <trkpt lat="46.044437" lon="10.831117"><ele>1072.4</ele></trkpt>
      <trkpt lat="46.044702" lon="10.831157"><ele>1071.2</ele></trkpt>
      <trkpt lat="46.044834" lon="10.831661"><ele>1069.9</ele></trkpt>
      <trkpt lat="46.044973" lon="10.832010"><ele>1069.9</ele></trkpt>
      <trkpt lat="46.045063" lon="10.832329"><ele>1069.7</ele></trkpt>
      <trkpt lat="46.044949" lon="10.832745"><ele>1069.5</ele></trkpt>
      <trkpt lat="46.044519" lon="10.833187"><ele>1069.1</ele></trkpt>
      <trkpt lat="46.044281" lon="10.833236"><ele>1068.7</ele></trkpt>
      <trkpt lat="46.043970" lon="10.833120"><ele>1068.2</ele></trkpt>
      <trkpt lat="46.043610" lon="10.833014"><ele>1067.8</ele></trkpt>
      <trkpt lat="46.043259" lon="10.832973"><ele>1066.2</ele></trkpt>
      <trkpt lat="46.043000" lon="10.833035"><ele>1063.4</ele></trkpt>
      <trkpt lat="46.042695" lon="10.832992"><ele>1059.6</ele></trkpt>
      <trkpt lat="46.042440" lon="10.832857"><ele>1054.7</ele></trkpt>
      <trkpt lat="46.042101" lon="10.832592"><ele>1048.8</ele></trkpt>
      <trkpt lat="46.041872" lon="10.832503"><ele>1041.7</ele></trkpt>
      <trkpt lat="46.041634" lon="10.832487"><ele>1033.6</ele></trkpt>
      <trkpt lat="46.041192" lon="10.832337"><ele>1025.5</ele></trkpt>
      <trkpt lat="46.040885" lon="10.832359"><ele>1017.3</ele></trkpt>
      <trkpt lat="46.040516" lon="10.832372"><ele>1010.1</ele></trkpt>
      <trkpt lat="46.039680" lon="10.831868"><ele>1003.8</ele></trkpt>
      <trkpt lat="46.039355" lon="10.831675"><ele>999.7</ele></trkpt>
      <trkpt lat="46.039134" lon="10.831469"><ele>995.7</ele></trkpt>
      <trkpt lat="46.038875" lon="10.831241"><ele>991.7</ele></trkpt>
      <trkpt lat="46.038375" lon="10.830932"><ele>987.8</ele></trkpt>
      <trkpt lat="46.038059" lon="10.830799"><ele>985.5</ele></trkpt>
      <trkpt lat="46.037191" lon="10.830773"><ele>983.2</ele></trkpt>
      <trkpt lat="46.037548" lon="10.831245"><ele>982.2</ele></trkpt>
      <trkpt lat="46.037795" lon="10.831570"><ele>980.1</ele></trkpt>
      <trkpt lat="46.038062" lon="10.831779"><ele>977.2</ele></trkpt>
      <trkpt lat="46.038515" lon="10.832093"><ele>972.0</ele></trkpt>
      <trkpt lat="46.039017" lon="10.832394"><ele>965.6</ele></trkpt>
      <trkpt lat="46.039732" lon="10.832930"><ele>958.0</ele></trkpt>
      <trkpt lat="46.040175" lon="10.833303"><ele>953.0</ele></trkpt>
      <trkpt lat="46.040457" lon="10.833547"><ele>948.9</ele></trkpt>
      <trkpt lat="46.040835" lon="10.833791"><ele>946.3</ele></trkpt>
      <trkpt lat="46.041063" lon="10.833886"><ele>943.9</ele></trkpt>
      <trkpt lat="46.041332" lon="10.833914"><ele>944.0</ele></trkpt>
      <trkpt lat="46.041594" lon="10.833871"><ele>945.4</ele></trkpt>
      <trkpt lat="46.041935" lon="10.833850"><ele>947.9</ele></trkpt>
      <trkpt lat="46.042205" lon="10.833957"><ele>952.7</ele></trkpt>
      <trkpt lat="46.042471" lon="10.834148"><ele>960.8</ele></trkpt>
      <trkpt lat="46.042713" lon="10.834309"><ele>968.6</ele></trkpt>
      <trkpt lat="46.043008" lon="10.834448"><ele>976.0</ele></trkpt>
      <trkpt lat="46.043246" lon="10.834424"><ele>983.0</ele></trkpt>
      <trkpt lat="46.043488" lon="10.834368"><ele>988.2</ele></trkpt>
      <trkpt lat="46.043713" lon="10.834547"><ele>990.5</ele></trkpt>
      <trkpt lat="46.043892" lon="10.834815"><ele>990.8</ele></trkpt>
      <trkpt lat="46.044166" lon="10.835058"><ele>989.3</ele></trkpt>
      <trkpt lat="46.044461" lon="10.835133"><ele>985.8</ele></trkpt>
      <trkpt lat="46.045005" lon="10.835323"><ele>980.7</ele></trkpt>
      <trkpt lat="46.045380" lon="10.835432"><ele>974.2</ele></trkpt>
      <trkpt lat="46.045749" lon="10.835492"><ele>967.1</ele></trkpt>
      <trkpt lat="46.046138" lon="10.835497"><ele>959.4</ele></trkpt>
      <trkpt lat="46.046212" lon="10.835971"><ele>952.6</ele></trkpt>
      <trkpt lat="46.046262" lon="10.836420"><ele>947.7</ele></trkpt>
      <trkpt lat="46.046170" lon="10.836852"><ele>942.9</ele></trkpt>
      <trkpt lat="46.046024" lon="10.837119"><ele>937.6</ele></trkpt>
      <trkpt lat="46.045746" lon="10.837301"><ele>931.9</ele></trkpt>
      <trkpt lat="46.045452" lon="10.837414"><ele>924.2</ele></trkpt>
      <trkpt lat="46.045169" lon="10.837418"><ele>914.7</ele></trkpt>
      <trkpt lat="46.044889" lon="10.837493"><ele>905.5</ele></trkpt>
      <trkpt lat="46.044656" lon="10.837728"><ele>896.6</ele></trkpt>
      <trkpt lat="46.044832" lon="10.838145"><ele>886.3</ele></trkpt>
      <trkpt lat="46.045270" lon="10.838300"><ele>874.5</ele></trkpt>
      <trkpt lat="46.045495" lon="10.838630"><ele>863.7</ele></trkpt>
      <trkpt lat="46.045744" lon="10.838752"><ele>852.6</ele></trkpt>
      <trkpt lat="46.046024" lon="10.839225"><ele>841.3</ele></trkpt>
      <trkpt lat="46.046156" lon="10.839493"><ele>831.6</ele></trkpt>
      <trkpt lat="46.046281" lon="10.839778"><ele>823.4</ele></trkpt>
      <trkpt lat="46.046399" lon="10.840117"><ele>813.7</ele></trkpt>
      <trkpt lat="46.045941" lon="10.840095"><ele>803.2</ele></trkpt>
      <trkpt lat="46.045577" lon="10.840169"><ele>792.1</ele></trkpt>
      <trkpt lat="46.045294" lon="10.840341"><ele>780.5</ele></trkpt>
      <trkpt lat="46.044956" lon="10.840622"><ele>768.4</ele></trkpt>
      <trkpt lat="46.044731" lon="10.840754"><ele>757.3</ele></trkpt>
      <trkpt lat="46.044776" lon="10.841134"><ele>747.6</ele></trkpt>
      <trkpt lat="46.044958" lon="10.841606"><ele>739.0</ele></trkpt>
      <trkpt lat="46.045187" lon="10.842045"><ele>731.4</ele></trkpt>
      <trkpt lat="46.045352" lon="10.842428"><ele>724.9</ele></trkpt>
      <trkpt lat="46.045512" lon="10.842708"><ele>718.7</ele></trkpt>
      <trkpt lat="46.045757" lon="10.842778"><ele>714.0</ele></trkpt>
      <trkpt lat="46.046299" lon="10.842736"><ele>708.9</ele></trkpt>
      <trkpt lat="46.046521" lon="10.842966"><ele>703.5</ele></trkpt>
      <trkpt lat="46.047113" lon="10.842885"><ele>697.8</ele></trkpt>
      <trkpt lat="46.047370" lon="10.842968"><ele>691.4</ele></trkpt>
      <trkpt lat="46.047663" lon="10.843121"><ele>685.2</ele></trkpt>
      <trkpt lat="46.047901" lon="10.842881"><ele>681.0</ele></trkpt>
      <trkpt lat="46.048099" lon="10.842620"><ele>678.9</ele></trkpt>
      <trkpt lat="46.048297" lon="10.842380"><ele>676.2</ele></trkpt>
      <trkpt lat="46.048494" lon="10.842209"><ele>673.1</ele></trkpt>
      <trkpt lat="46.048968" lon="10.841899"><ele>669.2</ele></trkpt>
      <trkpt lat="46.049434" lon="10.841397"><ele>664.4</ele></trkpt>
      <trkpt lat="46.049834" lon="10.841139"><ele>659.8</ele></trkpt>
      <trkpt lat="46.049997" lon="10.840899"><ele>658.1</ele></trkpt>
      <trkpt lat="46.050224" lon="10.840648"><ele>656.8</ele></trkpt>
      <trkpt lat="46.050476" lon="10.840546"><ele>654.2</ele></trkpt>
      <trkpt lat="46.050694" lon="10.840211"><ele>650.1</ele></trkpt>
      <trkpt lat="46.050837" lon="10.839835"><ele>645.4</ele></trkpt>
      <trkpt lat="46.050992" lon="10.839498"><ele>640.2</ele></trkpt>
      <trkpt lat="46.051119" lon="10.839199"><ele>636.6</ele></trkpt>
      <trkpt lat="46.051354" lon="10.838984"><ele>634.9</ele></trkpt>
      <trkpt lat="46.051577" lon="10.838670"><ele>632.8</ele></trkpt>
      <trkpt lat="46.051593" lon="10.839019"><ele>628.6</ele></trkpt>
      <trkpt lat="46.051351" lon="10.839958"><ele>623.8</ele></trkpt>
      <trkpt lat="46.051223" lon="10.840342"><ele>618.5</ele></trkpt>
      <trkpt lat="46.051077" lon="10.840905"><ele>612.5</ele></trkpt>
      <trkpt lat="46.050766" lon="10.841472"><ele>609.0</ele></trkpt>
      <trkpt lat="46.050506" lon="10.842019"><ele>605.6</ele></trkpt>
      <trkpt lat="46.050193" lon="10.842453"><ele>600.8</ele></trkpt>
      <trkpt lat="46.049892" lon="10.842773"><ele>594.7</ele></trkpt>
      <trkpt lat="46.049606" lon="10.843028"><ele>588.4</ele></trkpt>
      <trkpt lat="46.049305" lon="10.843174"><ele>582.9</ele></trkpt>
      <trkpt lat="46.049038" lon="10.843494"><ele>579.0</ele></trkpt>
      <trkpt lat="46.048616" lon="10.843934"><ele>576.9</ele></trkpt>
      <trkpt lat="46.048369" lon="10.844140"><ele>574.6</ele></trkpt>
      <trkpt lat="46.048074" lon="10.844478"><ele>571.0</ele></trkpt>
      <trkpt lat="46.047950" lon="10.844818"><ele>566.4</ele></trkpt>
      <trkpt lat="46.047803" lon="10.845094"><ele>564.1</ele></trkpt>
      <trkpt lat="46.047430" lon="10.845279"><ele>564.1</ele></trkpt>
      <trkpt lat="46.046958" lon="10.845516"><ele>568.3</ele></trkpt>
      <trkpt lat="46.046493" lon="10.845909"><ele>572.5</ele></trkpt>
      <trkpt lat="46.046767" lon="10.846074"><ele>574.5</ele></trkpt>
      <trkpt lat="46.047031" lon="10.845967"><ele>572.5</ele></trkpt>
      <trkpt lat="46.047362" lon="10.845819"><ele>568.3</ele></trkpt>
      <trkpt lat="46.047677" lon="10.845661"><ele>561.8</ele></trkpt>
      <trkpt lat="46.047911" lon="10.845355"><ele>557.2</ele></trkpt>
      <trkpt lat="46.048151" lon="10.845074"><ele>552.0</ele></trkpt>
      <trkpt lat="46.048381" lon="10.844673"><ele>546.5</ele></trkpt>
      <trkpt lat="46.048658" lon="10.844528"><ele>538.6</ele></trkpt>
      <trkpt lat="46.049103" lon="10.844372"><ele>530.5</ele></trkpt>
      <trkpt lat="46.049399" lon="10.844226"><ele>522.1</ele></trkpt>
      <trkpt lat="46.049763" lon="10.844115"><ele>515.7</ele></trkpt>
      <trkpt lat="46.050111" lon="10.843936"><ele>511.3</ele></trkpt>
      <trkpt lat="46.050424" lon="10.843975"><ele>509.0</ele></trkpt>
      <trkpt lat="46.050676" lon="10.844026"><ele>506.7</ele></trkpt>
      <trkpt lat="46.050885" lon="10.844178"><ele>504.8</ele></trkpt>
      <trkpt lat="46.050628" lon="10.844213"><ele>503.4</ele></trkpt>
      <trkpt lat="46.050401" lon="10.844213"><ele>501.1</ele></trkpt>
      <trkpt lat="46.050586" lon="10.844456"><ele>499.2</ele></trkpt>
      <trkpt lat="46.050796" lon="10.844681"><ele>496.4</ele></trkpt>
      <trkpt lat="46.051016" lon="10.844858"><ele>492.2</ele></trkpt>
      <trkpt lat="46.051254" lon="10.845000"><ele>486.6</ele></trkpt>
      <trkpt lat="46.051332" lon="10.845337"><ele>483.5</ele></trkpt>
      <trkpt lat="46.051378" lon="10.845894"><ele>481.5</ele></trkpt>
      <trkpt lat="46.051658" lon="10.845819"><ele>481.7</ele></trkpt>
      <trkpt lat="46.051814" lon="10.846084"><ele>484.7</ele></trkpt>
      <trkpt lat="46.051935" lon="10.846422"><ele>491.7</ele></trkpt>
      <trkpt lat="46.051978" lon="10.846760"><ele>499.0</ele></trkpt>
      <trkpt lat="46.052101" lon="10.847178"><ele>507.4</ele></trkpt>
      <trkpt lat="46.052240" lon="10.847679"><ele>517.3</ele></trkpt>
      <trkpt lat="46.052286" lon="10.848030"><ele>528.1</ele></trkpt>
      <trkpt lat="46.052041" lon="10.847995"><ele>536.1</ele></trkpt>
      <trkpt lat="46.051975" lon="10.848402"><ele>545.2</ele></trkpt>
      <trkpt lat="46.051991" lon="10.848771"><ele>553.0</ele></trkpt>
      <trkpt lat="46.052256" lon="10.849152"><ele>559.3</ele></trkpt>
      <trkpt lat="46.052411" lon="10.849432"><ele>563.8</ele></trkpt>
      <trkpt lat="46.052122" lon="10.849413"><ele>569.3</ele></trkpt>
      <trkpt lat="46.052107" lon="10.849738"><ele>573.3</ele></trkpt>
      <trkpt lat="46.052017" lon="10.850288"><ele>577.3</ele></trkpt>
      <trkpt lat="46.052218" lon="10.851217"><ele>581.7</ele></trkpt>
      <trkpt lat="46.052523" lon="10.851460"><ele>588.2</ele></trkpt>
      <trkpt lat="46.052816" lon="10.851386"><ele>594.1</ele></trkpt>
      <trkpt lat="46.053134" lon="10.851199"><ele>600.7</ele></trkpt>
      <trkpt lat="46.053350" lon="10.851041"><ele>607.8</ele></trkpt>
      <trkpt lat="46.053282" lon="10.851494"><ele>615.6</ele></trkpt>
      <trkpt lat="46.053007" lon="10.851963"><ele>622.4</ele></trkpt>
      <trkpt lat="46.052835" lon="10.852244"><ele>631.6</ele></trkpt>
      <trkpt lat="46.052651" lon="10.852537"><ele>641.0</ele></trkpt>
      <trkpt lat="46.052473" lon="10.852847"><ele>650.8</ele></trkpt>
      <trkpt lat="46.052291" lon="10.853089"><ele>656.6</ele></trkpt>
      <trkpt lat="46.052128" lon="10.853511"><ele>662.0</ele></trkpt>
      <trkpt lat="46.052059" lon="10.853839"><ele>666.6</ele></trkpt>
      <trkpt lat="46.052178" lon="10.854170"><ele>670.2</ele></trkpt>
    </trkseg>
  </trk>
</gpx>
