<?xml version="1.0" encoding="UTF-8"?>
<gpx version="1.1" creator="TrailShare content prep" xmlns="http://www.topografix.com/GPX/1/1">
  <metadata>
    <name>Garda Brenta Tappa 5: Rifugio Al Cacciatore → Comano Terme</name>
    <desc>Itinerario Garda Brenta (SAT, ref GB), tappa 5/7. Geometria: OpenStreetMap contributors (ODbL). Elevazione: Open-Elevation (SRTM), serie smussata e calibrata.</desc>
  </metadata>
  <trk>
    <name>Garda Brenta Tappa 5: Rifugio Al Cacciatore → Comano Terme</name>
    <trkseg>
      <trkpt lat="46.130129" lon="10.880083"><ele>1828.6</ele></trkpt>
      <trkpt lat="46.130395" lon="10.880014"><ele>1831.1</ele></trkpt>
      <trkpt lat="46.130366" lon="10.879665"><ele>1834.0</ele></trkpt>
      <trkpt lat="46.130615" lon="10.879581"><ele>1837.3</ele></trkpt>
      <trkpt lat="46.131010" lon="10.879655"><ele>1840.7</ele></trkpt>
      <trkpt lat="46.131215" lon="10.879788"><ele>1845.2</ele></trkpt>
      <trkpt lat="46.131539" lon="10.880131"><ele>1849.6</ele></trkpt>
      <trkpt lat="46.131798" lon="10.880422"><ele>1853.8</ele></trkpt>
      <trkpt lat="46.132059" lon="10.880593"><ele>1859.4</ele></trkpt>
      <trkpt lat="46.132232" lon="10.880889"><ele>1865.4</ele></trkpt>
      <trkpt lat="46.132453" lon="10.880973"><ele>1871.9</ele></trkpt>
      <trkpt lat="46.132747" lon="10.881033"><ele>1879.3</ele></trkpt>
      <trkpt lat="46.132959" lon="10.881296"><ele>1887.6</ele></trkpt>
      <trkpt lat="46.133197" lon="10.881341"><ele>1895.1</ele></trkpt>
      <trkpt lat="46.133425" lon="10.881202"><ele>1902.9</ele></trkpt>
      <trkpt lat="46.133515" lon="10.880816"><ele>1911.1</ele></trkpt>
      <trkpt lat="46.133762" lon="10.881096"><ele>1919.4</ele></trkpt>
      <trkpt lat="46.133912" lon="10.881420"><ele>1926.4</ele></trkpt>
      <trkpt lat="46.134143" lon="10.881599"><ele>1933.0</ele></trkpt>
      <trkpt lat="46.134327" lon="10.881831"><ele>1939.1</ele></trkpt>
      <trkpt lat="46.134597" lon="10.881610"><ele>1944.4</ele></trkpt>
      <trkpt lat="46.134905" lon="10.881363"><ele>1948.9</ele></trkpt>
      <trkpt lat="46.135235" lon="10.881376"><ele>1955.0</ele></trkpt>
      <trkpt lat="46.135359" lon="10.881696"><ele>1961.7</ele></trkpt>
      <trkpt lat="46.135566" lon="10.882070"><ele>1967.4</ele></trkpt>
      <trkpt lat="46.135662" lon="10.882371"><ele>1973.4</ele></trkpt>
      <trkpt lat="46.135828" lon="10.882817"><ele>1979.6</ele></trkpt>
      <trkpt lat="46.135818" lon="10.883293"><ele>1984.3</ele></trkpt>
      <trkpt lat="46.135679" lon="10.883563"><ele>1987.4</ele></trkpt>
      <trkpt lat="46.135608" lon="10.883895"><ele>1990.5</ele></trkpt>
      <trkpt lat="46.135246" lon="10.884755"><ele>1995.3</ele></trkpt>
      <trkpt lat="46.134880" lon="10.885519"><ele>1998.4</ele></trkpt>
      <trkpt lat="46.134680" lon="10.885877"><ele>2001.7</ele></trkpt>
      <trkpt lat="46.134557" lon="10.886307"><ele>2007.0</ele></trkpt>
      <trkpt lat="46.134425" lon="10.886679"><ele>2013.2</ele></trkpt>
      <trkpt lat="46.134144" lon="10.887053"><ele>2017.7</ele></trkpt>
      <trkpt lat="46.133731" lon="10.887540"><ele>2024.0</ele></trkpt>
      <trkpt lat="46.133493" lon="10.887492"><ele>2029.8</ele></trkpt>
      <trkpt lat="46.133216" lon="10.887660"><ele>2033.5</ele></trkpt>
      <trkpt lat="46.132618" lon="10.888223"><ele>2033.5</ele></trkpt>
      <trkpt lat="46.132341" lon="10.888250"><ele>2032.3</ele></trkpt>
      <trkpt lat="46.131847" lon="10.888376"><ele>2027.2</ele></trkpt>
      <trkpt lat="46.131404" lon="10.888513"><ele>2019.1</ele></trkpt>
      <trkpt lat="46.130967" lon="10.888387"><ele>2008.1</ele></trkpt>
      <trkpt lat="46.130626" lon="10.888438"><ele>1996.8</ele></trkpt>
      <trkpt lat="46.129828" lon="10.888210"><ele>1982.6</ele></trkpt>
      <trkpt lat="46.129215" lon="10.888218"><ele>1969.4</ele></trkpt>
      <trkpt lat="46.128876" lon="10.888454"><ele>1957.4</ele></trkpt>
      <trkpt lat="46.128742" lon="10.888728"><ele>1946.4</ele></trkpt>
      <trkpt lat="46.128648" lon="10.889066"><ele>1935.4</ele></trkpt>
      <trkpt lat="46.128415" lon="10.889063"><ele>1926.1</ele></trkpt>
      <trkpt lat="46.128153" lon="10.889203"><ele>1917.3</ele></trkpt>
      <trkpt lat="46.127763" lon="10.889085"><ele>1909.2</ele></trkpt>
      <trkpt lat="46.127475" lon="10.889058"><ele>1901.7</ele></trkpt>
      <trkpt lat="46.127261" lon="10.888873"><ele>1896.1</ele></trkpt>
      <trkpt lat="46.127010" lon="10.889026"><ele>1890.8</ele></trkpt>
      <trkpt lat="46.126785" lon="10.889119"><ele>1885.8</ele></trkpt>
      <trkpt lat="46.126502" lon="10.889128"><ele>1880.8</ele></trkpt>
      <trkpt lat="46.126231" lon="10.889393"><ele>1877.1</ele></trkpt>
      <trkpt lat="46.125965" lon="10.889570"><ele>1873.4</ele></trkpt>
      <trkpt lat="46.125723" lon="10.889838"><ele>1870.0</ele></trkpt>
      <trkpt lat="46.125355" lon="10.890042"><ele>1866.6</ele></trkpt>
      <trkpt lat="46.125045" lon="10.890053"><ele>1863.6</ele></trkpt>
      <trkpt lat="46.124662" lon="10.889975"><ele>1859.4</ele></trkpt>
      <trkpt lat="46.124281" lon="10.889725"><ele>1855.2</ele></trkpt>
      <trkpt lat="46.124032" lon="10.889495"><ele>1851.0</ele></trkpt>
      <trkpt lat="46.123829" lon="10.889197"><ele>1846.8</ele></trkpt>
      <trkpt lat="46.123571" lon="10.889042"><ele>1842.8</ele></trkpt>
      <trkpt lat="46.123292" lon="10.889015"><ele>1839.9</ele></trkpt>
      <trkpt lat="46.122918" lon="10.888784"><ele>1838.1</ele></trkpt>
      <trkpt lat="46.122643" lon="10.888645"><ele>1838.0</ele></trkpt>
      <trkpt lat="46.122427" lon="10.888918"><ele>1839.4</ele></trkpt>
      <trkpt lat="46.122187" lon="10.889002"><ele>1842.4</ele></trkpt>
      <trkpt lat="46.121820" lon="10.889013"><ele>1845.9</ele></trkpt>
      <trkpt lat="46.121444" lon="10.889112"><ele>1850.1</ele></trkpt>
      <trkpt lat="46.121188" lon="10.888942"><ele>1854.3</ele></trkpt>
      <trkpt lat="46.120276" lon="10.888366"><ele>1858.3</ele></trkpt>
      <trkpt lat="46.119701" lon="10.888121"><ele>1862.3</ele></trkpt>
      <trkpt lat="46.118978" lon="10.888030"><ele>1864.3</ele></trkpt>
      <trkpt lat="46.118578" lon="10.888064"><ele>1863.6</ele></trkpt>
      <trkpt lat="46.118272" lon="10.887967"><ele>1860.1</ele></trkpt>
      <trkpt lat="46.117740" lon="10.887859"><ele>1854.0</ele></trkpt>
      <trkpt lat="46.117241" lon="10.887890"><ele>1846.2</ele></trkpt>
      <trkpt lat="46.116803" lon="10.888119"><ele>1835.2</ele></trkpt>
      <trkpt lat="46.116604" lon="10.888270"><ele>1821.6</ele></trkpt>
      <trkpt lat="46.115858" lon="10.888884"><ele>1805.5</ele></trkpt>
      <trkpt lat="46.115468" lon="10.889068"><ele>1786.8</ele></trkpt>
      <trkpt lat="46.115050" lon="10.889336"><ele>1766.5</ele></trkpt>
      <trkpt lat="46.114622" lon="10.889707"><ele>1752.8</ele></trkpt>
      <trkpt lat="46.114362" lon="10.890150"><ele>1742.4</ele></trkpt>
      <trkpt lat="46.114272" lon="10.890497"><ele>1735.4</ele></trkpt>
      <trkpt lat="46.114288" lon="10.890863"><ele>1730.5</ele></trkpt>
      <trkpt lat="46.114485" lon="10.891251"><ele>1729.3</ele></trkpt>
      <trkpt lat="46.114561" lon="10.891584"><ele>1728.5</ele></trkpt>
      <trkpt lat="46.114683" lon="10.891910"><ele>1731.4</ele></trkpt>
      <trkpt lat="46.114111" lon="10.892351"><ele>1738.1</ele></trkpt>
      <trkpt lat="46.113923" lon="10.892944"><ele>1749.7</ele></trkpt>
      <trkpt lat="46.113825" lon="10.893328"><ele>1757.9</ele></trkpt>
      <trkpt lat="46.113732" lon="10.893631"><ele>1762.9</ele></trkpt>
      <trkpt lat="46.113555" lon="10.893958"><ele>1764.5</ele></trkpt>
      <trkpt lat="46.113405" lon="10.894277"><ele>1762.7</ele></trkpt>
      <trkpt lat="46.113118" lon="10.894344"><ele>1759.8</ele></trkpt>
      <trkpt lat="46.112828" lon="10.894210"><ele>1759.1</ele></trkpt>
      <trkpt lat="46.112635" lon="10.893969"><ele>1759.2</ele></trkpt>
      <trkpt lat="46.112430" lon="10.893669"><ele>1758.8</ele></trkpt>
      <trkpt lat="46.112187" lon="10.893569"><ele>1757.8</ele></trkpt>
      <trkpt lat="46.111865" lon="10.893630"><ele>1754.2</ele></trkpt>
      <trkpt lat="46.111114" lon="10.894122"><ele>1751.2</ele></trkpt>
      <trkpt lat="46.110883" lon="10.894222"><ele>1748.8</ele></trkpt>
      <trkpt lat="46.110660" lon="10.894264"><ele>1748.5</ele></trkpt>
      <trkpt lat="46.110230" lon="10.894255"><ele>1748.1</ele></trkpt>
      <trkpt lat="46.109929" lon="10.894331"><ele>1747.3</ele></trkpt>
      <trkpt lat="46.109704" lon="10.894347"><ele>1744.2</ele></trkpt>
      <trkpt lat="46.109461" lon="10.894401"><ele>1740.2</ele></trkpt>
      <trkpt lat="46.109217" lon="10.894661"><ele>1735.2</ele></trkpt>
      <trkpt lat="46.109055" lon="10.894900"><ele>1731.4</ele></trkpt>
      <trkpt lat="46.108615" lon="10.895717"><ele>1729.0</ele></trkpt>
      <trkpt lat="46.108263" lon="10.896302"><ele>1728.0</ele></trkpt>
      <trkpt lat="46.108058" lon="10.896506"><ele>1727.5</ele></trkpt>
      <trkpt lat="46.107766" lon="10.896643"><ele>1727.6</ele></trkpt>
      <trkpt lat="46.107350" lon="10.896678"><ele>1728.4</ele></trkpt>
      <trkpt lat="46.107011" lon="10.896707"><ele>1729.9</ele></trkpt>
      <trkpt lat="46.106640" lon="10.896788"><ele>1732.2</ele></trkpt>
      <trkpt lat="46.106274" lon="10.896925"><ele>1734.7</ele></trkpt>
      <trkpt lat="46.105863" lon="10.896963"><ele>1737.7</ele></trkpt>
      <trkpt lat="46.105490" lon="10.896935"><ele>1741.1</ele></trkpt>
      <trkpt lat="46.105213" lon="10.896952"><ele>1744.9</ele></trkpt>
      <trkpt lat="46.104973" lon="10.896860"><ele>1748.6</ele></trkpt>
      <trkpt lat="46.104544" lon="10.896657"><ele>1752.1</ele></trkpt>
      <trkpt lat="46.104309" lon="10.896662"><ele>1755.0</ele></trkpt>
      <trkpt lat="46.103978" lon="10.896817"><ele>1757.4</ele></trkpt>
      <trkpt lat="46.103713" lon="10.896922"><ele>1758.4</ele></trkpt>
      <trkpt lat="46.103501" lon="10.897252"><ele>1758.4</ele></trkpt>
      <trkpt lat="46.103132" lon="10.897329"><ele>1757.1</ele></trkpt>
      <trkpt lat="46.102858" lon="10.897396"><ele>1757.6</ele></trkpt>
      <trkpt lat="46.102536" lon="10.897433"><ele>1759.8</ele></trkpt>
      <trkpt lat="46.102293" lon="10.897365"><ele>1764.6</ele></trkpt>
      <trkpt lat="46.101886" lon="10.897421"><ele>1772.1</ele></trkpt>
      <trkpt lat="46.101615" lon="10.897695"><ele>1782.7</ele></trkpt>
      <trkpt lat="46.101326" lon="10.897780"><ele>1791.6</ele></trkpt>
      <trkpt lat="46.101064" lon="10.898016"><ele>1799.8</ele></trkpt>
      <trkpt lat="46.100899" lon="10.898236"><ele>1807.4</ele></trkpt>
      <trkpt lat="46.100631" lon="10.898381"><ele>1814.3</ele></trkpt>
      <trkpt lat="46.100457" lon="10.898743"><ele>1817.4</ele></trkpt>
      <trkpt lat="46.100200" lon="10.898710"><ele>1818.4</ele></trkpt>
      <trkpt lat="46.099923" lon="10.898605"><ele>1816.4</ele></trkpt>
      <trkpt lat="46.099681" lon="10.898688"><ele>1811.3</ele></trkpt>
      <trkpt lat="46.099417" lon="10.898755"><ele>1803.2</ele></trkpt>
      <trkpt lat="46.099192" lon="10.899069"><ele>1796.7</ele></trkpt>
      <trkpt lat="46.098962" lon="10.898983"><ele>1791.9</ele></trkpt>
      <trkpt lat="46.098799" lon="10.898620"><ele>1788.6</ele></trkpt>
      <trkpt lat="46.098571" lon="10.898680"><ele>1784.5</ele></trkpt>
      <trkpt lat="46.098337" lon="10.898673"><ele>1779.6</ele></trkpt>
      <trkpt lat="46.098114" lon="10.898839"><ele>1772.2</ele></trkpt>
      <trkpt lat="46.097880" lon="10.899020"><ele>1762.3</ele></trkpt>
      <trkpt lat="46.097662" lon="10.899270"><ele>1750.0</ele></trkpt>
      <trkpt lat="46.097546" lon="10.899673"><ele>1737.7</ele></trkpt>
      <trkpt lat="46.097639" lon="10.900011"><ele>1724.2</ele></trkpt>
      <trkpt lat="46.097642" lon="10.900351"><ele>1709.5</ele></trkpt>
      <trkpt lat="46.097566" lon="10.900756"><ele>1693.7</ele></trkpt>
      <trkpt lat="46.097652" lon="10.901114"><ele>1679.2</ele></trkpt>
      <trkpt lat="46.097666" lon="10.901480"><ele>1666.1</ele></trkpt>
      <trkpt lat="46.097491" lon="10.901932"><ele>1655.4</ele></trkpt>
      <trkpt lat="46.097459" lon="10.902294"><ele>1647.1</ele></trkpt>
      <trkpt lat="46.097404" lon="10.902836"><ele>1641.3</ele></trkpt>
      <trkpt lat="46.097242" lon="10.903139"><ele>1635.6</ele></trkpt>
      <trkpt lat="46.097139" lon="10.903519"><ele>1628.8</ele></trkpt>
      <trkpt lat="46.096901" lon="10.903822"><ele>1621.1</ele></trkpt>
      <trkpt lat="46.096660" lon="10.903783"><ele>1612.5</ele></trkpt>
      <trkpt lat="46.096412" lon="10.903404"><ele>1602.9</ele></trkpt>
      <trkpt lat="46.096183" lon="10.902936"><ele>1592.3</ele></trkpt>
      <trkpt lat="46.095903" lon="10.902767"><ele>1581.7</ele></trkpt>
      <trkpt lat="46.095665" lon="10.902807"><ele>1571.2</ele></trkpt>
      <trkpt lat="46.095427" lon="10.903180"><ele>1560.6</ele></trkpt>
      <trkpt lat="46.095397" lon="10.903569"><ele>1550.0</ele></trkpt>
      <trkpt lat="46.095321" lon="10.903990"><ele>1541.6</ele></trkpt>
      <trkpt lat="46.095108" lon="10.904201"><ele>1533.3</ele></trkpt>
      <trkpt lat="46.094844" lon="10.904149"><ele>1525.2</ele></trkpt>
      <trkpt lat="46.094541" lon="10.903649"><ele>1517.3</ele></trkpt>
      <trkpt lat="46.094372" lon="10.903295"><ele>1509.6</ele></trkpt>
      <trkpt lat="46.094143" lon="10.903091"><ele>1499.9</ele></trkpt>
      <trkpt lat="46.093755" lon="10.902665"><ele>1489.4</ele></trkpt>
      <trkpt lat="46.093651" lon="10.902329"><ele>1478.8</ele></trkpt>
      <trkpt lat="46.093304" lon="10.902246"><ele>1468.3</ele></trkpt>
      <trkpt lat="46.093098" lon="10.902455"><ele>1457.7</ele></trkpt>
      <trkpt lat="46.092977" lon="10.902793"><ele>1449.0</ele></trkpt>
      <trkpt lat="46.092709" lon="10.902510"><ele>1440.7</ele></trkpt>
      <trkpt lat="46.092413" lon="10.902064"><ele>1431.6</ele></trkpt>
      <trkpt lat="46.092200" lon="10.902278"><ele>1421.6</ele></trkpt>
      <trkpt lat="46.091997" lon="10.902657"><ele>1411.1</ele></trkpt>
      <trkpt lat="46.091919" lon="10.903346"><ele>1399.0</ele></trkpt>
      <trkpt lat="46.091692" lon="10.903512"><ele>1386.8</ele></trkpt>
      <trkpt lat="46.091359" lon="10.903909"><ele>1374.8</ele></trkpt>
      <trkpt lat="46.090509" lon="10.904384"><ele>1363.1</ele></trkpt>
      <trkpt lat="46.090274" lon="10.904258"><ele>1351.3</ele></trkpt>
      <trkpt lat="46.090267" lon="10.903928"><ele>1341.2</ele></trkpt>
      <trkpt lat="46.090320" lon="10.903536"><ele>1332.0</ele></trkpt>
      <trkpt lat="46.090317" lon="10.903109"><ele>1323.6</ele></trkpt>
      <trkpt lat="46.090393" lon="10.902482"><ele>1315.9</ele></trkpt>
      <trkpt lat="46.090202" lon="10.902259"><ele>1309.0</ele></trkpt>
      <trkpt lat="46.089997" lon="10.902563"><ele>1300.1</ele></trkpt>
      <trkpt lat="46.089700" lon="10.902659"><ele>1288.7</ele></trkpt>
      <trkpt lat="46.089435" lon="10.902724"><ele>1274.6</ele></trkpt>
      <trkpt lat="46.088899" lon="10.902841"><ele>1258.1</ele></trkpt>
      <trkpt lat="46.088440" lon="10.903059"><ele>1239.2</ele></trkpt>
      <trkpt lat="46.087847" lon="10.903400"><ele>1219.6</ele></trkpt>
      <trkpt lat="46.087586" lon="10.903861"><ele>1201.6</ele></trkpt>
      <trkpt lat="46.087397" lon="10.904218"><ele>1185.4</ele></trkpt>
      <trkpt lat="46.087294" lon="10.904825"><ele>1170.8</ele></trkpt>
      <trkpt lat="46.087052" lon="10.904688"><ele>1157.0</ele></trkpt>
      <trkpt lat="46.086948" lon="10.904336"><ele>1144.9</ele></trkpt>
      <trkpt lat="46.086815" lon="10.903830"><ele>1134.3</ele></trkpt>
      <trkpt lat="46.086716" lon="10.903039"><ele>1125.3</ele></trkpt>
      <trkpt lat="46.086703" lon="10.902698"><ele>1117.9</ele></trkpt>
      <trkpt lat="46.086787" lon="10.902228"><ele>1113.0</ele></trkpt>
      <trkpt lat="46.086582" lon="10.902005"><ele>1108.4</ele></trkpt>
      <trkpt lat="46.086336" lon="10.901965"><ele>1103.8</ele></trkpt>
      <trkpt lat="46.086128" lon="10.901782"><ele>1099.4</ele></trkpt>
      <trkpt lat="46.085890" lon="10.901578"><ele>1096.1</ele></trkpt>
      <trkpt lat="46.085953" lon="10.901267"><ele>1093.5</ele></trkpt>
      <trkpt lat="46.086193" lon="10.901053"><ele>1091.8</ele></trkpt>
      <trkpt lat="46.086450" lon="10.900755"><ele>1089.8</ele></trkpt>
      <trkpt lat="46.086730" lon="10.900270"><ele>1087.3</ele></trkpt>
      <trkpt lat="46.086515" lon="10.900066"><ele>1083.5</ele></trkpt>
      <trkpt lat="46.086261" lon="10.900136"><ele>1078.6</ele></trkpt>
      <trkpt lat="46.085937" lon="10.900206"><ele>1072.3</ele></trkpt>
      <trkpt lat="46.085668" lon="10.900150"><ele>1064.0</ele></trkpt>
      <trkpt lat="46.085272" lon="10.900143"><ele>1052.4</ele></trkpt>
      <trkpt lat="46.084879" lon="10.900150"><ele>1038.6</ele></trkpt>
      <trkpt lat="46.084496" lon="10.900063"><ele>1022.7</ele></trkpt>
      <trkpt lat="46.084271" lon="10.900038"><ele>1006.0</ele></trkpt>
      <trkpt lat="46.083860" lon="10.900031"><ele>990.5</ele></trkpt>
      <trkpt lat="46.083617" lon="10.899981"><ele>977.5</ele></trkpt>
      <trkpt lat="46.083314" lon="10.899702"><ele>965.7</ele></trkpt>
      <trkpt lat="46.083724" lon="10.899468"><ele>953.9</ele></trkpt>
      <trkpt lat="46.083867" lon="10.899164"><ele>943.1</ele></trkpt>
      <trkpt lat="46.084544" lon="10.898784"><ele>934.3</ele></trkpt>
      <trkpt lat="46.084591" lon="10.898406"><ele>926.5</ele></trkpt>
      <trkpt lat="46.084376" lon="10.898186"><ele>919.6</ele></trkpt>
      <trkpt lat="46.083770" lon="10.898285"><ele>913.0</ele></trkpt>
      <trkpt lat="46.083038" lon="10.898237"><ele>904.7</ele></trkpt>
      <trkpt lat="46.082788" lon="10.898125"><ele>893.5</ele></trkpt>
      <trkpt lat="46.082468" lon="10.898139"><ele>880.9</ele></trkpt>
      <trkpt lat="46.081837" lon="10.898168"><ele>868.1</ele></trkpt>
      <trkpt lat="46.081474" lon="10.898032"><ele>857.0</ele></trkpt>
      <trkpt lat="46.081193" lon="10.897738"><ele>847.5</ele></trkpt>
      <trkpt lat="46.080971" lon="10.897674"><ele>838.3</ele></trkpt>
      <trkpt lat="46.080506" lon="10.897726"><ele>829.0</ele></trkpt>
      <trkpt lat="46.080224" lon="10.898120"><ele>820.1</ele></trkpt>
      <trkpt lat="46.079956" lon="10.898364"><ele>811.6</ele></trkpt>
      <trkpt lat="46.079616" lon="10.898657"><ele>803.5</ele></trkpt>
      <trkpt lat="46.079287" lon="10.898693"><ele>796.8</ele></trkpt>
      <trkpt lat="46.079067" lon="10.898860"><ele>791.4</ele></trkpt>
      <trkpt lat="46.078785" lon="10.899370"><ele>784.8</ele></trkpt>
      <trkpt lat="46.078483" lon="10.899612"><ele>776.9</ele></trkpt>
      <trkpt lat="46.078213" lon="10.899577"><ele>769.1</ele></trkpt>
      <trkpt lat="46.077844" lon="10.899574"><ele>761.8</ele></trkpt>
      <trkpt lat="46.077500" lon="10.899583"><ele>755.0</ele></trkpt>
      <trkpt lat="46.077258" lon="10.899512"><ele>749.6</ele></trkpt>
      <trkpt lat="46.076945" lon="10.899454"><ele>745.4</ele></trkpt>
      <trkpt lat="46.076561" lon="10.899434"><ele>741.3</ele></trkpt>
      <trkpt lat="46.076305" lon="10.899496"><ele>737.2</ele></trkpt>
      <trkpt lat="46.076042" lon="10.899492"><ele>733.9</ele></trkpt>
      <trkpt lat="46.075789" lon="10.899495"><ele>731.5</ele></trkpt>
      <trkpt lat="46.075458" lon="10.899445"><ele>729.8</ele></trkpt>
      <trkpt lat="46.075454" lon="10.899075"><ele>729.0</ele></trkpt>
      <trkpt lat="46.075635" lon="10.898871"><ele>729.8</ele></trkpt>
      <trkpt lat="46.075925" lon="10.898727"><ele>730.9</ele></trkpt>
      <trkpt lat="46.076262" lon="10.898694"><ele>732.2</ele></trkpt>
      <trkpt lat="46.076556" lon="10.898657"><ele>733.8</ele></trkpt>
      <trkpt lat="46.076835" lon="10.898577"><ele>735.6</ele></trkpt>
      <trkpt lat="46.077050" lon="10.898395"><ele>736.8</ele></trkpt>
      <trkpt lat="46.077225" lon="10.898092"><ele>738.0</ele></trkpt>
      <trkpt lat="46.077391" lon="10.897861"><ele>739.1</ele></trkpt>
      <trkpt lat="46.077560" lon="10.897520"><ele>740.0</ele></trkpt>
      <trkpt lat="46.077739" lon="10.897102"><ele>740.0</ele></trkpt>
      <trkpt lat="46.077483" lon="10.896958"><ele>739.7</ele></trkpt>
      <trkpt lat="46.077356" lon="10.896475"><ele>738.9</ele></trkpt>
      <trkpt lat="46.077333" lon="10.896042"><ele>737.1</ele></trkpt>
      <trkpt lat="46.077418" lon="10.895573"><ele>734.3</ele></trkpt>
      <trkpt lat="46.077599" lon="10.895050"><ele>731.2</ele></trkpt>
      <trkpt lat="46.077711" lon="10.894680"><ele>727.3</ele></trkpt>
      <trkpt lat="46.077778" lon="10.894146"><ele>722.8</ele></trkpt>
      <trkpt lat="46.077927" lon="10.893838"><ele>718.4</ele></trkpt>
      <trkpt lat="46.077945" lon="10.893410"><ele>714.1</ele></trkpt>
      <trkpt lat="46.077758" lon="10.893222"><ele>711.0</ele></trkpt>
      <trkpt lat="46.077739" lon="10.892872"><ele>707.3</ele></trkpt>
      <trkpt lat="46.077985" lon="10.892612"><ele>703.5</ele></trkpt>
      <trkpt lat="46.078247" lon="10.892480"><ele>699.1</ele></trkpt>
      <trkpt lat="46.078560" lon="10.892260"><ele>694.1</ele></trkpt>
      <trkpt lat="46.078846" lon="10.892086"><ele>687.4</ele></trkpt>
      <trkpt lat="46.079239" lon="10.891678"><ele>681.0</ele></trkpt>
      <trkpt lat="46.079482" lon="10.891348"><ele>674.0</ele></trkpt>
      <trkpt lat="46.079283" lon="10.891120"><ele>667.0</ele></trkpt>
      <trkpt lat="46.079038" lon="10.891024"><ele>659.0</ele></trkpt>
      <trkpt lat="46.078673" lon="10.891115"><ele>650.9</ele></trkpt>
      <trkpt lat="46.078347" lon="10.891246"><ele>643.6</ele></trkpt>
      <trkpt lat="46.078066" lon="10.891263"><ele>637.7</ele></trkpt>
      <trkpt lat="46.077802" lon="10.891213"><ele>633.0</ele></trkpt>
      <trkpt lat="46.077522" lon="10.891204"><ele>630.7</ele></trkpt>
      <trkpt lat="46.077179" lon="10.891302"><ele>629.7</ele></trkpt>
      <trkpt lat="46.076723" lon="10.891507"><ele>629.2</ele></trkpt>
      <trkpt lat="46.076364" lon="10.891951"><ele>628.1</ele></trkpt>
      <trkpt lat="46.076099" lon="10.892194"><ele>626.2</ele></trkpt>
      <trkpt lat="46.075852" lon="10.892391"><ele>624.4</ele></trkpt>
      <trkpt lat="46.075692" lon="10.892630"><ele>622.0</ele></trkpt>
      <trkpt lat="46.075517" lon="10.892889"><ele>619.7</ele></trkpt>
      <trkpt lat="46.075858" lon="10.892043"><ele>618.2</ele></trkpt>
      <trkpt lat="46.076079" lon="10.891340"><ele>617.5</ele></trkpt>
      <trkpt lat="46.075976" lon="10.891024"><ele>615.5</ele></trkpt>
      <trkpt lat="46.075688" lon="10.891004"><ele>612.8</ele></trkpt>
      <trkpt lat="46.075678" lon="10.891450"><ele>609.6</ele></trkpt>
      <trkpt lat="46.075489" lon="10.891733"><ele>605.8</ele></trkpt>
      <trkpt lat="46.075417" lon="10.892054"><ele>601.4</ele></trkpt>
      <trkpt lat="46.075206" lon="10.892271"><ele>597.7</ele></trkpt>
      <trkpt lat="46.074970" lon="10.892370"><ele>594.8</ele></trkpt>
      <trkpt lat="46.074740" lon="10.892304"><ele>592.0</ele></trkpt>
      <trkpt lat="46.074486" lon="10.892287"><ele>589.3</ele></trkpt>
      <trkpt lat="46.074331" lon="10.892008"><ele>587.8</ele></trkpt>
      <trkpt lat="46.074105" lon="10.891842"><ele>587.4</ele></trkpt>
      <trkpt lat="46.073799" lon="10.891725"><ele>588.0</ele></trkpt>
      <trkpt lat="46.073566" lon="10.891609"><ele>589.7</ele></trkpt>
      <trkpt lat="46.073268" lon="10.891378"><ele>592.3</ele></trkpt>
      <trkpt lat="46.073004" lon="10.891297"><ele>595.0</ele></trkpt>
      <trkpt lat="46.072585" lon="10.891075"><ele>597.6</ele></trkpt>
      <trkpt lat="46.072303" lon="10.891054"><ele>600.3</ele></trkpt>
      <trkpt lat="46.071919" lon="10.891146"><ele>602.9</ele></trkpt>
      <trkpt lat="46.071675" lon="10.891143"><ele>605.7</ele></trkpt>
      <trkpt lat="46.071333" lon="10.891193"><ele>607.0</ele></trkpt>
      <trkpt lat="46.071027" lon="10.891281"><ele>606.6</ele></trkpt>
      <trkpt lat="46.070785" lon="10.891389"><ele>604.5</ele></trkpt>
      <trkpt lat="46.070264" lon="10.891638"><ele>600.9</ele></trkpt>
      <trkpt lat="46.070028" lon="10.891610"><ele>595.7</ele></trkpt>
      <trkpt lat="46.069783" lon="10.891591"><ele>590.2</ele></trkpt>
      <trkpt lat="46.069474" lon="10.891749"><ele>584.2</ele></trkpt>
      <trkpt lat="46.069271" lon="10.892033"><ele>577.9</ele></trkpt>
      <trkpt lat="46.069033" lon="10.892131"><ele>571.1</ele></trkpt>
      <trkpt lat="46.068800" lon="10.892153"><ele>565.5</ele></trkpt>
      <trkpt lat="46.068574" lon="10.892176"><ele>560.8</ele></trkpt>
      <trkpt lat="46.068186" lon="10.892361"><ele>557.1</ele></trkpt>
      <trkpt lat="46.067979" lon="10.892561"><ele>554.4</ele></trkpt>
      <trkpt lat="46.067769" lon="10.892912"><ele>552.3</ele></trkpt>
      <trkpt lat="46.067507" lon="10.893252"><ele>548.8</ele></trkpt>
      <trkpt lat="46.067347" lon="10.893601"><ele>544.9</ele></trkpt>
      <trkpt lat="46.067266" lon="10.893970"><ele>541.1</ele></trkpt>
      <trkpt lat="46.067213" lon="10.894437"><ele>537.4</ele></trkpt>
      <trkpt lat="46.067231" lon="10.894799"><ele>534.1</ele></trkpt>
      <trkpt lat="46.067237" lon="10.895137"><ele>532.3</ele></trkpt>
      <trkpt lat="46.067048" lon="10.895366"><ele>531.8</ele></trkpt>
      <trkpt lat="46.066745" lon="10.895380"><ele>532.3</ele></trkpt>
      <trkpt lat="46.066488" lon="10.895306"><ele>533.6</ele></trkpt>
      <trkpt lat="46.066159" lon="10.895263"><ele>535.9</ele></trkpt>
      <trkpt lat="46.065883" lon="10.895205"><ele>538.2</ele></trkpt>
      <trkpt lat="46.065473" lon="10.895037"><ele>540.0</ele></trkpt>
      <trkpt lat="46.065031" lon="10.894830"><ele>541.8</ele></trkpt>
      <trkpt lat="46.064791" lon="10.894685"><ele>543.8</ele></trkpt>
      <trkpt lat="46.063812" lon="10.894324"><ele>545.9</ele></trkpt>
      <trkpt lat="46.063574" lon="10.894348"><ele>548.1</ele></trkpt>
      <trkpt lat="46.063105" lon="10.894414"><ele>550.9</ele></trkpt>
      <trkpt lat="46.063168" lon="10.894078"><ele>553.9</ele></trkpt>
      <trkpt lat="46.063154" lon="10.893649"><ele>557.1</ele></trkpt>
      <trkpt lat="46.063101" lon="10.893253"><ele>561.0</ele></trkpt>
      <trkpt lat="46.063007" lon="10.892630"><ele>565.5</ele></trkpt>
      <trkpt lat="46.062969" lon="10.892290"><ele>569.2</ele></trkpt>
      <trkpt lat="46.062984" lon="10.891844"><ele>571.8</ele></trkpt>
      <trkpt lat="46.062905" lon="10.891469"><ele>573.4</ele></trkpt>
      <trkpt lat="46.062681" lon="10.891238"><ele>573.6</ele></trkpt>
      <trkpt lat="46.062450" lon="10.891167"><ele>572.2</ele></trkpt>
      <trkpt lat="46.062296" lon="10.891407"><ele>571.6</ele></trkpt>
      <trkpt lat="46.062181" lon="10.891729"><ele>571.6</ele></trkpt>
      <trkpt lat="46.061858" lon="10.891997"><ele>571.8</ele></trkpt>
      <trkpt lat="46.061368" lon="10.892589"><ele>572.3</ele></trkpt>
      <trkpt lat="46.061006" lon="10.892709"><ele>573.9</ele></trkpt>
      <trkpt lat="46.060633" lon="10.892720"><ele>576.0</ele></trkpt>
      <trkpt lat="46.060378" lon="10.892574"><ele>578.6</ele></trkpt>
      <trkpt lat="46.060179" lon="10.892760"><ele>582.0</ele></trkpt>
      <trkpt lat="46.060085" lon="10.893169"><ele>586.3</ele></trkpt>
      <trkpt lat="46.059830" lon="10.893276"><ele>589.0</ele></trkpt>
      <trkpt lat="46.059592" lon="10.893188"><ele>591.0</ele></trkpt>
      <trkpt lat="46.059631" lon="10.892831"><ele>592.1</ele></trkpt>
      <trkpt lat="46.059413" lon="10.893079"><ele>592.5</ele></trkpt>
      <trkpt lat="46.059077" lon="10.893429"><ele>592.1</ele></trkpt>
      <trkpt lat="46.058753" lon="10.893722"><ele>592.6</ele></trkpt>
      <trkpt lat="46.058413" lon="10.893761"><ele>593.0</ele></trkpt>
      <trkpt lat="46.057933" lon="10.893930"><ele>593.4</ele></trkpt>
      <trkpt lat="46.057664" lon="10.894097"><ele>593.8</ele></trkpt>
      <trkpt lat="46.057256" lon="10.894383"><ele>595.5</ele></trkpt>
      <trkpt lat="46.057081" lon="10.894645"><ele>597.7</ele></trkpt>
      <trkpt lat="46.056792" lon="10.894996"><ele>600.6</ele></trkpt>
      <trkpt lat="46.056625" lon="10.895268"><ele>603.9</ele></trkpt>
      <trkpt lat="46.056580" lon="10.895657"><ele>608.0</ele></trkpt>
      <trkpt lat="46.056483" lon="10.896151"><ele>611.2</ele></trkpt>
      <trkpt lat="46.056241" lon="10.896663"><ele>614.0</ele></trkpt>
      <trkpt lat="46.055946" lon="10.896999"><ele>616.3</ele></trkpt>
      <trkpt lat="46.055692" lon="10.897059"><ele>618.2</ele></trkpt>
      <trkpt lat="46.055333" lon="10.896895"><ele>617.9</ele></trkpt>
      <trkpt lat="46.055061" lon="10.896624"><ele>616.0</ele></trkpt>
      <trkpt lat="46.054250" lon="10.895907"><ele>613.2</ele></trkpt>
      <trkpt lat="46.053569" lon="10.895474"><ele>609.3</ele></trkpt>
      <trkpt lat="46.052823" lon="10.894894"><ele>604.2</ele></trkpt>
      <trkpt lat="46.052224" lon="10.894304"><ele>600.0</ele></trkpt>
      <trkpt lat="46.051836" lon="10.893933"><ele>595.0</ele></trkpt>
      <trkpt lat="46.051499" lon="10.893747"><ele>589.7</ele></trkpt>
      <trkpt lat="46.051313" lon="10.893498"><ele>584.0</ele></trkpt>
      <trkpt lat="46.050545" lon="10.892837"><ele>579.2</ele></trkpt>
      <trkpt lat="46.050231" lon="10.892377"><ele>574.3</ele></trkpt>
      <trkpt lat="46.050117" lon="10.892092"><ele>570.3</ele></trkpt>
      <trkpt lat="46.049909" lon="10.891731"><ele>567.1</ele></trkpt>
      <trkpt lat="46.049711" lon="10.891364"><ele>564.7</ele></trkpt>
      <trkpt lat="46.049519" lon="10.890994"><ele>562.0</ele></trkpt>
      <trkpt lat="46.049337" lon="10.890766"><ele>561.0</ele></trkpt>
      <trkpt lat="46.048944" lon="10.890194"><ele>561.3</ele></trkpt>
      <trkpt lat="46.048681" lon="10.889750"><ele>562.4</ele></trkpt>
      <trkpt lat="46.048544" lon="10.889444"><ele>563.8</ele></trkpt>
      <trkpt lat="46.048404" lon="10.889110"><ele>565.6</ele></trkpt>
      <trkpt lat="46.048249" lon="10.888812"><ele>566.5</ele></trkpt>
      <trkpt lat="46.048013" lon="10.888524"><ele>566.5</ele></trkpt>
      <trkpt lat="46.048073" lon="10.888863"><ele>565.6</ele></trkpt>
      <trkpt lat="46.048025" lon="10.889284"><ele>564.2</ele></trkpt>
      <trkpt lat="46.048054" lon="10.889635"><ele>561.9</ele></trkpt>
      <trkpt lat="46.048154" lon="10.890151"><ele>558.8</ele></trkpt>
      <trkpt lat="46.048341" lon="10.890429"><ele>555.3</ele></trkpt>
      <trkpt lat="46.048491" lon="10.890852"><ele>550.7</ele></trkpt>
      <trkpt lat="46.048632" lon="10.891191"><ele>545.1</ele></trkpt>
      <trkpt lat="46.048596" lon="10.891616"><ele>538.9</ele></trkpt>
      <trkpt lat="46.048607" lon="10.892114"><ele>532.1</ele></trkpt>
      <trkpt lat="46.048647" lon="10.892457"><ele>526.2</ele></trkpt>
      <trkpt lat="46.048736" lon="10.892817"><ele>521.7</ele></trkpt>
      <trkpt lat="46.049302" lon="10.893902"><ele>518.1</ele></trkpt>
      <trkpt lat="46.049458" lon="10.894154"><ele>515.5</ele></trkpt>
      <trkpt lat="46.049608" lon="10.894396"><ele>511.5</ele></trkpt>
      <trkpt lat="46.049804" lon="10.894693"><ele>507.4</ele></trkpt>
      <trkpt lat="46.050028" lon="10.895031"><ele>503.4</ele></trkpt>
      <trkpt lat="46.050062" lon="10.895433"><ele>500.0</ele></trkpt>
      <trkpt lat="46.050132" lon="10.895849"><ele>497.1</ele></trkpt>
      <trkpt lat="46.050120" lon="10.896199"><ele>495.6</ele></trkpt>
      <trkpt lat="46.049886" lon="10.896024"><ele>492.6</ele></trkpt>
      <trkpt lat="46.049806" lon="10.895683"><ele>489.2</ele></trkpt>
      <trkpt lat="46.049752" lon="10.895361"><ele>483.5</ele></trkpt>
      <trkpt lat="46.049525" lon="10.895214"><ele>477.9</ele></trkpt>
      <trkpt lat="46.049320" lon="10.895071"><ele>472.1</ele></trkpt>
      <trkpt lat="46.048460" lon="10.894492"><ele>466.1</ele></trkpt>
      <trkpt lat="46.048295" lon="10.894265"><ele>458.9</ele></trkpt>
      <trkpt lat="46.047981" lon="10.894228"><ele>452.2</ele></trkpt>
      <trkpt lat="46.047745" lon="10.894137"><ele>445.5</ele></trkpt>
      <trkpt lat="46.047434" lon="10.894106"><ele>440.4</ele></trkpt>
      <trkpt lat="46.047191" lon="10.894294"><ele>437.0</ele></trkpt>
      <trkpt lat="46.047457" lon="10.894459"><ele>437.0</ele></trkpt>
      <trkpt lat="46.047703" lon="10.894588"><ele>440.4</ele></trkpt>
      <trkpt lat="46.047898" lon="10.894785"><ele>445.5</ele></trkpt>
      <trkpt lat="46.048167" lon="10.894919"><ele>452.2</ele></trkpt>
      <trkpt lat="46.048403" lon="10.895350"><ele>458.9</ele></trkpt>
      <trkpt lat="46.048663" lon="10.895442"><ele>463.8</ele></trkpt>
      <trkpt lat="46.048750" lon="10.895799"><ele>465.2</ele></trkpt>
      <trkpt lat="46.048536" lon="10.895638"><ele>462.9</ele></trkpt>
      <trkpt lat="46.048306" lon="10.895584"><ele>456.8</ele></trkpt>
      <trkpt lat="46.048039" lon="10.895613"><ele>448.8</ele></trkpt>
      <trkpt lat="46.048604" lon="10.896236"><ele>438.9</ele></trkpt>
      <trkpt lat="46.048859" lon="10.896633"><ele>428.7</ele></trkpt>
      <trkpt lat="46.049045" lon="10.897225"><ele>418.4</ele></trkpt>
      <trkpt lat="46.049445" lon="10.898035"><ele>410.0</ele></trkpt>
      <trkpt lat="46.049618" lon="10.898338"><ele>403.3</ele></trkpt>
      <trkpt lat="46.049476" lon="10.898599"><ele>398.4</ele></trkpt>
      <trkpt lat="46.049154" lon="10.898809"><ele>395.9</ele></trkpt>
      <trkpt lat="46.048859" lon="10.898832"><ele>395.8</ele></trkpt>
      <trkpt lat="46.049020" lon="10.899084"><ele>396.3</ele></trkpt>
      <trkpt lat="46.049200" lon="10.899420"><ele>397.3</ele></trkpt>
      <trkpt lat="46.049459" lon="10.899703"><ele>399.0</ele></trkpt>
      <trkpt lat="46.049688" lon="10.899961"><ele>400.7</ele></trkpt>
      <trkpt lat="46.050018" lon="10.900373"><ele>404.1</ele></trkpt>
      <trkpt lat="46.050260" lon="10.900655"><ele>409.4</ele></trkpt>
      <trkpt lat="46.050587" lon="10.901043"><ele>416.5</ele></trkpt>
      <trkpt lat="46.050841" lon="10.901341"><ele>425.0</ele></trkpt>
      <trkpt lat="46.051065" lon="10.901812"><ele>435.0</ele></trkpt>
      <trkpt lat="46.051260" lon="10.902032"><ele>444.7</ele></trkpt>
      <trkpt lat="46.051530" lon="10.902292"><ele>454.0</ele></trkpt>
      <trkpt lat="46.051031" lon="10.902162"><ele>463.0</ele></trkpt>
      <trkpt lat="46.050921" lon="10.902451"><ele>472.0</ele></trkpt>
      <trkpt lat="46.051122" lon="10.902610"><ele>479.2</ele></trkpt>
      <trkpt lat="46.050912" lon="10.902887"><ele>484.6</ele></trkpt>
      <trkpt lat="46.050575" lon="10.903068"><ele>490.0</ele></trkpt>
      <trkpt lat="46.050375" lon="10.903316"><ele>495.5</ele></trkpt>
      <trkpt lat="46.050501" lon="10.903600"><ele>501.1</ele></trkpt>
      <trkpt lat="46.050752" lon="10.903797"><ele>508.4</ele></trkpt>
      <trkpt lat="46.051094" lon="10.904135"><ele>517.7</ele></trkpt>
      <trkpt lat="46.051386" lon="10.903964"><ele>526.9</ele></trkpt>
      <trkpt lat="46.051291" lon="10.904301"><ele>536.1</ele></trkpt>
      <trkpt lat="46.051239" lon="10.904632"><ele>545.3</ele></trkpt>
      <trkpt lat="46.051119" lon="10.905033"><ele>555.2</ele></trkpt>
      <trkpt lat="46.051050" lon="10.905414"><ele>563.8</ele></trkpt>
      <trkpt lat="46.050778" lon="10.905529"><ele>571.2</ele></trkpt>
      <trkpt lat="46.050497" lon="10.905588"><ele>577.4</ele></trkpt>
      <trkpt lat="46.050290" lon="10.905851"><ele>582.9</ele></trkpt>
      <trkpt lat="46.050020" lon="10.905873"><ele>587.2</ele></trkpt>
      <trkpt lat="46.049616" lon="10.905910"><ele>592.0</ele></trkpt>
      <trkpt lat="46.049244" lon="10.906028"><ele>597.0</ele></trkpt>
      <trkpt lat="46.048947" lon="10.906098"><ele>602.1</ele></trkpt>
      <trkpt lat="46.048399" lon="10.906216"><ele>606.7</ele></trkpt>
      <trkpt lat="46.047848" lon="10.906298"><ele>610.9</ele></trkpt>
      <trkpt lat="46.047369" lon="10.906374"><ele>614.5</ele></trkpt>
      <trkpt lat="46.046843" lon="10.906286"><ele>618.1</ele></trkpt>
      <trkpt lat="46.046524" lon="10.906165"><ele>621.1</ele></trkpt>
      <trkpt lat="46.046150" lon="10.906074"><ele>623.5</ele></trkpt>
      <trkpt lat="46.045724" lon="10.905948"><ele>625.2</ele></trkpt>
      <trkpt lat="46.045476" lon="10.905965"><ele>626.8</ele></trkpt>
      <trkpt lat="46.044955" lon="10.905807"><ele>628.2</ele></trkpt>
      <trkpt lat="46.044791" lon="10.905584"><ele>630.1</ele></trkpt>
      <trkpt lat="46.044567" lon="10.904828"><ele>632.6</ele></trkpt>
      <trkpt lat="46.044416" lon="10.904288"><ele>635.8</ele></trkpt>
      <trkpt lat="46.044210" lon="10.903479"><ele>639.1</ele></trkpt>
      <trkpt lat="46.044002" lon="10.902811"><ele>642.7</ele></trkpt>
      <trkpt lat="46.043817" lon="10.902340"><ele>646.2</ele></trkpt>
      <trkpt lat="46.043663" lon="10.902006"><ele>649.8</ele></trkpt>
      <trkpt lat="46.043672" lon="10.901664"><ele>652.6</ele></trkpt>
      <trkpt lat="46.043661" lon="10.901313"><ele>654.5</ele></trkpt>
      <trkpt lat="46.043619" lon="10.900988"><ele>654.7</ele></trkpt>
      <trkpt lat="46.043364" lon="10.900574"><ele>653.3</ele></trkpt>
      <trkpt lat="46.043095" lon="10.900310"><ele>650.2</ele></trkpt>
      <trkpt lat="46.042710" lon="10.900006"><ele>648.3</ele></trkpt>
      <trkpt lat="46.042395" lon="10.899886"><ele>646.5</ele></trkpt>
      <trkpt lat="46.042186" lon="10.899553"><ele>645.6</ele></trkpt>
      <trkpt lat="46.041883" lon="10.899100"><ele>645.7</ele></trkpt>
      <trkpt lat="46.041801" lon="10.898786"><ele>647.6</ele></trkpt>
      <trkpt lat="46.041777" lon="10.898424"><ele>649.5</ele></trkpt>
      <trkpt lat="46.041613" lon="10.897947"><ele>652.3</ele></trkpt>
      <trkpt lat="46.041414" lon="10.897665"><ele>655.2</ele></trkpt>
      <trkpt lat="46.041151" lon="10.897324"><ele>658.4</ele></trkpt>
      <trkpt lat="46.040965" lon="10.896994"><ele>658.9</ele></trkpt>
      <trkpt lat="46.040734" lon="10.896777"><ele>657.6</ele></trkpt>
      <trkpt lat="46.040439" lon="10.896581"><ele>654.7</ele></trkpt>
      <trkpt lat="46.039709" lon="10.896082"><ele>651.6</ele></trkpt>
      <trkpt lat="46.039402" lon="10.895736"><ele>648.4</ele></trkpt>
      <trkpt lat="46.039133" lon="10.895522"><ele>646.9</ele></trkpt>
      <trkpt lat="46.038733" lon="10.895337"><ele>645.9</ele></trkpt>
      <trkpt lat="46.038295" lon="10.895189"><ele>646.7</ele></trkpt>
      <trkpt lat="46.037986" lon="10.895106"><ele>646.1</ele></trkpt>
      <trkpt lat="46.037048" lon="10.894666"><ele>646.3</ele></trkpt>
      <trkpt lat="46.036796" lon="10.894527"><ele>647.7</ele></trkpt>
      <trkpt lat="46.036556" lon="10.894238"><ele>651.1</ele></trkpt>
    </trkseg>
  </trk>
</gpx>
