<?xml version="1.0" encoding="UTF-8"?>
<gpx version="1.1" creator="TrailShare content prep" xmlns="http://www.topografix.com/GPX/1/1">
  <metadata>
    <name>Garda Brenta Tappa 6: Comano Terme → Rifugio San Pietro</name>
    <desc>Itinerario Garda Brenta (SAT, ref GB), tappa 6/7. Geometria: OpenStreetMap contributors (ODbL). Elevazione: Open-Elevation (SRTM), serie smussata e calibrata.</desc>
  </metadata>
  <trk>
    <name>Garda Brenta Tappa 6: Comano Terme → Rifugio San Pietro</name>
    <trkseg>
      <trkpt lat="46.035274" lon="10.894208"><ele>673.6</ele></trkpt>
      <trkpt lat="46.035663" lon="10.894101"><ele>675.3</ele></trkpt>
      <trkpt lat="46.035997" lon="10.894216"><ele>677.3</ele></trkpt>
      <trkpt lat="46.036258" lon="10.894241"><ele>679.7</ele></trkpt>
      <trkpt lat="46.036542" lon="10.894357"><ele>681.5</ele></trkpt>
      <trkpt lat="46.035274" lon="10.894208"><ele>683.8</ele></trkpt>
      <trkpt lat="46.034495" lon="10.894287"><ele>687.7</ele></trkpt>
      <trkpt lat="46.034132" lon="10.894379"><ele>693.2</ele></trkpt>
      <trkpt lat="46.033789" lon="10.894699"><ele>700.0</ele></trkpt>
      <trkpt lat="46.033662" lon="10.894974"><ele>707.8</ele></trkpt>
      <trkpt lat="46.034037" lon="10.895387"><ele>716.6</ele></trkpt>
      <trkpt lat="46.034228" lon="10.895561"><ele>725.0</ele></trkpt>
      <trkpt lat="46.033875" lon="10.895900"><ele>733.0</ele></trkpt>
      <trkpt lat="46.033592" lon="10.896083"><ele>741.3</ele></trkpt>
      <trkpt lat="46.033366" lon="10.896209"><ele>749.7</ele></trkpt>
      <trkpt lat="46.033136" lon="10.896485"><ele>757.4</ele></trkpt>
      <trkpt lat="46.032899" lon="10.896539"><ele>764.7</ele></trkpt>
      <trkpt lat="46.032720" lon="10.896785"><ele>771.3</ele></trkpt>
      <trkpt lat="46.032810" lon="10.897115"><ele>777.1</ele></trkpt>
      <trkpt lat="46.033054" lon="10.897410"><ele>782.1</ele></trkpt>
      <trkpt lat="46.033275" lon="10.897780"><ele>786.7</ele></trkpt>
      <trkpt lat="46.033348" lon="10.898172"><ele>791.9</ele></trkpt>
      <trkpt lat="46.033584" lon="10.898593"><ele>797.7</ele></trkpt>
      <trkpt lat="46.033819" lon="10.898789"><ele>804.5</ele></trkpt>
      <trkpt lat="46.034160" lon="10.899205"><ele>811.3</ele></trkpt>
      <trkpt lat="46.034363" lon="10.899537"><ele>818.3</ele></trkpt>
      <trkpt lat="46.034402" lon="10.899891"><ele>824.4</ele></trkpt>
      <trkpt lat="46.034446" lon="10.900245"><ele>829.8</ele></trkpt>
      <trkpt lat="46.034214" lon="10.900497"><ele>835.6</ele></trkpt>
      <trkpt lat="46.033936" lon="10.900597"><ele>842.8</ele></trkpt>
      <trkpt lat="46.033683" lon="10.900833"><ele>850.4</ele></trkpt>
      <trkpt lat="46.033569" lon="10.901216"><ele>858.4</ele></trkpt>
      <trkpt lat="46.033828" lon="10.901796"><ele>866.8</ele></trkpt>
      <trkpt lat="46.034048" lon="10.902072"><ele>873.8</ele></trkpt>
      <trkpt lat="46.034389" lon="10.902324"><ele>879.5</ele></trkpt>
      <trkpt lat="46.034575" lon="10.902506"><ele>884.8</ele></trkpt>
      <trkpt lat="46.034874" lon="10.902667"><ele>890.9</ele></trkpt>
      <trkpt lat="46.035134" lon="10.902791"><ele>896.4</ele></trkpt>
      <trkpt lat="46.035336" lon="10.903051"><ele>901.8</ele></trkpt>
      <trkpt lat="46.035564" lon="10.903585"><ele>907.1</ele></trkpt>
      <trkpt lat="46.035793" lon="10.903840"><ele>912.3</ele></trkpt>
      <trkpt lat="46.036023" lon="10.903915"><ele>917.1</ele></trkpt>
      <trkpt lat="46.036199" lon="10.904234"><ele>923.1</ele></trkpt>
      <trkpt lat="46.036392" lon="10.904486"><ele>930.3</ele></trkpt>
      <trkpt lat="46.036090" lon="10.904412"><ele>938.9</ele></trkpt>
      <trkpt lat="46.035832" lon="10.904306"><ele>945.8</ele></trkpt>
      <trkpt lat="46.035631" lon="10.904459"><ele>952.0</ele></trkpt>
      <trkpt lat="46.035335" lon="10.904612"><ele>957.0</ele></trkpt>
      <trkpt lat="46.035001" lon="10.904507"><ele>960.8</ele></trkpt>
      <trkpt lat="46.034713" lon="10.904320"><ele>963.4</ele></trkpt>
      <trkpt lat="46.034495" lon="10.904172"><ele>966.8</ele></trkpt>
      <trkpt lat="46.034165" lon="10.904134"><ele>969.4</ele></trkpt>
      <trkpt lat="46.033789" lon="10.904247"><ele>972.5</ele></trkpt>
      <trkpt lat="46.033353" lon="10.904665"><ele>976.2</ele></trkpt>
      <trkpt lat="46.033612" lon="10.905089"><ele>982.2</ele></trkpt>
      <trkpt lat="46.033904" lon="10.905524"><ele>989.6</ele></trkpt>
      <trkpt lat="46.034132" lon="10.905771"><ele>997.3</ele></trkpt>
      <trkpt lat="46.034258" lon="10.906044"><ele>1003.8</ele></trkpt>
      <trkpt lat="46.034501" lon="10.906608"><ele>1010.7</ele></trkpt>
      <trkpt lat="46.034724" lon="10.906865"><ele>1017.3</ele></trkpt>
      <trkpt lat="46.034890" lon="10.907165"><ele>1025.3</ele></trkpt>
      <trkpt lat="46.035038" lon="10.907412"><ele>1034.4</ele></trkpt>
      <trkpt lat="46.035433" lon="10.907844"><ele>1043.5</ele></trkpt>
      <trkpt lat="46.035562" lon="10.908249"><ele>1052.5</ele></trkpt>
      <trkpt lat="46.035437" lon="10.909023"><ele>1060.4</ele></trkpt>
      <trkpt lat="46.035309" lon="10.909484"><ele>1068.3</ele></trkpt>
      <trkpt lat="46.035132" lon="10.909764"><ele>1077.6</ele></trkpt>
      <trkpt lat="46.035381" lon="10.909993"><ele>1089.2</ele></trkpt>
      <trkpt lat="46.035603" lon="10.910135"><ele>1100.9</ele></trkpt>
      <trkpt lat="46.035703" lon="10.910545"><ele>1112.5</ele></trkpt>
      <trkpt lat="46.035736" lon="10.911248"><ele>1123.0</ele></trkpt>
      <trkpt lat="46.035963" lon="10.911912"><ele>1133.3</ele></trkpt>
      <trkpt lat="46.036019" lon="10.912255"><ele>1142.2</ele></trkpt>
      <trkpt lat="46.036243" lon="10.912538"><ele>1150.9</ele></trkpt>
      <trkpt lat="46.036433" lon="10.912822"><ele>1160.6</ele></trkpt>
      <trkpt lat="46.036657" lon="10.913013"><ele>1171.2</ele></trkpt>
      <trkpt lat="46.037005" lon="10.913286"><ele>1180.5</ele></trkpt>
      <trkpt lat="46.037306" lon="10.913710"><ele>1189.6</ele></trkpt>
      <trkpt lat="46.037320" lon="10.914069"><ele>1198.6</ele></trkpt>
      <trkpt lat="46.037264" lon="10.914523"><ele>1206.3</ele></trkpt>
      <trkpt lat="46.037282" lon="10.915000"><ele>1212.7</ele></trkpt>
      <trkpt lat="46.037258" lon="10.915344"><ele>1219.0</ele></trkpt>
      <trkpt lat="46.037064" lon="10.915604"><ele>1225.3</ele></trkpt>
      <trkpt lat="46.036714" lon="10.915435"><ele>1231.0</ele></trkpt>
      <trkpt lat="46.036441" lon="10.915649"><ele>1236.1</ele></trkpt>
      <trkpt lat="46.036225" lon="10.916009"><ele>1241.8</ele></trkpt>
      <trkpt lat="46.036102" lon="10.916355"><ele>1248.4</ele></trkpt>
      <trkpt lat="46.035852" lon="10.916226"><ele>1255.6</ele></trkpt>
      <trkpt lat="46.035603" lon="10.916339"><ele>1264.2</ele></trkpt>
      <trkpt lat="46.035333" lon="10.916280"><ele>1274.2</ele></trkpt>
      <trkpt lat="46.035219" lon="10.916601"><ele>1284.2</ele></trkpt>
      <trkpt lat="46.035026" lon="10.916846"><ele>1294.9</ele></trkpt>
      <trkpt lat="46.034804" lon="10.917098"><ele>1305.7</ele></trkpt>
      <trkpt lat="46.034508" lon="10.917170"><ele>1316.6</ele></trkpt>
      <trkpt lat="46.034109" lon="10.917326"><ele>1326.2</ele></trkpt>
      <trkpt lat="46.033862" lon="10.917336"><ele>1334.5</ele></trkpt>
      <trkpt lat="46.033571" lon="10.917433"><ele>1340.8</ele></trkpt>
      <trkpt lat="46.033329" lon="10.917304"><ele>1345.8</ele></trkpt>
      <trkpt lat="46.033083" lon="10.917425"><ele>1349.3</ele></trkpt>
      <trkpt lat="46.032888" lon="10.917618"><ele>1352.9</ele></trkpt>
      <trkpt lat="46.032553" lon="10.917682"><ele>1357.9</ele></trkpt>
      <trkpt lat="46.032294" lon="10.917712"><ele>1363.8</ele></trkpt>
      <trkpt lat="46.032076" lon="10.917878"><ele>1370.6</ele></trkpt>
      <trkpt lat="46.031812" lon="10.917972"><ele>1378.2</ele></trkpt>
      <trkpt lat="46.031530" lon="10.917763"><ele>1386.7</ele></trkpt>
      <trkpt lat="46.031299" lon="10.917519"><ele>1394.6</ele></trkpt>
      <trkpt lat="46.031111" lon="10.917116"><ele>1402.4</ele></trkpt>
      <trkpt lat="46.030864" lon="10.916521"><ele>1410.3</ele></trkpt>
      <trkpt lat="46.030489" lon="10.915807"><ele>1418.7</ele></trkpt>
      <trkpt lat="46.030368" lon="10.915443"><ele>1425.3</ele></trkpt>
      <trkpt lat="46.030219" lon="10.915118"><ele>1430.7</ele></trkpt>
      <trkpt lat="46.029964" lon="10.914914"><ele>1435.1</ele></trkpt>
      <trkpt lat="46.029713" lon="10.914847"><ele>1438.3</ele></trkpt>
      <trkpt lat="46.029378" lon="10.914810"><ele>1439.9</ele></trkpt>
      <trkpt lat="46.029150" lon="10.914820"><ele>1442.1</ele></trkpt>
      <trkpt lat="46.028916" lon="10.915201"><ele>1444.3</ele></trkpt>
      <trkpt lat="46.028810" lon="10.915522"><ele>1446.6</ele></trkpt>
      <trkpt lat="46.028769" lon="10.915989"><ele>1448.3</ele></trkpt>
      <trkpt lat="46.028826" lon="10.916502"><ele>1449.1</ele></trkpt>
      <trkpt lat="46.028540" lon="10.916245"><ele>1448.8</ele></trkpt>
      <trkpt lat="46.028299" lon="10.916076"><ele>1447.5</ele></trkpt>
      <trkpt lat="46.028063" lon="10.915963"><ele>1445.2</ele></trkpt>
      <trkpt lat="46.027813" lon="10.915695"><ele>1442.3</ele></trkpt>
      <trkpt lat="46.027610" lon="10.915542"><ele>1439.4</ele></trkpt>
      <trkpt lat="46.027052" lon="10.915639"><ele>1436.6</ele></trkpt>
      <trkpt lat="46.026661" lon="10.915518"><ele>1432.6</ele></trkpt>
      <trkpt lat="46.026444" lon="10.915392"><ele>1427.5</ele></trkpt>
      <trkpt lat="46.026011" lon="10.915349"><ele>1421.9</ele></trkpt>
      <trkpt lat="46.025599" lon="10.915140"><ele>1415.8</ele></trkpt>
      <trkpt lat="46.025362" lon="10.915071"><ele>1409.2</ele></trkpt>
      <trkpt lat="46.025006" lon="10.915117"><ele>1403.2</ele></trkpt>
      <trkpt lat="46.024788" lon="10.915217"><ele>1397.2</ele></trkpt>
      <trkpt lat="46.024556" lon="10.915389"><ele>1390.3</ele></trkpt>
      <trkpt lat="46.024146" lon="10.915216"><ele>1382.6</ele></trkpt>
      <trkpt lat="46.023880" lon="10.915095"><ele>1375.0</ele></trkpt>
      <trkpt lat="46.023692" lon="10.914865"><ele>1367.7</ele></trkpt>
      <trkpt lat="46.023439" lon="10.914794"><ele>1361.2</ele></trkpt>
      <trkpt lat="46.023110" lon="10.914580"><ele>1355.8</ele></trkpt>
      <trkpt lat="46.022888" lon="10.914443"><ele>1351.4</ele></trkpt>
      <trkpt lat="46.022501" lon="10.914163"><ele>1347.1</ele></trkpt>
      <trkpt lat="46.022218" lon="10.914136"><ele>1343.4</ele></trkpt>
      <trkpt lat="46.021945" lon="10.913978"><ele>1340.5</ele></trkpt>
      <trkpt lat="46.021577" lon="10.913907"><ele>1338.6</ele></trkpt>
      <trkpt lat="46.021342" lon="10.913865"><ele>1336.9</ele></trkpt>
      <trkpt lat="46.021082" lon="10.913758"><ele>1335.6</ele></trkpt>
      <trkpt lat="46.020834" lon="10.913725"><ele>1334.8</ele></trkpt>
      <trkpt lat="46.020483" lon="10.913650"><ele>1334.2</ele></trkpt>
      <trkpt lat="46.020178" lon="10.913634"><ele>1333.9</ele></trkpt>
      <trkpt lat="46.019921" lon="10.913520"><ele>1335.8</ele></trkpt>
      <trkpt lat="46.018693" lon="10.912878"><ele>1339.9</ele></trkpt>
      <trkpt lat="46.018071" lon="10.912659"><ele>1345.3</ele></trkpt>
      <trkpt lat="46.017509" lon="10.912414"><ele>1352.1</ele></trkpt>
      <trkpt lat="46.017080" lon="10.912228"><ele>1361.6</ele></trkpt>
      <trkpt lat="46.016854" lon="10.912276"><ele>1372.3</ele></trkpt>
      <trkpt lat="46.016403" lon="10.912068"><ele>1383.6</ele></trkpt>
      <trkpt lat="46.016017" lon="10.911827"><ele>1395.4</ele></trkpt>
      <trkpt lat="46.015063" lon="10.911536"><ele>1407.7</ele></trkpt>
      <trkpt lat="46.014601" lon="10.911546"><ele>1418.4</ele></trkpt>
      <trkpt lat="46.014211" lon="10.911744"><ele>1427.4</ele></trkpt>
      <trkpt lat="46.013915" lon="10.911755"><ele>1435.5</ele></trkpt>
      <trkpt lat="46.013553" lon="10.911546"><ele>1442.8</ele></trkpt>
      <trkpt lat="46.013221" lon="10.911650"><ele>1448.1</ele></trkpt>
      <trkpt lat="46.012845" lon="10.911661"><ele>1453.1</ele></trkpt>
      <trkpt lat="46.012339" lon="10.911484"><ele>1457.8</ele></trkpt>
      <trkpt lat="46.011949" lon="10.911911"><ele>1462.1</ele></trkpt>
      <trkpt lat="46.011609" lon="10.911671"><ele>1466.0</ele></trkpt>
      <trkpt lat="46.010822" lon="10.910922"><ele>1470.1</ele></trkpt>
      <trkpt lat="46.010476" lon="10.910183"><ele>1473.7</ele></trkpt>
      <trkpt lat="46.010237" lon="10.910120"><ele>1476.8</ele></trkpt>
      <trkpt lat="46.009950" lon="10.909810"><ele>1479.2</ele></trkpt>
      <trkpt lat="46.009752" lon="10.909643"><ele>1481.4</ele></trkpt>
      <trkpt lat="46.009367" lon="10.909405"><ele>1483.1</ele></trkpt>
      <trkpt lat="46.009165" lon="10.909259"><ele>1484.2</ele></trkpt>
      <trkpt lat="46.008941" lon="10.909133"><ele>1485.1</ele></trkpt>
      <trkpt lat="46.008392" lon="10.908581"><ele>1485.6</ele></trkpt>
      <trkpt lat="46.007742" lon="10.907814"><ele>1484.1</ele></trkpt>
      <trkpt lat="46.006930" lon="10.907169"><ele>1481.1</ele></trkpt>
      <trkpt lat="46.006581" lon="10.906903"><ele>1476.8</ele></trkpt>
      <trkpt lat="46.006252" lon="10.906501"><ele>1471.1</ele></trkpt>
      <trkpt lat="46.005896" lon="10.906415"><ele>1463.9</ele></trkpt>
      <trkpt lat="46.005350" lon="10.906448"><ele>1456.7</ele></trkpt>
      <trkpt lat="46.004966" lon="10.906235"><ele>1449.7</ele></trkpt>
      <trkpt lat="46.004666" lon="10.906208"><ele>1442.5</ele></trkpt>
      <trkpt lat="46.004407" lon="10.906242"><ele>1434.5</ele></trkpt>
      <trkpt lat="46.003759" lon="10.906714"><ele>1427.0</ele></trkpt>
      <trkpt lat="46.003393" lon="10.906797"><ele>1420.2</ele></trkpt>
      <trkpt lat="46.003031" lon="10.906814"><ele>1414.0</ele></trkpt>
      <trkpt lat="46.002797" lon="10.906604"><ele>1408.1</ele></trkpt>
      <trkpt lat="46.002533" lon="10.906481"><ele>1402.9</ele></trkpt>
      <trkpt lat="46.002432" lon="10.906061"><ele>1396.8</ele></trkpt>
      <trkpt lat="46.002270" lon="10.905676"><ele>1390.0</ele></trkpt>
      <trkpt lat="46.002150" lon="10.905103"><ele>1382.2</ele></trkpt>
      <trkpt lat="46.002085" lon="10.904760"><ele>1374.8</ele></trkpt>
      <trkpt lat="46.001983" lon="10.904386"><ele>1367.1</ele></trkpt>
      <trkpt lat="46.002203" lon="10.903834"><ele>1359.2</ele></trkpt>
      <trkpt lat="46.002318" lon="10.903072"><ele>1351.1</ele></trkpt>
      <trkpt lat="46.002543" lon="10.902767"><ele>1343.2</ele></trkpt>
      <trkpt lat="46.002926" lon="10.902472"><ele>1335.1</ele></trkpt>
      <trkpt lat="46.003203" lon="10.902112"><ele>1327.3</ele></trkpt>
      <trkpt lat="46.003410" lon="10.901916"><ele>1319.8</ele></trkpt>
      <trkpt lat="46.003677" lon="10.901763"><ele>1312.7</ele></trkpt>
      <trkpt lat="46.003962" lon="10.901295"><ele>1305.4</ele></trkpt>
      <trkpt lat="46.004007" lon="10.900677"><ele>1298.7</ele></trkpt>
      <trkpt lat="46.004080" lon="10.900228"><ele>1292.9</ele></trkpt>
      <trkpt lat="46.004146" lon="10.899629"><ele>1287.7</ele></trkpt>
      <trkpt lat="46.003870" lon="10.899172"><ele>1283.0</ele></trkpt>
      <trkpt lat="46.003626" lon="10.898900"><ele>1278.9</ele></trkpt>
      <trkpt lat="46.003327" lon="10.898695"><ele>1274.9</ele></trkpt>
      <trkpt lat="46.003014" lon="10.898344"><ele>1271.0</ele></trkpt>
      <trkpt lat="46.002913" lon="10.897975"><ele>1268.0</ele></trkpt>
      <trkpt lat="46.002779" lon="10.897665"><ele>1265.9</ele></trkpt>
      <trkpt lat="46.002592" lon="10.897464"><ele>1264.7</ele></trkpt>
      <trkpt lat="46.002400" lon="10.896906"><ele>1263.8</ele></trkpt>
      <trkpt lat="46.002287" lon="10.896493"><ele>1262.9</ele></trkpt>
      <trkpt lat="46.002155" lon="10.896023"><ele>1261.7</ele></trkpt>
      <trkpt lat="46.001961" lon="10.895152"><ele>1260.1</ele></trkpt>
      <trkpt lat="46.001810" lon="10.894690"><ele>1258.2</ele></trkpt>
      <trkpt lat="46.001681" lon="10.894178"><ele>1256.7</ele></trkpt>
      <trkpt lat="46.001579" lon="10.893768"><ele>1254.8</ele></trkpt>
      <trkpt lat="46.001381" lon="10.893551"><ele>1252.3</ele></trkpt>
      <trkpt lat="46.001100" lon="10.893401"><ele>1249.3</ele></trkpt>
      <trkpt lat="46.000758" lon="10.893066"><ele>1245.9</ele></trkpt>
      <trkpt lat="46.000219" lon="10.892381"><ele>1242.4</ele></trkpt>
      <trkpt lat="45.999511" lon="10.891995"><ele>1240.0</ele></trkpt>
      <trkpt lat="45.999147" lon="10.891542"><ele>1238.8</ele></trkpt>
      <trkpt lat="45.998935" lon="10.891416"><ele>1238.8</ele></trkpt>
      <trkpt lat="45.998572" lon="10.891173"><ele>1239.2</ele></trkpt>
      <trkpt lat="45.997960" lon="10.890605"><ele>1240.1</ele></trkpt>
      <trkpt lat="45.997565" lon="10.890428"><ele>1240.8</ele></trkpt>
      <trkpt lat="45.997019" lon="10.890258"><ele>1241.3</ele></trkpt>
      <trkpt lat="45.996749" lon="10.890251"><ele>1241.5</ele></trkpt>
      <trkpt lat="45.996310" lon="10.889956"><ele>1242.0</ele></trkpt>
      <trkpt lat="45.996049" lon="10.889903"><ele>1241.6</ele></trkpt>
      <trkpt lat="45.995697" lon="10.889713"><ele>1241.1</ele></trkpt>
      <trkpt lat="45.994617" lon="10.889307"><ele>1240.6</ele></trkpt>
      <trkpt lat="45.994122" lon="10.889087"><ele>1239.9</ele></trkpt>
      <trkpt lat="45.993895" lon="10.888983"><ele>1238.8</ele></trkpt>
      <trkpt lat="45.993587" lon="10.888950"><ele>1238.4</ele></trkpt>
      <trkpt lat="45.993360" lon="10.888827"><ele>1238.8</ele></trkpt>
      <trkpt lat="45.993134" lon="10.888798"><ele>1240.0</ele></trkpt>
      <trkpt lat="45.992598" lon="10.888765"><ele>1240.9</ele></trkpt>
      <trkpt lat="45.992176" lon="10.888621"><ele>1242.3</ele></trkpt>
      <trkpt lat="45.991882" lon="10.888457"><ele>1242.5</ele></trkpt>
      <trkpt lat="45.991511" lon="10.888234"><ele>1241.6</ele></trkpt>
      <trkpt lat="45.991172" lon="10.888025"><ele>1239.6</ele></trkpt>
      <trkpt lat="45.990740" lon="10.887730"><ele>1237.5</ele></trkpt>
      <trkpt lat="45.990383" lon="10.887374"><ele>1234.8</ele></trkpt>
      <trkpt lat="45.989316" lon="10.886354"><ele>1231.9</ele></trkpt>
      <trkpt lat="45.987819" lon="10.885059"><ele>1228.8</ele></trkpt>
      <trkpt lat="45.987598" lon="10.884898"><ele>1225.9</ele></trkpt>
      <trkpt lat="45.987240" lon="10.884785"><ele>1223.0</ele></trkpt>
      <trkpt lat="45.986763" lon="10.884621"><ele>1221.0</ele></trkpt>
      <trkpt lat="45.985944" lon="10.884270"><ele>1219.6</ele></trkpt>
      <trkpt lat="45.985711" lon="10.884307"><ele>1219.0</ele></trkpt>
      <trkpt lat="45.985442" lon="10.884334"><ele>1218.4</ele></trkpt>
      <trkpt lat="45.985219" lon="10.884425"><ele>1218.1</ele></trkpt>
      <trkpt lat="45.984991" lon="10.884396"><ele>1216.8</ele></trkpt>
      <trkpt lat="45.984731" lon="10.884462"><ele>1214.6</ele></trkpt>
      <trkpt lat="45.984338" lon="10.884595"><ele>1212.6</ele></trkpt>
      <trkpt lat="45.984069" lon="10.884703"><ele>1210.6</ele></trkpt>
      <trkpt lat="45.983727" lon="10.884766"><ele>1208.7</ele></trkpt>
      <trkpt lat="45.983455" lon="10.884825"><ele>1207.8</ele></trkpt>
      <trkpt lat="45.983184" lon="10.885008"><ele>1207.0</ele></trkpt>
      <trkpt lat="45.982870" lon="10.885288"><ele>1205.0</ele></trkpt>
      <trkpt lat="45.982633" lon="10.885460"><ele>1202.0</ele></trkpt>
      <trkpt lat="45.982362" lon="10.885576"><ele>1198.8</ele></trkpt>
      <trkpt lat="45.981973" lon="10.885631"><ele>1195.2</ele></trkpt>
      <trkpt lat="45.981665" lon="10.885631"><ele>1191.4</ele></trkpt>
      <trkpt lat="45.981459" lon="10.885359"><ele>1187.6</ele></trkpt>
      <trkpt lat="45.981130" lon="10.885245"><ele>1183.8</ele></trkpt>
      <trkpt lat="45.980846" lon="10.885256"><ele>1178.9</ele></trkpt>
      <trkpt lat="45.980571" lon="10.885389"><ele>1173.7</ele></trkpt>
      <trkpt lat="45.980203" lon="10.885374"><ele>1169.3</ele></trkpt>
      <trkpt lat="45.979937" lon="10.885267"><ele>1165.7</ele></trkpt>
      <trkpt lat="45.979676" lon="10.885218"><ele>1162.9</ele></trkpt>
      <trkpt lat="45.979439" lon="10.885067"><ele>1161.2</ele></trkpt>
      <trkpt lat="45.979124" lon="10.884989"><ele>1160.5</ele></trkpt>
      <trkpt lat="45.978864" lon="10.884883"><ele>1160.5</ele></trkpt>
      <trkpt lat="45.978631" lon="10.884964"><ele>1161.3</ele></trkpt>
      <trkpt lat="45.978347" lon="10.885031"><ele>1163.1</ele></trkpt>
      <trkpt lat="45.978061" lon="10.885122"><ele>1165.9</ele></trkpt>
      <trkpt lat="45.977740" lon="10.885381"><ele>1169.3</ele></trkpt>
      <trkpt lat="45.977435" lon="10.885707"><ele>1173.3</ele></trkpt>
      <trkpt lat="45.977333" lon="10.886033"><ele>1177.6</ele></trkpt>
      <trkpt lat="45.977333" lon="10.886449"><ele>1181.9</ele></trkpt>
      <trkpt lat="45.977376" lon="10.886980"><ele>1185.5</ele></trkpt>
      <trkpt lat="45.977434" lon="10.887317"><ele>1188.1</ele></trkpt>
      <trkpt lat="45.977521" lon="10.887619"><ele>1189.7</ele></trkpt>
      <trkpt lat="45.977214" lon="10.887839"><ele>1190.6</ele></trkpt>
      <trkpt lat="45.976800" lon="10.887776"><ele>1190.7</ele></trkpt>
      <trkpt lat="45.976528" lon="10.887795"><ele>1189.6</ele></trkpt>
      <trkpt lat="45.976283" lon="10.887969"><ele>1187.5</ele></trkpt>
      <trkpt lat="45.976046" lon="10.888047"><ele>1184.5</ele></trkpt>
      <trkpt lat="45.975706" lon="10.887868"><ele>1180.6</ele></trkpt>
      <trkpt lat="45.975460" lon="10.887643"><ele>1175.4</ele></trkpt>
      <trkpt lat="45.975229" lon="10.887568"><ele>1170.0</ele></trkpt>
      <trkpt lat="45.974996" lon="10.887756"><ele>1164.2</ele></trkpt>
      <trkpt lat="45.974696" lon="10.887922"><ele>1158.0</ele></trkpt>
      <trkpt lat="45.974471" lon="10.887945"><ele>1151.2</ele></trkpt>
      <trkpt lat="45.974210" lon="10.888051"><ele>1145.3</ele></trkpt>
      <trkpt lat="45.974306" lon="10.887465"><ele>1139.0</ele></trkpt>
      <trkpt lat="45.974164" lon="10.887174"><ele>1132.6</ele></trkpt>
      <trkpt lat="45.973930" lon="10.887030"><ele>1125.8</ele></trkpt>
      <trkpt lat="45.973716" lon="10.886819"><ele>1120.0</ele></trkpt>
      <trkpt lat="45.973488" lon="10.886590"><ele>1114.2</ele></trkpt>
      <trkpt lat="45.973172" lon="10.886437"><ele>1109.6</ele></trkpt>
      <trkpt lat="45.972876" lon="10.886250"><ele>1106.2</ele></trkpt>
      <trkpt lat="45.972686" lon="10.885876"><ele>1104.0</ele></trkpt>
      <trkpt lat="45.972631" lon="10.885544"><ele>1101.8</ele></trkpt>
      <trkpt lat="45.972629" lon="10.885141"><ele>1100.6</ele></trkpt>
      <trkpt lat="45.972776" lon="10.884754"><ele>1100.6</ele></trkpt>
      <trkpt lat="45.972447" lon="10.884226"><ele>1101.9</ele></trkpt>
      <trkpt lat="45.972168" lon="10.884302"><ele>1103.8</ele></trkpt>
      <trkpt lat="45.971801" lon="10.884192"><ele>1106.6</ele></trkpt>
      <trkpt lat="45.971569" lon="10.884068"><ele>1109.3</ele></trkpt>
      <trkpt lat="45.971213" lon="10.883927"><ele>1111.8</ele></trkpt>
      <trkpt lat="45.970850" lon="10.883679"><ele>1113.9</ele></trkpt>
      <trkpt lat="45.970590" lon="10.883608"><ele>1116.2</ele></trkpt>
      <trkpt lat="45.970333" lon="10.883453"><ele>1117.7</ele></trkpt>
      <trkpt lat="45.970216" lon="10.883153"><ele>1118.4</ele></trkpt>
      <trkpt lat="45.970158" lon="10.882806"><ele>1119.8</ele></trkpt>
      <trkpt lat="45.969934" lon="10.882549"><ele>1121.8</ele></trkpt>
      <trkpt lat="45.969842" lon="10.882237"><ele>1123.0</ele></trkpt>
      <trkpt lat="45.969551" lon="10.881663"><ele>1124.1</ele></trkpt>
      <trkpt lat="45.969200" lon="10.881102"><ele>1125.1</ele></trkpt>
      <trkpt lat="45.968967" lon="10.880781"><ele>1124.7</ele></trkpt>
      <trkpt lat="45.968704" lon="10.880383"><ele>1122.7</ele></trkpt>
      <trkpt lat="45.968454" lon="10.879907"><ele>1123.0</ele></trkpt>
      <trkpt lat="45.967893" lon="10.878938"><ele>1124.6</ele></trkpt>
      <trkpt lat="45.967647" lon="10.878509"><ele>1125.9</ele></trkpt>
      <trkpt lat="45.967520" lon="10.878224"><ele>1126.8</ele></trkpt>
      <trkpt lat="45.967127" lon="10.877862"><ele>1128.6</ele></trkpt>
      <trkpt lat="45.966851" lon="10.877674"><ele>1129.0</ele></trkpt>
      <trkpt lat="45.966485" lon="10.877210"><ele>1129.0</ele></trkpt>
      <trkpt lat="45.966232" lon="10.876777"><ele>1129.6</ele></trkpt>
      <trkpt lat="45.965930" lon="10.876489"><ele>1131.0</ele></trkpt>
      <trkpt lat="45.965666" lon="10.876102"><ele>1130.4</ele></trkpt>
      <trkpt lat="45.965480" lon="10.875827"><ele>1130.2</ele></trkpt>
      <trkpt lat="45.965093" lon="10.875537"><ele>1130.5</ele></trkpt>
      <trkpt lat="45.964926" lon="10.875319"><ele>1131.5</ele></trkpt>
      <trkpt lat="45.964878" lon="10.874768"><ele>1133.1</ele></trkpt>
      <trkpt lat="45.964775" lon="10.874448"><ele>1136.9</ele></trkpt>
      <trkpt lat="45.964661" lon="10.874099"><ele>1140.3</ele></trkpt>
      <trkpt lat="45.964505" lon="10.873613"><ele>1143.9</ele></trkpt>
      <trkpt lat="45.964303" lon="10.873104"><ele>1147.8</ele></trkpt>
      <trkpt lat="45.963916" lon="10.872416"><ele>1152.0</ele></trkpt>
      <trkpt lat="45.963848" lon="10.872108"><ele>1154.9</ele></trkpt>
      <trkpt lat="45.963790" lon="10.871555"><ele>1156.6</ele></trkpt>
      <trkpt lat="45.963693" lon="10.871250"><ele>1156.8</ele></trkpt>
      <trkpt lat="45.963681" lon="10.870926"><ele>1156.0</ele></trkpt>
      <trkpt lat="45.963734" lon="10.870481"><ele>1154.1</ele></trkpt>
      <trkpt lat="45.963587" lon="10.870201"><ele>1152.7</ele></trkpt>
      <trkpt lat="45.963384" lon="10.869958"><ele>1151.1</ele></trkpt>
      <trkpt lat="45.963132" lon="10.869506"><ele>1149.3</ele></trkpt>
      <trkpt lat="45.962848" lon="10.869400"><ele>1147.0</ele></trkpt>
      <trkpt lat="45.962196" lon="10.869156"><ele>1144.4</ele></trkpt>
      <trkpt lat="45.961928" lon="10.869059"><ele>1141.3</ele></trkpt>
      <trkpt lat="45.961681" lon="10.868837"><ele>1138.6</ele></trkpt>
      <trkpt lat="45.961266" lon="10.868643"><ele>1135.7</ele></trkpt>
      <trkpt lat="45.960952" lon="10.868584"><ele>1132.0</ele></trkpt>
      <trkpt lat="45.960712" lon="10.868512"><ele>1127.6</ele></trkpt>
      <trkpt lat="45.960709" lon="10.868154"><ele>1123.0</ele></trkpt>
      <trkpt lat="45.960793" lon="10.867834"><ele>1119.7</ele></trkpt>
      <trkpt lat="45.960900" lon="10.867529"><ele>1117.7</ele></trkpt>
      <trkpt lat="45.960834" lon="10.867122"><ele>1115.8</ele></trkpt>
      <trkpt lat="45.960652" lon="10.866625"><ele>1113.9</ele></trkpt>
      <trkpt lat="45.960598" lon="10.865945"><ele>1111.5</ele></trkpt>
      <trkpt lat="45.960538" lon="10.865605"><ele>1107.2</ele></trkpt>
      <trkpt lat="45.960360" lon="10.865165"><ele>1101.7</ele></trkpt>
      <trkpt lat="45.960110" lon="10.864816"><ele>1097.4</ele></trkpt>
      <trkpt lat="45.959895" lon="10.864583"><ele>1094.6</ele></trkpt>
      <trkpt lat="45.959685" lon="10.864430"><ele>1091.7</ele></trkpt>
      <trkpt lat="45.959080" lon="10.864187"><ele>1088.8</ele></trkpt>
      <trkpt lat="45.958678" lon="10.863964"><ele>1084.5</ele></trkpt>
      <trkpt lat="45.958397" lon="10.863702"><ele>1078.1</ele></trkpt>
      <trkpt lat="45.958175" lon="10.863489"><ele>1069.6</ele></trkpt>
      <trkpt lat="45.957687" lon="10.863099"><ele>1061.2</ele></trkpt>
      <trkpt lat="45.957452" lon="10.862917"><ele>1052.9</ele></trkpt>
      <trkpt lat="45.957238" lon="10.862646"><ele>1044.9</ele></trkpt>
      <trkpt lat="45.957061" lon="10.862426"><ele>1037.0</ele></trkpt>
      <trkpt lat="45.956729" lon="10.862314"><ele>1029.3</ele></trkpt>
      <trkpt lat="45.956303" lon="10.862413"><ele>1021.3</ele></trkpt>
      <trkpt lat="45.956017" lon="10.862252"><ele>1015.7</ele></trkpt>
      <trkpt lat="45.955652" lon="10.862144"><ele>1013.0</ele></trkpt>
      <trkpt lat="45.955240" lon="10.862008"><ele>1013.3</ele></trkpt>
      <trkpt lat="45.954825" lon="10.861818"><ele>1015.8</ele></trkpt>
      <trkpt lat="45.954508" lon="10.861721"><ele>1020.1</ele></trkpt>
      <trkpt lat="45.954121" lon="10.861639"><ele>1023.5</ele></trkpt>
      <trkpt lat="45.953701" lon="10.861658"><ele>1025.9</ele></trkpt>
      <trkpt lat="45.953387" lon="10.861605"><ele>1027.3</ele></trkpt>
      <trkpt lat="45.953141" lon="10.861530"><ele>1028.3</ele></trkpt>
      <trkpt lat="45.952849" lon="10.861434"><ele>1028.9</ele></trkpt>
      <trkpt lat="45.952608" lon="10.861594"><ele>1029.0</ele></trkpt>
      <trkpt lat="45.952304" lon="10.861305"><ele>1028.8</ele></trkpt>
      <trkpt lat="45.951983" lon="10.861010"><ele>1028.2</ele></trkpt>
      <trkpt lat="45.951721" lon="10.860886"><ele>1026.7</ele></trkpt>
      <trkpt lat="45.951482" lon="10.860773"><ele>1024.2</ele></trkpt>
      <trkpt lat="45.951148" lon="10.860698"><ele>1020.8</ele></trkpt>
      <trkpt lat="45.950808" lon="10.860728"><ele>1015.8</ele></trkpt>
      <trkpt lat="45.950548" lon="10.860575"><ele>1009.1</ele></trkpt>
      <trkpt lat="45.950291" lon="10.860563"><ele>1001.8</ele></trkpt>
      <trkpt lat="45.949831" lon="10.860651"><ele>993.8</ele></trkpt>
      <trkpt lat="45.949569" lon="10.860629"><ele>985.0</ele></trkpt>
      <trkpt lat="45.949357" lon="10.860483"><ele>976.2</ele></trkpt>
      <trkpt lat="45.949140" lon="10.860263"><ele>968.5</ele></trkpt>
      <trkpt lat="45.948860" lon="10.860102"><ele>961.7</ele></trkpt>
      <trkpt lat="45.948604" lon="10.860027"><ele>956.0</ele></trkpt>
      <trkpt lat="45.948320" lon="10.859904"><ele>950.3</ele></trkpt>
      <trkpt lat="45.947985" lon="10.859646"><ele>944.8</ele></trkpt>
      <trkpt lat="45.947697" lon="10.859524"><ele>938.3</ele></trkpt>
      <trkpt lat="45.947579" lon="10.859198"><ele>931.0</ele></trkpt>
      <trkpt lat="45.947390" lon="10.858856"><ele>922.8</ele></trkpt>
      <trkpt lat="45.947127" lon="10.858427"><ele>914.5</ele></trkpt>
      <trkpt lat="45.946918" lon="10.858070"><ele>906.3</ele></trkpt>
      <trkpt lat="45.946711" lon="10.857775"><ele>898.0</ele></trkpt>
      <trkpt lat="45.946455" lon="10.857613"><ele>889.7</ele></trkpt>
      <trkpt lat="45.946205" lon="10.857496"><ele>883.0</ele></trkpt>
      <trkpt lat="45.945984" lon="10.857397"><ele>876.5</ele></trkpt>
      <trkpt lat="45.946217" lon="10.857271"><ele>870.2</ele></trkpt>
      <trkpt lat="45.946484" lon="10.857260"><ele>864.1</ele></trkpt>
      <trkpt lat="45.946553" lon="10.856903"><ele>859.2</ele></trkpt>
      <trkpt lat="45.946318" lon="10.856686"><ele>854.1</ele></trkpt>
      <trkpt lat="45.946056" lon="10.856791"><ele>850.0</ele></trkpt>
      <trkpt lat="45.945808" lon="10.856946"><ele>847.1</ele></trkpt>
      <trkpt lat="45.945800" lon="10.856596"><ele>845.2</ele></trkpt>
      <trkpt lat="45.945606" lon="10.856314"><ele>842.5</ele></trkpt>
      <trkpt lat="45.945510" lon="10.855932"><ele>840.3</ele></trkpt>
      <trkpt lat="45.945491" lon="10.855455"><ele>838.8</ele></trkpt>
      <trkpt lat="45.945527" lon="10.855088"><ele>837.9</ele></trkpt>
      <trkpt lat="45.945710" lon="10.854758"><ele>837.4</ele></trkpt>
      <trkpt lat="45.945988" lon="10.854468"><ele>838.1</ele></trkpt>
      <trkpt lat="45.946098" lon="10.854149"><ele>838.6</ele></trkpt>
      <trkpt lat="45.946088" lon="10.853575"><ele>838.8</ele></trkpt>
      <trkpt lat="45.946073" lon="10.853213"><ele>838.7</ele></trkpt>
      <trkpt lat="45.946173" lon="10.852797"><ele>839.5</ele></trkpt>
      <trkpt lat="45.945914" lon="10.851965"><ele>841.1</ele></trkpt>
      <trkpt lat="45.945761" lon="10.851559"><ele>843.4</ele></trkpt>
      <trkpt lat="45.945670" lon="10.851184"><ele>846.6</ele></trkpt>
      <trkpt lat="45.945703" lon="10.850847"><ele>849.7</ele></trkpt>
      <trkpt lat="45.945878" lon="10.850621"><ele>851.9</ele></trkpt>
      <trkpt lat="45.946120" lon="10.850737"><ele>853.3</ele></trkpt>
      <trkpt lat="45.946391" lon="10.850785"><ele>855.9</ele></trkpt>
      <trkpt lat="45.946634" lon="10.850759"><ele>859.9</ele></trkpt>
      <trkpt lat="45.946881" lon="10.850898"><ele>865.9</ele></trkpt>
      <trkpt lat="45.947053" lon="10.850643"><ele>874.2</ele></trkpt>
      <trkpt lat="45.946957" lon="10.850328"><ele>884.7</ele></trkpt>
      <trkpt lat="45.946988" lon="10.850006"><ele>895.2</ele></trkpt>
      <trkpt lat="45.947369" lon="10.849841"><ele>905.8</ele></trkpt>
      <trkpt lat="45.947614" lon="10.849795"><ele>916.9</ele></trkpt>
      <trkpt lat="45.947452" lon="10.849489"><ele>928.5</ele></trkpt>
      <trkpt lat="45.947272" lon="10.849189"><ele>938.5</ele></trkpt>
      <trkpt lat="45.946983" lon="10.849009"><ele>947.0</ele></trkpt>
      <trkpt lat="45.946790" lon="10.848711"><ele>953.9</ele></trkpt>
      <trkpt lat="45.946646" lon="10.848332"><ele>958.7</ele></trkpt>
      <trkpt lat="45.946656" lon="10.847916"><ele>961.3</ele></trkpt>
      <trkpt lat="45.946602" lon="10.847564"><ele>964.2</ele></trkpt>
      <trkpt lat="45.946616" lon="10.847241"><ele>967.2</ele></trkpt>
      <trkpt lat="45.946529" lon="10.846920"><ele>969.9</ele></trkpt>
      <trkpt lat="45.946409" lon="10.846602"><ele>972.2</ele></trkpt>
      <trkpt lat="45.946122" lon="10.846523"><ele>974.6</ele></trkpt>
      <trkpt lat="45.945874" lon="10.846494"><ele>977.0</ele></trkpt>
      <trkpt lat="45.945650" lon="10.846459"><ele>980.0</ele></trkpt>
      <trkpt lat="45.945400" lon="10.846301"><ele>984.4</ele></trkpt>
      <trkpt lat="45.945189" lon="10.846180"><ele>990.0</ele></trkpt>
      <trkpt lat="45.944867" lon="10.845885"><ele>996.3</ele></trkpt>
      <trkpt lat="45.944311" lon="10.845585"><ele>1003.1</ele></trkpt>
      <trkpt lat="45.943991" lon="10.845369"><ele>1010.3</ele></trkpt>
      <trkpt lat="45.943500" lon="10.845094"><ele>1017.7</ele></trkpt>
      <trkpt lat="45.943188" lon="10.844954"><ele>1025.0</ele></trkpt>
      <trkpt lat="45.942787" lon="10.844831"><ele>1032.3</ele></trkpt>
      <trkpt lat="45.942449" lon="10.844729"><ele>1038.7</ele></trkpt>
      <trkpt lat="45.942037" lon="10.844681"><ele>1043.2</ele></trkpt>
      <trkpt lat="45.941265" lon="10.844662"><ele>1045.8</ele></trkpt>
      <trkpt lat="45.940838" lon="10.844490"><ele>1046.9</ele></trkpt>
      <trkpt lat="45.940554" lon="10.844356"><ele>1047.3</ele></trkpt>
      <trkpt lat="45.940323" lon="10.844372"><ele>1047.1</ele></trkpt>
      <trkpt lat="45.939993" lon="10.844386"><ele>1047.2</ele></trkpt>
      <trkpt lat="45.939545" lon="10.844198"><ele>1047.3</ele></trkpt>
      <trkpt lat="45.939154" lon="10.844085"><ele>1047.7</ele></trkpt>
      <trkpt lat="45.938882" lon="10.843763"><ele>1047.3</ele></trkpt>
      <trkpt lat="45.937749" lon="10.843286"><ele>1047.7</ele></trkpt>
      <trkpt lat="45.937342" lon="10.843246"><ele>1048.7</ele></trkpt>
      <trkpt lat="45.937305" lon="10.842865"><ele>1050.5</ele></trkpt>
      <trkpt lat="45.937368" lon="10.842524"><ele>1052.1</ele></trkpt>
      <trkpt lat="45.937138" lon="10.842140"><ele>1053.7</ele></trkpt>
      <trkpt lat="45.936865" lon="10.842036"><ele>1053.9</ele></trkpt>
      <trkpt lat="45.936637" lon="10.841929"><ele>1052.7</ele></trkpt>
      <trkpt lat="45.936391" lon="10.842116"><ele>1049.9</ele></trkpt>
      <trkpt lat="45.936061" lon="10.842189"><ele>1046.6</ele></trkpt>
      <trkpt lat="45.935824" lon="10.842353"><ele>1042.3</ele></trkpt>
      <trkpt lat="45.935651" lon="10.842629"><ele>1037.7</ele></trkpt>
      <trkpt lat="45.935387" lon="10.842900"><ele>1033.5</ele></trkpt>
      <trkpt lat="45.935009" lon="10.842924"><ele>1028.8</ele></trkpt>
      <trkpt lat="45.934705" lon="10.842902"><ele>1024.6</ele></trkpt>
      <trkpt lat="45.934761" lon="10.842505"><ele>1020.6</ele></trkpt>
      <trkpt lat="45.935186" lon="10.842039"><ele>1017.4</ele></trkpt>
      <trkpt lat="45.935378" lon="10.841615"><ele>1014.2</ele></trkpt>
      <trkpt lat="45.935443" lon="10.841127"><ele>1011.9</ele></trkpt>
      <trkpt lat="45.935387" lon="10.840408"><ele>1009.7</ele></trkpt>
      <trkpt lat="45.935499" lon="10.839877"><ele>1008.0</ele></trkpt>
      <trkpt lat="45.935483" lon="10.839507"><ele>1005.9</ele></trkpt>
      <trkpt lat="45.935160" lon="10.839314"><ele>1002.9</ele></trkpt>
      <trkpt lat="45.934781" lon="10.839187"><ele>998.2</ele></trkpt>
      <trkpt lat="45.934380" lon="10.839061"><ele>992.9</ele></trkpt>
      <trkpt lat="45.934131" lon="10.838823"><ele>986.3</ele></trkpt>
      <trkpt lat="45.933858" lon="10.838427"><ele>979.2</ele></trkpt>
      <trkpt lat="45.933544" lon="10.838328"><ele>972.1</ele></trkpt>
      <trkpt lat="45.933284" lon="10.838378"><ele>969.0</ele></trkpt>
      <trkpt lat="45.933052" lon="10.838624"><ele>964.9</ele></trkpt>
      <trkpt lat="45.932973" lon="10.838319"><ele>959.3</ele></trkpt>
      <trkpt lat="45.932837" lon="10.838200"><ele>953.9</ele></trkpt>
    </trkseg>
  </trk>
</gpx>
