<?xml version="1.0" encoding="UTF-8"?>
<gpx version="1.1" creator="TrailShare content prep" xmlns="http://www.topografix.com/GPX/1/1">
  <metadata>
    <name>Garda Brenta Tappa 2: Rifugio Nino Pernici → Malga Stabio</name>
    <desc>Itinerario Garda Brenta (SAT, ref GB), tappa 2/7. Geometria: OpenStreetMap contributors (ODbL). Elevazione: Open-Elevation (SRTM), serie smussata e calibrata.</desc>
  </metadata>
  <trk>
    <name>Garda Brenta Tappa 2: Rifugio Nino Pernici → Malga Stabio</name>
    <trkseg>
      <trkpt lat="45.926654" lon="10.768772"><ele>1610.0</ele></trkpt>
      <trkpt lat="45.926754" lon="10.768371"><ele>1603.7</ele></trkpt>
      <trkpt lat="45.926861" lon="10.767884"><ele>1597.0</ele></trkpt>
      <trkpt lat="45.927078" lon="10.767417"><ele>1592.7</ele></trkpt>
      <trkpt lat="45.927332" lon="10.767046"><ele>1590.1</ele></trkpt>
      <trkpt lat="45.927554" lon="10.766727"><ele>1584.3</ele></trkpt>
      <trkpt lat="45.927792" lon="10.766581"><ele>1577.7</ele></trkpt>
      <trkpt lat="45.928001" lon="10.766244"><ele>1574.5</ele></trkpt>
      <trkpt lat="45.928163" lon="10.765997"><ele>1573.2</ele></trkpt>
      <trkpt lat="45.928431" lon="10.765641"><ele>1574.9</ele></trkpt>
      <trkpt lat="45.928580" lon="10.765352"><ele>1579.6</ele></trkpt>
      <trkpt lat="45.928809" lon="10.765141"><ele>1587.3</ele></trkpt>
      <trkpt lat="45.929000" lon="10.764712"><ele>1594.3</ele></trkpt>
      <trkpt lat="45.929238" lon="10.764404"><ele>1600.7</ele></trkpt>
      <trkpt lat="45.929376" lon="10.764123"><ele>1607.0</ele></trkpt>
      <trkpt lat="45.929629" lon="10.763847"><ele>1612.0</ele></trkpt>
      <trkpt lat="45.929887" lon="10.763587"><ele>1614.3</ele></trkpt>
      <trkpt lat="45.930247" lon="10.763483"><ele>1617.0</ele></trkpt>
      <trkpt lat="45.930505" lon="10.763198"><ele>1620.2</ele></trkpt>
      <trkpt lat="45.930760" lon="10.762985"><ele>1623.7</ele></trkpt>
      <trkpt lat="45.930781" lon="10.762660"><ele>1629.1</ele></trkpt>
      <trkpt lat="45.930923" lon="10.762337"><ele>1637.6</ele></trkpt>
      <trkpt lat="45.931031" lon="10.761992"><ele>1646.0</ele></trkpt>
      <trkpt lat="45.931255" lon="10.761757"><ele>1654.4</ele></trkpt>
      <trkpt lat="45.931378" lon="10.761477"><ele>1664.3</ele></trkpt>
      <trkpt lat="45.931558" lon="10.761205"><ele>1675.5</ele></trkpt>
      <trkpt lat="45.931838" lon="10.761134"><ele>1685.0</ele></trkpt>
      <trkpt lat="45.932095" lon="10.761226"><ele>1692.8</ele></trkpt>
      <trkpt lat="45.932353" lon="10.761238"><ele>1698.9</ele></trkpt>
      <trkpt lat="45.932472" lon="10.761527"><ele>1702.0</ele></trkpt>
      <trkpt lat="45.932691" lon="10.761367"><ele>1704.6</ele></trkpt>
      <trkpt lat="45.932878" lon="10.761685"><ele>1709.7</ele></trkpt>
      <trkpt lat="45.932992" lon="10.762051"><ele>1717.3</ele></trkpt>
      <trkpt lat="45.932963" lon="10.762401"><ele>1727.6</ele></trkpt>
      <trkpt lat="45.932721" lon="10.762219"><ele>1740.3</ele></trkpt>
      <trkpt lat="45.932499" lon="10.762467"><ele>1753.1</ele></trkpt>
      <trkpt lat="45.932291" lon="10.762614"><ele>1765.9</ele></trkpt>
      <trkpt lat="45.932172" lon="10.762915"><ele>1778.1</ele></trkpt>
      <trkpt lat="45.932406" lon="10.763128"><ele>1789.7</ele></trkpt>
      <trkpt lat="45.932598" lon="10.762948"><ele>1798.2</ele></trkpt>
      <trkpt lat="45.932902" lon="10.763010"><ele>1803.6</ele></trkpt>
      <trkpt lat="45.933135" lon="10.762982"><ele>1807.9</ele></trkpt>
      <trkpt lat="45.933314" lon="10.763218"><ele>1809.7</ele></trkpt>
      <trkpt lat="45.933536" lon="10.763646"><ele>1811.1</ele></trkpt>
      <trkpt lat="45.933668" lon="10.763966"><ele>1814.6</ele></trkpt>
      <trkpt lat="45.933892" lon="10.764314"><ele>1817.9</ele></trkpt>
      <trkpt lat="45.934122" lon="10.764548"><ele>1819.5</ele></trkpt>
      <trkpt lat="45.934369" lon="10.764597"><ele>1821.4</ele></trkpt>
      <trkpt lat="45.934614" lon="10.764576"><ele>1821.6</ele></trkpt>
      <trkpt lat="45.934854" lon="10.764613"><ele>1820.0</ele></trkpt>
      <trkpt lat="45.935079" lon="10.764586"><ele>1816.9</ele></trkpt>
      <trkpt lat="45.935423" lon="10.764916"><ele>1815.5</ele></trkpt>
      <trkpt lat="45.935655" lon="10.765124"><ele>1813.7</ele></trkpt>
      <trkpt lat="45.935866" lon="10.765289"><ele>1811.6</ele></trkpt>
      <trkpt lat="45.935776" lon="10.765659"><ele>1811.4</ele></trkpt>
      <trkpt lat="45.935821" lon="10.766028"><ele>1815.3</ele></trkpt>
      <trkpt lat="45.935956" lon="10.766374"><ele>1819.4</ele></trkpt>
      <trkpt lat="45.935941" lon="10.766754"><ele>1826.6</ele></trkpt>
      <trkpt lat="45.935985" lon="10.767173"><ele>1836.9</ele></trkpt>
      <trkpt lat="45.936140" lon="10.767548"><ele>1848.0</ele></trkpt>
      <trkpt lat="45.936344" lon="10.767819"><ele>1858.0</ele></trkpt>
      <trkpt lat="45.936327" lon="10.768297"><ele>1867.1</ele></trkpt>
      <trkpt lat="45.936351" lon="10.768633"><ele>1875.6</ele></trkpt>
      <trkpt lat="45.936490" lon="10.768908"><ele>1883.7</ele></trkpt>
      <trkpt lat="45.936682" lon="10.769216"><ele>1891.3</ele></trkpt>
      <trkpt lat="45.936900" lon="10.769390"><ele>1900.1</ele></trkpt>
      <trkpt lat="45.937195" lon="10.769335"><ele>1909.5</ele></trkpt>
      <trkpt lat="45.937454" lon="10.769248"><ele>1918.1</ele></trkpt>
      <trkpt lat="45.937742" lon="10.769152"><ele>1925.9</ele></trkpt>
      <trkpt lat="45.938027" lon="10.769213"><ele>1933.0</ele></trkpt>
      <trkpt lat="45.938241" lon="10.769313"><ele>1939.3</ele></trkpt>
      <trkpt lat="45.938460" lon="10.769535"><ele>1946.7</ele></trkpt>
      <trkpt lat="45.938674" lon="10.769315"><ele>1955.0</ele></trkpt>
      <trkpt lat="45.938898" lon="10.769261"><ele>1964.3</ele></trkpt>
      <trkpt lat="45.939129" lon="10.769313"><ele>1974.7</ele></trkpt>
      <trkpt lat="45.939385" lon="10.769221"><ele>1986.0</ele></trkpt>
      <trkpt lat="45.939568" lon="10.769024"><ele>1997.3</ele></trkpt>
      <trkpt lat="45.939791" lon="10.768952"><ele>2008.7</ele></trkpt>
      <trkpt lat="45.940038" lon="10.769067"><ele>2020.0</ele></trkpt>
      <trkpt lat="45.940250" lon="10.768838"><ele>2032.4</ele></trkpt>
      <trkpt lat="45.940419" lon="10.769182"><ele>2043.5</ele></trkpt>
      <trkpt lat="45.940565" lon="10.769453"><ele>2053.5</ele></trkpt>
      <trkpt lat="45.940809" lon="10.769521"><ele>2061.3</ele></trkpt>
      <trkpt lat="45.941198" lon="10.769555"><ele>2066.9</ele></trkpt>
      <trkpt lat="45.941422" lon="10.769486"><ele>2069.4</ele></trkpt>
      <trkpt lat="45.941699" lon="10.769356"><ele>2071.9</ele></trkpt>
      <trkpt lat="45.941916" lon="10.769263"><ele>2074.4</ele></trkpt>
      <trkpt lat="45.942101" lon="10.768989"><ele>2077.8</ele></trkpt>
      <trkpt lat="45.942345" lon="10.768731"><ele>2081.5</ele></trkpt>
      <trkpt lat="45.942594" lon="10.768726"><ele>2085.5</ele></trkpt>
      <trkpt lat="45.942858" lon="10.768712"><ele>2088.8</ele></trkpt>
      <trkpt lat="45.943064" lon="10.768872"><ele>2092.5</ele></trkpt>
      <trkpt lat="45.943369" lon="10.768915"><ele>2096.4</ele></trkpt>
      <trkpt lat="45.943664" lon="10.769035"><ele>2101.2</ele></trkpt>
      <trkpt lat="45.943893" lon="10.769124"><ele>2106.1</ele></trkpt>
      <trkpt lat="45.944120" lon="10.769202"><ele>2110.9</ele></trkpt>
      <trkpt lat="45.944358" lon="10.769399"><ele>2112.9</ele></trkpt>
      <trkpt lat="45.944598" lon="10.769593"><ele>2111.5</ele></trkpt>
      <trkpt lat="45.944882" lon="10.769990"><ele>2107.8</ele></trkpt>
      <trkpt lat="45.945111" lon="10.769991"><ele>2102.7</ele></trkpt>
      <trkpt lat="45.945449" lon="10.769922"><ele>2096.2</ele></trkpt>
      <trkpt lat="45.945640" lon="10.770115"><ele>2090.2</ele></trkpt>
      <trkpt lat="45.945919" lon="10.770266"><ele>2085.2</ele></trkpt>
      <trkpt lat="45.946148" lon="10.770627"><ele>2080.2</ele></trkpt>
      <trkpt lat="45.946291" lon="10.770969"><ele>2075.2</ele></trkpt>
      <trkpt lat="45.946500" lon="10.771254"><ele>2072.2</ele></trkpt>
      <trkpt lat="45.946726" lon="10.771429"><ele>2071.2</ele></trkpt>
      <trkpt lat="45.946954" lon="10.771694"><ele>2071.1</ele></trkpt>
      <trkpt lat="45.947074" lon="10.771981"><ele>2072.1</ele></trkpt>
      <trkpt lat="45.947258" lon="10.772237"><ele>2075.0</ele></trkpt>
      <trkpt lat="45.947266" lon="10.772591"><ele>2077.9</ele></trkpt>
      <trkpt lat="45.947420" lon="10.772339"><ele>2080.9</ele></trkpt>
      <trkpt lat="45.947724" lon="10.772377"><ele>2084.8</ele></trkpt>
      <trkpt lat="45.947560" lon="10.772611"><ele>2089.7</ele></trkpt>
      <trkpt lat="45.947885" lon="10.772559"><ele>2094.6</ele></trkpt>
      <trkpt lat="45.948102" lon="10.772726"><ele>2099.4</ele></trkpt>
      <trkpt lat="45.948510" lon="10.772368"><ele>2104.3</ele></trkpt>
      <trkpt lat="45.948747" lon="10.772091"><ele>2108.2</ele></trkpt>
      <trkpt lat="45.948989" lon="10.771824"><ele>2110.0</ele></trkpt>
      <trkpt lat="45.949197" lon="10.771598"><ele>2109.8</ele></trkpt>
      <trkpt lat="45.949447" lon="10.771370"><ele>2107.6</ele></trkpt>
      <trkpt lat="45.949685" lon="10.771212"><ele>2103.3</ele></trkpt>
      <trkpt lat="45.949930" lon="10.771004"><ele>2098.1</ele></trkpt>
      <trkpt lat="45.950175" lon="10.770715"><ele>2092.9</ele></trkpt>
      <trkpt lat="45.950448" lon="10.770705"><ele>2087.4</ele></trkpt>
      <trkpt lat="45.950712" lon="10.770617"><ele>2081.6</ele></trkpt>
      <trkpt lat="45.950922" lon="10.770495"><ele>2076.7</ele></trkpt>
      <trkpt lat="45.951201" lon="10.770312"><ele>2072.5</ele></trkpt>
      <trkpt lat="45.951524" lon="10.770222"><ele>2069.0</ele></trkpt>
      <trkpt lat="45.951815" lon="10.770196"><ele>2066.7</ele></trkpt>
      <trkpt lat="45.952115" lon="10.770094"><ele>2065.3</ele></trkpt>
      <trkpt lat="45.952400" lon="10.769989"><ele>2064.2</ele></trkpt>
      <trkpt lat="45.952609" lon="10.769835"><ele>2063.3</ele></trkpt>
      <trkpt lat="45.953036" lon="10.769600"><ele>2062.9</ele></trkpt>
      <trkpt lat="45.953451" lon="10.769406"><ele>2063.0</ele></trkpt>
      <trkpt lat="45.953861" lon="10.769061"><ele>2063.6</ele></trkpt>
      <trkpt lat="45.954136" lon="10.768840"><ele>2064.4</ele></trkpt>
      <trkpt lat="45.954352" lon="10.768671"><ele>2065.6</ele></trkpt>
      <trkpt lat="45.954594" lon="10.768375"><ele>2066.7</ele></trkpt>
      <trkpt lat="45.954789" lon="10.768141"><ele>2067.0</ele></trkpt>
      <trkpt lat="45.955093" lon="10.768031"><ele>2066.3</ele></trkpt>
      <trkpt lat="45.955436" lon="10.767898"><ele>2064.7</ele></trkpt>
      <trkpt lat="45.955712" lon="10.767884"><ele>2062.0</ele></trkpt>
      <trkpt lat="45.955948" lon="10.767850"><ele>2058.3</ele></trkpt>
      <trkpt lat="45.956221" lon="10.767746"><ele>2054.4</ele></trkpt>
      <trkpt lat="45.956447" lon="10.767560"><ele>2050.6</ele></trkpt>
      <trkpt lat="45.956669" lon="10.767458"><ele>2046.6</ele></trkpt>
      <trkpt lat="45.956967" lon="10.767279"><ele>2042.5</ele></trkpt>
      <trkpt lat="45.957253" lon="10.767286"><ele>2039.1</ele></trkpt>
      <trkpt lat="45.957551" lon="10.767068"><ele>2036.4</ele></trkpt>
      <trkpt lat="45.957859" lon="10.766823"><ele>2034.6</ele></trkpt>
      <trkpt lat="45.958100" lon="10.766701"><ele>2033.6</ele></trkpt>
      <trkpt lat="45.958359" lon="10.766981"><ele>2033.6</ele></trkpt>
      <trkpt lat="45.958601" lon="10.767145"><ele>2033.7</ele></trkpt>
      <trkpt lat="45.958852" lon="10.767123"><ele>2033.9</ele></trkpt>
      <trkpt lat="45.959004" lon="10.766871"><ele>2034.4</ele></trkpt>
      <trkpt lat="45.959310" lon="10.766543"><ele>2035.1</ele></trkpt>
      <trkpt lat="45.959521" lon="10.766324"><ele>2036.0</ele></trkpt>
      <trkpt lat="45.959782" lon="10.766127"><ele>2037.2</ele></trkpt>
      <trkpt lat="45.959987" lon="10.765989"><ele>2038.5</ele></trkpt>
      <trkpt lat="45.960223" lon="10.766035"><ele>2039.7</ele></trkpt>
      <trkpt lat="45.960494" lon="10.766051"><ele>2040.8</ele></trkpt>
      <trkpt lat="45.960692" lon="10.766258"><ele>2041.7</ele></trkpt>
      <trkpt lat="45.960923" lon="10.766465"><ele>2043.5</ele></trkpt>
      <trkpt lat="45.961084" lon="10.766219"><ele>2046.2</ele></trkpt>
      <trkpt lat="45.961336" lon="10.766139"><ele>2049.8</ele></trkpt>
      <trkpt lat="45.961639" lon="10.766062"><ele>2054.3</ele></trkpt>
      <trkpt lat="45.961973" lon="10.766067"><ele>2059.7</ele></trkpt>
      <trkpt lat="45.962370" lon="10.766245"><ele>2064.9</ele></trkpt>
      <trkpt lat="45.962741" lon="10.766317"><ele>2070.1</ele></trkpt>
      <trkpt lat="45.963002" lon="10.766229"><ele>2075.3</ele></trkpt>
      <trkpt lat="45.963233" lon="10.766228"><ele>2080.4</ele></trkpt>
      <trkpt lat="45.963501" lon="10.766102"><ele>2084.4</ele></trkpt>
      <trkpt lat="45.963742" lon="10.766269"><ele>2087.2</ele></trkpt>
      <trkpt lat="45.964016" lon="10.766200"><ele>2088.8</ele></trkpt>
      <trkpt lat="45.964137" lon="10.765905"><ele>2089.3</ele></trkpt>
      <trkpt lat="45.964366" lon="10.765841"><ele>2088.5</ele></trkpt>
      <trkpt lat="45.964705" lon="10.765573"><ele>2087.4</ele></trkpt>
      <trkpt lat="45.964937" lon="10.765341"><ele>2086.1</ele></trkpt>
      <trkpt lat="45.965261" lon="10.765193"><ele>2084.4</ele></trkpt>
      <trkpt lat="45.965428" lon="10.764920"><ele>2082.7</ele></trkpt>
      <trkpt lat="45.965638" lon="10.764623"><ele>2081.0</ele></trkpt>
      <trkpt lat="45.965790" lon="10.764294"><ele>2078.1</ele></trkpt>
      <trkpt lat="45.965942" lon="10.764010"><ele>2074.1</ele></trkpt>
      <trkpt lat="45.965961" lon="10.763632"><ele>2068.8</ele></trkpt>
      <trkpt lat="45.966054" lon="10.763305"><ele>2062.5</ele></trkpt>
      <trkpt lat="45.965897" lon="10.763073"><ele>2055.1</ele></trkpt>
      <trkpt lat="45.965949" lon="10.762696"><ele>2047.0</ele></trkpt>
      <trkpt lat="45.966022" lon="10.762223"><ele>2038.2</ele></trkpt>
      <trkpt lat="45.965920" lon="10.761728"><ele>2028.5</ele></trkpt>
      <trkpt lat="45.965833" lon="10.761335"><ele>2017.9</ele></trkpt>
      <trkpt lat="45.965810" lon="10.760948"><ele>2007.5</ele></trkpt>
      <trkpt lat="45.965998" lon="10.760588"><ele>1998.3</ele></trkpt>
      <trkpt lat="45.966067" lon="10.760191"><ele>1990.2</ele></trkpt>
      <trkpt lat="45.966251" lon="10.759751"><ele>1984.4</ele></trkpt>
      <trkpt lat="45.966359" lon="10.759455"><ele>1980.7</ele></trkpt>
      <trkpt lat="45.966467" lon="10.759156"><ele>1979.0</ele></trkpt>
      <trkpt lat="45.966491" lon="10.758833"><ele>1979.4</ele></trkpt>
      <trkpt lat="45.966706" lon="10.758578"><ele>1981.9</ele></trkpt>
      <trkpt lat="45.966892" lon="10.758390"><ele>1985.4</ele></trkpt>
      <trkpt lat="45.967106" lon="10.758072"><ele>1989.6</ele></trkpt>
      <trkpt lat="45.967107" lon="10.757671"><ele>1993.7</ele></trkpt>
      <trkpt lat="45.967247" lon="10.757369"><ele>1997.5</ele></trkpt>
      <trkpt lat="45.967498" lon="10.757084"><ele>2000.1</ele></trkpt>
      <trkpt lat="45.967680" lon="10.756828"><ele>2001.4</ele></trkpt>
      <trkpt lat="45.967807" lon="10.756479"><ele>2001.8</ele></trkpt>
      <trkpt lat="45.967933" lon="10.756004"><ele>1999.2</ele></trkpt>
      <trkpt lat="45.968104" lon="10.755576"><ele>1995.2</ele></trkpt>
      <trkpt lat="45.968026" lon="10.755222"><ele>1991.0</ele></trkpt>
      <trkpt lat="45.968123" lon="10.754868"><ele>1987.0</ele></trkpt>
      <trkpt lat="45.968328" lon="10.754650"><ele>1983.1</ele></trkpt>
      <trkpt lat="45.968530" lon="10.754286"><ele>1981.2</ele></trkpt>
      <trkpt lat="45.968626" lon="10.753946"><ele>1979.8</ele></trkpt>
      <trkpt lat="45.968822" lon="10.753740"><ele>1979.1</ele></trkpt>
      <trkpt lat="45.968959" lon="10.753449"><ele>1979.0</ele></trkpt>
      <trkpt lat="45.969169" lon="10.753185"><ele>1981.2</ele></trkpt>
      <trkpt lat="45.969344" lon="10.752924"><ele>1984.1</ele></trkpt>
      <trkpt lat="45.969568" lon="10.752544"><ele>1986.3</ele></trkpt>
      <trkpt lat="45.969718" lon="10.752194"><ele>1987.3</ele></trkpt>
      <trkpt lat="45.969842" lon="10.751855"><ele>1987.1</ele></trkpt>
      <trkpt lat="45.970005" lon="10.751599"><ele>1983.8</ele></trkpt>
      <trkpt lat="45.970265" lon="10.751571"><ele>1979.0</ele></trkpt>
      <trkpt lat="45.970559" lon="10.751498"><ele>1973.8</ele></trkpt>
      <trkpt lat="45.970841" lon="10.751463"><ele>1968.0</ele></trkpt>
      <trkpt lat="45.971094" lon="10.751294"><ele>1961.9</ele></trkpt>
      <trkpt lat="45.971288" lon="10.751021"><ele>1955.2</ele></trkpt>
      <trkpt lat="45.971456" lon="10.751294"><ele>1949.5</ele></trkpt>
      <trkpt lat="45.971803" lon="10.751144"><ele>1945.3</ele></trkpt>
      <trkpt lat="45.972133" lon="10.751259"><ele>1942.4</ele></trkpt>
      <trkpt lat="45.972349" lon="10.751407"><ele>1940.2</ele></trkpt>
      <trkpt lat="45.972519" lon="10.751069"><ele>1940.1</ele></trkpt>
      <trkpt lat="45.972278" lon="10.751066"><ele>1940.5</ele></trkpt>
      <trkpt lat="45.972446" lon="10.750844"><ele>1941.4</ele></trkpt>
      <trkpt lat="45.972642" lon="10.750664"><ele>1941.7</ele></trkpt>
      <trkpt lat="45.972910" lon="10.750353"><ele>1941.9</ele></trkpt>
      <trkpt lat="45.973179" lon="10.750063"><ele>1940.8</ele></trkpt>
      <trkpt lat="45.973388" lon="10.749760"><ele>1938.3</ele></trkpt>
      <trkpt lat="45.973671" lon="10.749706"><ele>1933.5</ele></trkpt>
      <trkpt lat="45.973943" lon="10.749908"><ele>1928.4</ele></trkpt>
      <trkpt lat="45.974167" lon="10.750095"><ele>1921.7</ele></trkpt>
      <trkpt lat="45.974482" lon="10.750251"><ele>1914.0</ele></trkpt>
      <trkpt lat="45.974739" lon="10.750468"><ele>1905.5</ele></trkpt>
      <trkpt lat="45.974964" lon="10.750562"><ele>1898.5</ele></trkpt>
      <trkpt lat="45.975196" lon="10.750463"><ele>1892.2</ele></trkpt>
      <trkpt lat="45.975438" lon="10.750208"><ele>1888.0</ele></trkpt>
      <trkpt lat="45.975675" lon="10.750042"><ele>1887.1</ele></trkpt>
      <trkpt lat="45.975890" lon="10.749914"><ele>1890.5</ele></trkpt>
      <trkpt lat="45.976200" lon="10.749924"><ele>1897.0</ele></trkpt>
      <trkpt lat="45.976525" lon="10.749760"><ele>1906.5</ele></trkpt>
      <trkpt lat="45.976767" lon="10.749840"><ele>1918.3</ele></trkpt>
      <trkpt lat="45.976996" lon="10.749661"><ele>1930.4</ele></trkpt>
      <trkpt lat="45.977206" lon="10.749494"><ele>1941.7</ele></trkpt>
      <trkpt lat="45.977514" lon="10.749339"><ele>1952.3</ele></trkpt>
      <trkpt lat="45.977695" lon="10.749097"><ele>1962.2</ele></trkpt>
      <trkpt lat="45.977919" lon="10.748902"><ele>1970.2</ele></trkpt>
      <trkpt lat="45.978134" lon="10.748591"><ele>1976.1</ele></trkpt>
      <trkpt lat="45.978379" lon="10.748631"><ele>1980.2</ele></trkpt>
      <trkpt lat="45.978662" lon="10.748607"><ele>1982.2</ele></trkpt>
      <trkpt lat="45.978871" lon="10.748841"><ele>1982.3</ele></trkpt>
      <trkpt lat="45.979080" lon="10.749030"><ele>1982.4</ele></trkpt>
      <trkpt lat="45.979202" lon="10.749311"><ele>1982.6</ele></trkpt>
      <trkpt lat="45.979367" lon="10.749569"><ele>1982.7</ele></trkpt>
      <trkpt lat="45.979656" lon="10.749551"><ele>1982.7</ele></trkpt>
      <trkpt lat="45.979937" lon="10.749584"><ele>1982.6</ele></trkpt>
      <trkpt lat="45.980115" lon="10.749838"><ele>1982.4</ele></trkpt>
      <trkpt lat="45.980411" lon="10.749674"><ele>1982.1</ele></trkpt>
      <trkpt lat="45.980733" lon="10.749734"><ele>1981.7</ele></trkpt>
      <trkpt lat="45.980968" lon="10.749728"><ele>1981.2</ele></trkpt>
      <trkpt lat="45.981347" lon="10.749760"><ele>1980.8</ele></trkpt>
      <trkpt lat="45.981624" lon="10.749601"><ele>1980.7</ele></trkpt>
      <trkpt lat="45.981926" lon="10.749586"><ele>1980.9</ele></trkpt>
      <trkpt lat="45.982431" lon="10.749466"><ele>1981.5</ele></trkpt>
      <trkpt lat="45.982708" lon="10.749558"><ele>1982.6</ele></trkpt>
      <trkpt lat="45.982975" lon="10.749462"><ele>1984.1</ele></trkpt>
      <trkpt lat="45.983273" lon="10.749494"><ele>1985.7</ele></trkpt>
      <trkpt lat="45.983582" lon="10.749513"><ele>1987.3</ele></trkpt>
      <trkpt lat="45.983808" lon="10.749440"><ele>1989.8</ele></trkpt>
      <trkpt lat="45.984115" lon="10.749406"><ele>1993.2</ele></trkpt>
      <trkpt lat="45.984459" lon="10.749232"><ele>1997.1</ele></trkpt>
      <trkpt lat="45.984832" lon="10.749036"><ele>2001.4</ele></trkpt>
      <trkpt lat="45.985089" lon="10.748886"><ele>2006.3</ele></trkpt>
      <trkpt lat="45.985346" lon="10.748676"><ele>2010.9</ele></trkpt>
      <trkpt lat="45.985605" lon="10.748604"><ele>2015.1</ele></trkpt>
      <trkpt lat="45.985833" lon="10.748623"><ele>2017.1</ele></trkpt>
      <trkpt lat="45.986090" lon="10.748840"><ele>2016.8</ele></trkpt>
      <trkpt lat="45.986302" lon="10.748988"><ele>2013.5</ele></trkpt>
      <trkpt lat="45.986541" lon="10.749100"><ele>2007.0</ele></trkpt>
      <trkpt lat="45.986746" lon="10.749317"><ele>1998.0</ele></trkpt>
      <trkpt lat="45.986819" lon="10.749706"><ele>1988.6</ele></trkpt>
      <trkpt lat="45.986873" lon="10.750133"><ele>1978.8</ele></trkpt>
      <trkpt lat="45.986940" lon="10.750449"><ele>1969.6</ele></trkpt>
      <trkpt lat="45.987206" lon="10.750194"><ele>1960.8</ele></trkpt>
      <trkpt lat="45.987475" lon="10.750144"><ele>1954.2</ele></trkpt>
      <trkpt lat="45.987723" lon="10.750267"><ele>1950.0</ele></trkpt>
      <trkpt lat="45.988006" lon="10.750270"><ele>1947.9</ele></trkpt>
      <trkpt lat="45.987788" lon="10.750447"><ele>1948.1</ele></trkpt>
      <trkpt lat="45.988136" lon="10.750409"><ele>1950.1</ele></trkpt>
      <trkpt lat="45.988384" lon="10.750543"><ele>1949.4</ele></trkpt>
      <trkpt lat="45.988578" lon="10.750755"><ele>1946.6</ele></trkpt>
      <trkpt lat="45.988816" lon="10.750948"><ele>1941.6</ele></trkpt>
      <trkpt lat="45.989003" lon="10.751192"><ele>1934.5</ele></trkpt>
      <trkpt lat="45.989284" lon="10.751490"><ele>1925.8</ele></trkpt>
      <trkpt lat="45.989377" lon="10.751807"><ele>1917.6</ele></trkpt>
      <trkpt lat="45.989478" lon="10.752166"><ele>1909.3</ele></trkpt>
      <trkpt lat="45.989935" lon="10.752485"><ele>1900.9</ele></trkpt>
      <trkpt lat="45.990313" lon="10.752244"><ele>1892.2</ele></trkpt>
      <trkpt lat="45.990559" lon="10.752410"><ele>1885.5</ele></trkpt>
      <trkpt lat="45.990831" lon="10.752553"><ele>1880.2</ele></trkpt>
      <trkpt lat="45.991133" lon="10.752637"><ele>1876.3</ele></trkpt>
      <trkpt lat="45.991394" lon="10.752642"><ele>1874.0</ele></trkpt>
      <trkpt lat="45.991672" lon="10.752606"><ele>1873.4</ele></trkpt>
      <trkpt lat="45.991890" lon="10.752527"><ele>1872.3</ele></trkpt>
      <trkpt lat="45.992171" lon="10.752466"><ele>1871.2</ele></trkpt>
      <trkpt lat="45.992370" lon="10.752642"><ele>1870.3</ele></trkpt>
      <trkpt lat="45.992520" lon="10.752954"><ele>1871.5</ele></trkpt>
      <trkpt lat="45.992741" lon="10.753105"><ele>1874.8</ele></trkpt>
      <trkpt lat="45.993067" lon="10.753166"><ele>1880.1</ele></trkpt>
      <trkpt lat="45.993352" lon="10.752858"><ele>1887.4</ele></trkpt>
      <trkpt lat="45.993585" lon="10.752437"><ele>1896.7</ele></trkpt>
      <trkpt lat="45.993693" lon="10.752140"><ele>1905.9</ele></trkpt>
      <trkpt lat="45.993915" lon="10.751951"><ele>1915.1</ele></trkpt>
      <trkpt lat="45.994289" lon="10.751821"><ele>1924.7</ele></trkpt>
      <trkpt lat="45.994567" lon="10.751699"><ele>1934.8</ele></trkpt>
      <trkpt lat="45.994812" lon="10.751741"><ele>1943.3</ele></trkpt>
      <trkpt lat="45.995050" lon="10.751646"><ele>1950.5</ele></trkpt>
      <trkpt lat="45.995347" lon="10.751304"><ele>1950.4</ele></trkpt>
      <trkpt lat="45.995601" lon="10.751174"><ele>1941.9</ele></trkpt>
      <trkpt lat="45.995886" lon="10.751116"><ele>1924.9</ele></trkpt>
      <trkpt lat="45.996167" lon="10.751214"><ele>1901.4</ele></trkpt>
      <trkpt lat="45.996429" lon="10.751295"><ele>1871.3</ele></trkpt>
      <trkpt lat="45.996663" lon="10.751361"><ele>1840.0</ele></trkpt>
      <trkpt lat="46.003868" lon="10.752865"><ele>1808.4</ele></trkpt>
      <trkpt lat="46.004412" lon="10.752990"><ele>1777.6</ele></trkpt>
      <trkpt lat="46.004751" lon="10.753170"><ele>1747.9</ele></trkpt>
      <trkpt lat="46.004981" lon="10.753287"><ele>1722.4</ele></trkpt>
      <trkpt lat="46.005124" lon="10.753744"><ele>1702.4</ele></trkpt>
      <trkpt lat="46.005305" lon="10.753958"><ele>1687.9</ele></trkpt>
      <trkpt lat="46.005551" lon="10.754129"><ele>1678.4</ele></trkpt>
      <trkpt lat="46.005752" lon="10.754376"><ele>1674.0</ele></trkpt>
      <trkpt lat="46.005953" lon="10.754703"><ele>1671.4</ele></trkpt>
      <trkpt lat="46.006281" lon="10.755197"><ele>1669.8</ele></trkpt>
      <trkpt lat="46.006453" lon="10.755642"><ele>1667.8</ele></trkpt>
      <trkpt lat="46.006777" lon="10.756071"><ele>1664.6</ele></trkpt>
      <trkpt lat="46.007157" lon="10.756731"><ele>1662.5</ele></trkpt>
      <trkpt lat="46.007295" lon="10.757198"><ele>1661.7</ele></trkpt>
      <trkpt lat="46.007380" lon="10.757557"><ele>1662.0</ele></trkpt>
      <trkpt lat="46.007697" lon="10.757954"><ele>1663.9</ele></trkpt>
      <trkpt lat="46.007768" lon="10.758469"><ele>1666.9</ele></trkpt>
      <trkpt lat="46.007634" lon="10.758963"><ele>1668.4</ele></trkpt>
      <trkpt lat="46.007492" lon="10.759547"><ele>1668.6</ele></trkpt>
      <trkpt lat="46.007369" lon="10.759837"><ele>1667.2</ele></trkpt>
      <trkpt lat="46.007087" lon="10.760091"><ele>1665.4</ele></trkpt>
      <trkpt lat="46.006885" lon="10.760357"><ele>1663.5</ele></trkpt>
      <trkpt lat="46.006825" lon="10.760831"><ele>1661.0</ele></trkpt>
      <trkpt lat="46.007000" lon="10.761131"><ele>1658.0</ele></trkpt>
      <trkpt lat="46.007267" lon="10.761389"><ele>1654.6</ele></trkpt>
      <trkpt lat="46.007529" lon="10.761656"><ele>1651.1</ele></trkpt>
      <trkpt lat="46.007864" lon="10.761732"><ele>1647.6</ele></trkpt>
      <trkpt lat="46.008261" lon="10.761815"><ele>1643.0</ele></trkpt>
      <trkpt lat="46.008601" lon="10.761802"><ele>1639.0</ele></trkpt>
      <trkpt lat="46.009340" lon="10.761610"><ele>1635.6</ele></trkpt>
      <trkpt lat="46.009656" lon="10.761704"><ele>1632.3</ele></trkpt>
      <trkpt lat="46.009972" lon="10.761974"><ele>1629.6</ele></trkpt>
      <trkpt lat="46.010264" lon="10.762230"><ele>1628.9</ele></trkpt>
      <trkpt lat="46.010633" lon="10.762396"><ele>1626.8</ele></trkpt>
      <trkpt lat="46.011114" lon="10.762734"><ele>1623.2</ele></trkpt>
      <trkpt lat="46.011295" lon="10.763010"><ele>1618.2</ele></trkpt>
      <trkpt lat="46.011468" lon="10.763796"><ele>1615.6</ele></trkpt>
      <trkpt lat="46.011341" lon="10.764295"><ele>1610.7</ele></trkpt>
      <trkpt lat="46.011069" lon="10.764456"><ele>1607.6</ele></trkpt>
      <trkpt lat="46.010946" lon="10.764815"><ele>1606.3</ele></trkpt>
      <trkpt lat="46.010693" lon="10.765588"><ele>1604.7</ele></trkpt>
      <trkpt lat="46.010517" lon="10.765969"><ele>1598.6</ele></trkpt>
      <trkpt lat="46.010402" lon="10.766312"><ele>1594.3</ele></trkpt>
      <trkpt lat="46.010521" lon="10.766677"><ele>1590.0</ele></trkpt>
      <trkpt lat="46.010327" lon="10.766982"><ele>1586.0</ele></trkpt>
      <trkpt lat="46.010332" lon="10.767358"><ele>1581.5</ele></trkpt>
      <trkpt lat="46.010570" lon="10.767707"><ele>1579.5</ele></trkpt>
      <trkpt lat="46.011240" lon="10.768104"><ele>1573.9</ele></trkpt>
      <trkpt lat="46.011501" lon="10.768409"><ele>1566.4</ele></trkpt>
      <trkpt lat="46.011559" lon="10.768731"><ele>1558.4</ele></trkpt>
      <trkpt lat="46.011259" lon="10.769643"><ele>1552.9</ele></trkpt>
      <trkpt lat="46.011274" lon="10.770121"><ele>1546.8</ele></trkpt>
      <trkpt lat="46.011576" lon="10.770475"><ele>1544.1</ele></trkpt>
      <trkpt lat="46.012668" lon="10.770636"><ele>1540.8</ele></trkpt>
      <trkpt lat="46.013037" lon="10.771008"><ele>1534.9</ele></trkpt>
      <trkpt lat="46.013297" lon="10.771446"><ele>1526.4</ele></trkpt>
      <trkpt lat="46.013472" lon="10.771784"><ele>1517.5</ele></trkpt>
      <trkpt lat="46.013707" lon="10.772288"><ele>1506.8</ele></trkpt>
      <trkpt lat="46.013941" lon="10.773597"><ele>1496.7</ele></trkpt>
      <trkpt lat="46.014584" lon="10.775234"><ele>1487.1</ele></trkpt>
      <trkpt lat="46.014888" lon="10.776344"><ele>1478.1</ele></trkpt>
      <trkpt lat="46.015013" lon="10.777081"><ele>1467.7</ele></trkpt>
      <trkpt lat="46.015080" lon="10.777482"><ele>1459.4</ele></trkpt>
      <trkpt lat="46.015362" lon="10.778472"><ele>1453.4</ele></trkpt>
      <trkpt lat="46.015557" lon="10.778638"><ele>1449.5</ele></trkpt>
      <trkpt lat="46.015832" lon="10.778688"><ele>1453.6</ele></trkpt>
      <trkpt lat="46.016363" lon="10.778587"><ele>1465.3</ele></trkpt>
      <trkpt lat="46.016587" lon="10.778536"><ele>1482.9</ele></trkpt>
      <trkpt lat="46.017095" lon="10.778200"><ele>1506.2</ele></trkpt>
      <trkpt lat="46.017508" lon="10.778136"><ele>1535.3</ele></trkpt>
      <trkpt lat="46.017754" lon="10.778214"><ele>1564.4</ele></trkpt>
      <trkpt lat="46.003868" lon="10.752865"><ele>1593.6</ele></trkpt>
      <trkpt lat="46.003619" lon="10.752776"><ele>1622.7</ele></trkpt>
      <trkpt lat="46.003366" lon="10.752718"><ele>1653.2</ele></trkpt>
      <trkpt lat="46.003100" lon="10.752626"><ele>1679.3</ele></trkpt>
      <trkpt lat="46.002972" lon="10.752354"><ele>1701.1</ele></trkpt>
      <trkpt lat="46.002740" lon="10.752201"><ele>1718.4</ele></trkpt>
      <trkpt lat="46.002511" lon="10.752166"><ele>1731.3</ele></trkpt>
      <trkpt lat="46.002274" lon="10.752132"><ele>1738.4</ele></trkpt>
      <trkpt lat="46.001994" lon="10.752158"><ele>1746.0</ele></trkpt>
      <trkpt lat="46.001770" lon="10.752223"><ele>1754.0</ele></trkpt>
      <trkpt lat="46.001557" lon="10.752400"><ele>1762.4</ele></trkpt>
      <trkpt lat="46.001327" lon="10.752491"><ele>1771.7</ele></trkpt>
      <trkpt lat="46.001030" lon="10.752408"><ele>1781.8</ele></trkpt>
      <trkpt lat="46.000790" lon="10.752223"><ele>1792.3</ele></trkpt>
      <trkpt lat="46.000606" lon="10.751901"><ele>1803.1</ele></trkpt>
      <trkpt lat="46.000380" lon="10.751679"><ele>1814.3</ele></trkpt>
      <trkpt lat="46.000196" lon="10.751464"><ele>1825.6</ele></trkpt>
      <trkpt lat="45.999938" lon="10.751406"><ele>1836.3</ele></trkpt>
      <trkpt lat="45.999844" lon="10.751824"><ele>1846.7</ele></trkpt>
      <trkpt lat="45.999599" lon="10.752062"><ele>1856.6</ele></trkpt>
      <trkpt lat="45.999412" lon="10.751831"><ele>1864.2</ele></trkpt>
      <trkpt lat="45.999177" lon="10.751748"><ele>1870.2</ele></trkpt>
      <trkpt lat="45.998939" lon="10.751570"><ele>1875.0</ele></trkpt>
      <trkpt lat="45.998681" lon="10.751576"><ele>1879.1</ele></trkpt>
      <trkpt lat="45.998445" lon="10.751348"><ele>1882.6</ele></trkpt>
      <trkpt lat="45.998268" lon="10.751678"><ele>1887.2</ele></trkpt>
      <trkpt lat="45.998143" lon="10.752000"><ele>1893.3</ele></trkpt>
      <trkpt lat="45.998159" lon="10.752375"><ele>1900.9</ele></trkpt>
      <trkpt lat="45.998023" lon="10.752643"><ele>1909.5</ele></trkpt>
      <trkpt lat="45.997756" lon="10.752652"><ele>1919.1</ele></trkpt>
      <trkpt lat="45.997580" lon="10.752446"><ele>1929.1</ele></trkpt>
      <trkpt lat="45.997440" lon="10.752192"><ele>1938.4</ele></trkpt>
      <trkpt lat="45.997299" lon="10.751884"><ele>1946.6</ele></trkpt>
      <trkpt lat="45.997262" lon="10.751541"><ele>1951.7</ele></trkpt>
      <trkpt lat="45.996959" lon="10.751362"><ele>1956.7</ele></trkpt>
      <trkpt lat="45.996704" lon="10.751367"><ele>1961.2</ele></trkpt>
      <trkpt lat="45.996663" lon="10.751361"><ele>1964.7</ele></trkpt>
    </trkseg>
  </trk>
</gpx>
