<?xml version="1.0" encoding="UTF-8"?>
<gpx version="1.1" creator="TrailShare content prep" xmlns="http://www.topografix.com/GPX/1/1">
  <metadata>
    <name>Garda Brenta Tappa 1: Riva del Garda → Rifugio Nino Pernici</name>
    <desc>Itinerario Garda Brenta (SAT, ref GB), tappa 1/7. Geometria: OpenStreetMap contributors (ODbL). Elevazione: Open-Elevation (SRTM), serie smussata e calibrata.</desc>
  </metadata>
  <trk>
    <name>Garda Brenta Tappa 1: Riva del Garda → Rifugio Nino Pernici</name>
    <trkseg>
      <trkpt lat="45.887011" lon="10.837903"><ele>107.1</ele></trkpt>
      <trkpt lat="45.886797" lon="10.837732"><ele>112.5</ele></trkpt>
      <trkpt lat="45.886570" lon="10.837649"><ele>116.2</ele></trkpt>
      <trkpt lat="45.886651" lon="10.837243"><ele>119.1</ele></trkpt>
      <trkpt lat="45.886870" lon="10.837141"><ele>121.3</ele></trkpt>
      <trkpt lat="45.886751" lon="10.836863"><ele>127.3</ele></trkpt>
      <trkpt lat="45.886417" lon="10.836827"><ele>131.8</ele></trkpt>
      <trkpt lat="45.886729" lon="10.836718"><ele>135.4</ele></trkpt>
      <trkpt lat="45.886158" lon="10.836681"><ele>137.8</ele></trkpt>
      <trkpt lat="45.886822" lon="10.836309"><ele>139.0</ele></trkpt>
      <trkpt lat="45.886549" lon="10.836246"><ele>139.0</ele></trkpt>
      <trkpt lat="45.887048" lon="10.836018"><ele>141.5</ele></trkpt>
      <trkpt lat="45.886529" lon="10.836001"><ele>146.6</ele></trkpt>
      <trkpt lat="45.886753" lon="10.835867"><ele>154.2</ele></trkpt>
      <trkpt lat="45.886528" lon="10.835814"><ele>164.3</ele></trkpt>
      <trkpt lat="45.886351" lon="10.835593"><ele>177.8</ele></trkpt>
      <trkpt lat="45.886131" lon="10.835522"><ele>189.6</ele></trkpt>
      <trkpt lat="45.885952" lon="10.835297"><ele>199.9</ele></trkpt>
      <trkpt lat="45.886265" lon="10.835128"><ele>208.7</ele></trkpt>
      <trkpt lat="45.885907" lon="10.835059"><ele>218.2</ele></trkpt>
      <trkpt lat="45.885591" lon="10.835087"><ele>225.2</ele></trkpt>
      <trkpt lat="45.885380" lon="10.835235"><ele>231.9</ele></trkpt>
      <trkpt lat="45.885204" lon="10.835489"><ele>238.5</ele></trkpt>
      <trkpt lat="45.884969" lon="10.835672"><ele>244.8</ele></trkpt>
      <trkpt lat="45.884758" lon="10.835453"><ele>247.8</ele></trkpt>
      <trkpt lat="45.884665" lon="10.835115"><ele>252.4</ele></trkpt>
      <trkpt lat="45.884480" lon="10.834904"><ele>258.5</ele></trkpt>
      <trkpt lat="45.884203" lon="10.834750"><ele>266.2</ele></trkpt>
      <trkpt lat="45.884017" lon="10.834518"><ele>273.1</ele></trkpt>
      <trkpt lat="45.884293" lon="10.834416"><ele>280.6</ele></trkpt>
      <trkpt lat="45.884495" lon="10.834151"><ele>285.8</ele></trkpt>
      <trkpt lat="45.884297" lon="10.833975"><ele>291.6</ele></trkpt>
      <trkpt lat="45.884057" lon="10.833907"><ele>295.6</ele></trkpt>
      <trkpt lat="45.883829" lon="10.833864"><ele>300.2</ele></trkpt>
      <trkpt lat="45.883523" lon="10.833799"><ele>304.8</ele></trkpt>
      <trkpt lat="45.883211" lon="10.833676"><ele>309.9</ele></trkpt>
      <trkpt lat="45.883404" lon="10.833501"><ele>312.7</ele></trkpt>
      <trkpt lat="45.883560" lon="10.833250"><ele>318.0</ele></trkpt>
      <trkpt lat="45.883175" lon="10.833423"><ele>325.4</ele></trkpt>
      <trkpt lat="45.882932" lon="10.833394"><ele>335.4</ele></trkpt>
      <trkpt lat="45.882691" lon="10.833405"><ele>345.0</ele></trkpt>
      <trkpt lat="45.882430" lon="10.833578"><ele>356.4</ele></trkpt>
      <trkpt lat="45.882054" lon="10.833675"><ele>367.0</ele></trkpt>
      <trkpt lat="45.882356" lon="10.833198"><ele>377.5</ele></trkpt>
      <trkpt lat="45.882615" lon="10.832667"><ele>387.1</ele></trkpt>
      <trkpt lat="45.882854" lon="10.832433"><ele>398.9</ele></trkpt>
      <trkpt lat="45.883216" lon="10.832211"><ele>408.1</ele></trkpt>
      <trkpt lat="45.883557" lon="10.832140"><ele>414.7</ele></trkpt>
      <trkpt lat="45.883384" lon="10.831911"><ele>418.8</ele></trkpt>
      <trkpt lat="45.883806" lon="10.831927"><ele>420.2</ele></trkpt>
      <trkpt lat="45.884097" lon="10.831895"><ele>422.6</ele></trkpt>
      <trkpt lat="45.884439" lon="10.831798"><ele>428.4</ele></trkpt>
      <trkpt lat="45.884691" lon="10.831832"><ele>437.7</ele></trkpt>
      <trkpt lat="45.884928" lon="10.831699"><ele>450.4</ele></trkpt>
      <trkpt lat="45.884696" lon="10.831516"><ele>466.7</ele></trkpt>
      <trkpt lat="45.884565" lon="10.831252"><ele>482.9</ele></trkpt>
      <trkpt lat="45.884725" lon="10.831019"><ele>499.1</ele></trkpt>
      <trkpt lat="45.885014" lon="10.830940"><ele>515.3</ele></trkpt>
      <trkpt lat="45.884788" lon="10.830789"><ele>531.6</ele></trkpt>
      <trkpt lat="45.884614" lon="10.830529"><ele>544.5</ele></trkpt>
      <trkpt lat="45.884866" lon="10.830495"><ele>554.3</ele></trkpt>
      <trkpt lat="45.885150" lon="10.830443"><ele>560.8</ele></trkpt>
      <trkpt lat="45.884889" lon="10.830269"><ele>564.0</ele></trkpt>
      <trkpt lat="45.884686" lon="10.830117"><ele>564.0</ele></trkpt>
      <trkpt lat="45.884465" lon="10.830282"><ele>564.1</ele></trkpt>
      <trkpt lat="45.884186" lon="10.830275"><ele>564.3</ele></trkpt>
      <trkpt lat="45.883959" lon="10.830148"><ele>564.5</ele></trkpt>
      <trkpt lat="45.883716" lon="10.829911"><ele>564.9</ele></trkpt>
      <trkpt lat="45.883647" lon="10.829528"><ele>565.3</ele></trkpt>
      <trkpt lat="45.883358" lon="10.829485"><ele>565.8</ele></trkpt>
      <trkpt lat="45.883099" lon="10.829329"><ele>566.2</ele></trkpt>
      <trkpt lat="45.882856" lon="10.829270"><ele>566.7</ele></trkpt>
      <trkpt lat="45.882543" lon="10.829407"><ele>567.1</ele></trkpt>
      <trkpt lat="45.882300" lon="10.829438"><ele>567.5</ele></trkpt>
      <trkpt lat="45.882114" lon="10.829739"><ele>569.4</ele></trkpt>
      <trkpt lat="45.881833" lon="10.829858"><ele>572.8</ele></trkpt>
      <trkpt lat="45.881521" lon="10.829980"><ele>577.9</ele></trkpt>
      <trkpt lat="45.881484" lon="10.830368"><ele>584.4</ele></trkpt>
      <trkpt lat="45.881278" lon="10.830210"><ele>592.7</ele></trkpt>
      <trkpt lat="45.881286" lon="10.830559"><ele>600.9</ele></trkpt>
      <trkpt lat="45.881133" lon="10.830872"><ele>609.1</ele></trkpt>
      <trkpt lat="45.880865" lon="10.831015"><ele>617.3</ele></trkpt>
      <trkpt lat="45.880608" lon="10.830997"><ele>625.6</ele></trkpt>
      <trkpt lat="45.880361" lon="10.831106"><ele>632.1</ele></trkpt>
      <trkpt lat="45.880083" lon="10.830926"><ele>637.1</ele></trkpt>
      <trkpt lat="45.879872" lon="10.830779"><ele>640.4</ele></trkpt>
      <trkpt lat="45.879650" lon="10.830698"><ele>642.0</ele></trkpt>
      <trkpt lat="45.879472" lon="10.830411"><ele>642.0</ele></trkpt>
      <trkpt lat="45.879707" lon="10.830305"><ele>646.1</ele></trkpt>
      <trkpt lat="45.879959" lon="10.830310"><ele>654.3</ele></trkpt>
      <trkpt lat="45.880177" lon="10.830220"><ele>666.7</ele></trkpt>
      <trkpt lat="45.880170" lon="10.829863"><ele>683.1</ele></trkpt>
      <trkpt lat="45.880208" lon="10.829534"><ele>703.7</ele></trkpt>
      <trkpt lat="45.880308" lon="10.829188"><ele>724.2</ele></trkpt>
      <trkpt lat="45.880511" lon="10.829011"><ele>744.8</ele></trkpt>
      <trkpt lat="45.880342" lon="10.828744"><ele>765.1</ele></trkpt>
      <trkpt lat="45.880121" lon="10.828811"><ele>785.4</ele></trkpt>
      <trkpt lat="45.879897" lon="10.829027"><ele>801.5</ele></trkpt>
      <trkpt lat="45.879681" lon="10.828904"><ele>813.6</ele></trkpt>
      <trkpt lat="45.879513" lon="10.828677"><ele>821.6</ele></trkpt>
      <trkpt lat="45.879241" lon="10.828597"><ele>825.7</ele></trkpt>
      <trkpt lat="45.879059" lon="10.828217"><ele>825.7</ele></trkpt>
      <trkpt lat="45.879293" lon="10.828322"><ele>825.7</ele></trkpt>
      <trkpt lat="45.879517" lon="10.828343"><ele>829.8</ele></trkpt>
      <trkpt lat="45.879723" lon="10.828158"><ele>838.2</ele></trkpt>
      <trkpt lat="45.879430" lon="10.827821"><ele>850.7</ele></trkpt>
      <trkpt lat="45.879658" lon="10.827771"><ele>867.4</ele></trkpt>
      <trkpt lat="45.879450" lon="10.827613"><ele>888.1</ele></trkpt>
      <trkpt lat="45.879581" lon="10.827305"><ele>908.8</ele></trkpt>
      <trkpt lat="45.879745" lon="10.827042"><ele>929.2</ele></trkpt>
      <trkpt lat="45.880037" lon="10.826918"><ele>949.7</ele></trkpt>
      <trkpt lat="45.879733" lon="10.826775"><ele>970.1</ele></trkpt>
      <trkpt lat="45.880005" lon="10.826730"><ele>986.5</ele></trkpt>
      <trkpt lat="45.880244" lon="10.826517"><ele>997.4</ele></trkpt>
      <trkpt lat="45.880363" lon="10.826221"><ele>1002.8</ele></trkpt>
      <trkpt lat="45.880572" lon="10.825980"><ele>1002.9</ele></trkpt>
      <trkpt lat="45.880752" lon="10.825700"><ele>1002.7</ele></trkpt>
      <trkpt lat="45.880952" lon="10.825548"><ele>1006.4</ele></trkpt>
      <trkpt lat="45.881220" lon="10.825632"><ele>1015.4</ele></trkpt>
      <trkpt lat="45.881488" lon="10.825642"><ele>1029.6</ele></trkpt>
      <trkpt lat="45.881407" lon="10.825293"><ele>1048.7</ele></trkpt>
      <trkpt lat="45.881619" lon="10.825138"><ele>1067.8</ele></trkpt>
      <trkpt lat="45.881821" lon="10.824926"><ele>1088.3</ele></trkpt>
      <trkpt lat="45.881793" lon="10.824604"><ele>1110.2</ele></trkpt>
      <trkpt lat="45.881546" lon="10.824572"><ele>1133.4</ele></trkpt>
      <trkpt lat="45.881315" lon="10.824640"><ele>1153.0</ele></trkpt>
      <trkpt lat="45.881159" lon="10.824366"><ele>1168.7</ele></trkpt>
      <trkpt lat="45.881314" lon="10.824125"><ele>1181.2</ele></trkpt>
      <trkpt lat="45.881588" lon="10.824157"><ele>1190.4</ele></trkpt>
      <trkpt lat="45.881447" lon="10.823802"><ele>1196.6</ele></trkpt>
      <trkpt lat="45.881492" lon="10.823482"><ele>1204.8</ele></trkpt>
      <trkpt lat="45.881538" lon="10.823165"><ele>1215.0</ele></trkpt>
      <trkpt lat="45.881760" lon="10.822941"><ele>1225.2</ele></trkpt>
      <trkpt lat="45.881860" lon="10.822601"><ele>1235.4</ele></trkpt>
      <trkpt lat="45.882078" lon="10.822692"><ele>1245.3</ele></trkpt>
      <trkpt lat="45.882323" lon="10.822605"><ele>1254.0</ele></trkpt>
      <trkpt lat="45.882581" lon="10.822595"><ele>1259.5</ele></trkpt>
      <trkpt lat="45.882588" lon="10.822221"><ele>1261.7</ele></trkpt>
      <trkpt lat="45.882773" lon="10.821962"><ele>1260.8</ele></trkpt>
      <trkpt lat="45.882940" lon="10.821730"><ele>1256.7</ele></trkpt>
      <trkpt lat="45.883228" lon="10.821447"><ele>1254.2</ele></trkpt>
      <trkpt lat="45.883495" lon="10.821408"><ele>1255.4</ele></trkpt>
      <trkpt lat="45.883811" lon="10.821350"><ele>1260.2</ele></trkpt>
      <trkpt lat="45.884159" lon="10.821353"><ele>1268.7</ele></trkpt>
      <trkpt lat="45.884374" lon="10.821207"><ele>1282.0</ele></trkpt>
      <trkpt lat="45.884601" lon="10.821050"><ele>1296.6</ele></trkpt>
      <trkpt lat="45.884717" lon="10.820766"><ele>1312.3</ele></trkpt>
      <trkpt lat="45.884894" lon="10.820543"><ele>1330.2</ele></trkpt>
      <trkpt lat="45.885099" lon="10.820167"><ele>1350.0</ele></trkpt>
      <trkpt lat="45.885186" lon="10.819656"><ele>1367.0</ele></trkpt>
      <trkpt lat="45.884899" lon="10.819767"><ele>1381.2</ele></trkpt>
      <trkpt lat="45.884839" lon="10.819404"><ele>1392.4</ele></trkpt>
      <trkpt lat="45.884881" lon="10.819028"><ele>1400.0</ele></trkpt>
      <trkpt lat="45.884910" lon="10.818685"><ele>1403.9</ele></trkpt>
      <trkpt lat="45.885194" lon="10.818319"><ele>1407.8</ele></trkpt>
      <trkpt lat="45.885483" lon="10.818129"><ele>1411.7</ele></trkpt>
      <trkpt lat="45.885748" lon="10.818197"><ele>1415.7</ele></trkpt>
      <trkpt lat="45.885987" lon="10.818161"><ele>1419.8</ele></trkpt>
      <trkpt lat="45.886058" lon="10.817834"><ele>1424.0</ele></trkpt>
      <trkpt lat="45.886291" lon="10.817462"><ele>1428.5</ele></trkpt>
      <trkpt lat="45.886384" lon="10.817129"><ele>1433.0</ele></trkpt>
      <trkpt lat="45.886369" lon="10.816705"><ele>1437.2</ele></trkpt>
      <trkpt lat="45.886487" lon="10.816399"><ele>1441.1</ele></trkpt>
      <trkpt lat="45.886403" lon="10.816059"><ele>1444.5</ele></trkpt>
      <trkpt lat="45.886392" lon="10.815673"><ele>1447.4</ele></trkpt>
      <trkpt lat="45.886601" lon="10.815144"><ele>1449.1</ele></trkpt>
      <trkpt lat="45.886562" lon="10.814734"><ele>1449.8</ele></trkpt>
      <trkpt lat="45.886392" lon="10.814471"><ele>1449.5</ele></trkpt>
      <trkpt lat="45.886381" lon="10.814020"><ele>1447.2</ele></trkpt>
      <trkpt lat="45.886291" lon="10.813631"><ele>1443.0</ele></trkpt>
      <trkpt lat="45.886319" lon="10.813277"><ele>1438.0</ele></trkpt>
      <trkpt lat="45.886078" lon="10.813210"><ele>1432.4</ele></trkpt>
      <trkpt lat="45.885927" lon="10.812902"><ele>1428.1</ele></trkpt>
      <trkpt lat="45.885774" lon="10.812620"><ele>1426.7</ele></trkpt>
      <trkpt lat="45.885617" lon="10.812167"><ele>1428.2</ele></trkpt>
      <trkpt lat="45.885688" lon="10.811775"><ele>1432.1</ele></trkpt>
      <trkpt lat="45.885623" lon="10.811421"><ele>1438.6</ele></trkpt>
      <trkpt lat="45.885610" lon="10.810960"><ele>1447.2</ele></trkpt>
      <trkpt lat="45.885290" lon="10.810826"><ele>1457.7</ele></trkpt>
      <trkpt lat="45.885016" lon="10.810316"><ele>1469.9</ele></trkpt>
      <trkpt lat="45.885031" lon="10.809646"><ele>1483.9</ele></trkpt>
      <trkpt lat="45.884909" lon="10.809139"><ele>1497.7</ele></trkpt>
      <trkpt lat="45.884926" lon="10.808728"><ele>1508.4</ele></trkpt>
      <trkpt lat="45.884820" lon="10.808176"><ele>1515.2</ele></trkpt>
      <trkpt lat="45.884960" lon="10.807908"><ele>1517.8</ele></trkpt>
      <trkpt lat="45.885029" lon="10.807462"><ele>1516.4</ele></trkpt>
      <trkpt lat="45.885163" lon="10.807030"><ele>1512.2</ele></trkpt>
      <trkpt lat="45.885247" lon="10.806524"><ele>1506.3</ele></trkpt>
      <trkpt lat="45.885357" lon="10.806234"><ele>1499.6</ele></trkpt>
      <trkpt lat="45.885554" lon="10.806076"><ele>1492.3</ele></trkpt>
      <trkpt lat="45.885621" lon="10.805751"><ele>1484.3</ele></trkpt>
      <trkpt lat="45.885822" lon="10.805354"><ele>1474.8</ele></trkpt>
      <trkpt lat="45.886056" lon="10.805129"><ele>1465.1</ele></trkpt>
      <trkpt lat="45.886435" lon="10.804871"><ele>1455.5</ele></trkpt>
      <trkpt lat="45.886737" lon="10.804861"><ele>1445.8</ele></trkpt>
      <trkpt lat="45.887008" lon="10.804826"><ele>1436.0</ele></trkpt>
      <trkpt lat="45.887364" lon="10.804595"><ele>1427.8</ele></trkpt>
      <trkpt lat="45.887807" lon="10.804351"><ele>1420.4</ele></trkpt>
      <trkpt lat="45.888018" lon="10.804150"><ele>1413.9</ele></trkpt>
      <trkpt lat="45.888001" lon="10.803814"><ele>1408.2</ele></trkpt>
      <trkpt lat="45.888128" lon="10.803348"><ele>1405.4</ele></trkpt>
      <trkpt lat="45.888162" lon="10.802814"><ele>1405.2</ele></trkpt>
      <trkpt lat="45.888327" lon="10.802274"><ele>1406.6</ele></trkpt>
      <trkpt lat="45.888399" lon="10.801965"><ele>1411.6</ele></trkpt>
      <trkpt lat="45.888541" lon="10.801475"><ele>1420.2</ele></trkpt>
      <trkpt lat="45.888770" lon="10.801215"><ele>1430.3</ele></trkpt>
      <trkpt lat="45.889190" lon="10.800714"><ele>1441.5</ele></trkpt>
      <trkpt lat="45.889398" lon="10.800448"><ele>1453.8</ele></trkpt>
      <trkpt lat="45.889580" lon="10.800239"><ele>1465.3</ele></trkpt>
      <trkpt lat="45.889828" lon="10.799903"><ele>1475.9</ele></trkpt>
      <trkpt lat="45.890023" lon="10.799532"><ele>1486.1</ele></trkpt>
      <trkpt lat="45.890251" lon="10.799351"><ele>1496.8</ele></trkpt>
      <trkpt lat="45.890484" lon="10.799252"><ele>1505.9</ele></trkpt>
      <trkpt lat="45.890740" lon="10.798887"><ele>1513.6</ele></trkpt>
      <trkpt lat="45.890813" lon="10.798520"><ele>1519.0</ele></trkpt>
      <trkpt lat="45.891080" lon="10.798273"><ele>1521.7</ele></trkpt>
      <trkpt lat="45.891102" lon="10.797844"><ele>1521.7</ele></trkpt>
      <trkpt lat="45.891326" lon="10.797491"><ele>1521.0</ele></trkpt>
      <trkpt lat="45.891367" lon="10.797102"><ele>1521.3</ele></trkpt>
      <trkpt lat="45.891569" lon="10.796799"><ele>1522.9</ele></trkpt>
      <trkpt lat="45.891690" lon="10.796461"><ele>1525.9</ele></trkpt>
      <trkpt lat="45.891842" lon="10.796205"><ele>1530.1</ele></trkpt>
      <trkpt lat="45.892102" lon="10.796057"><ele>1536.5</ele></trkpt>
      <trkpt lat="45.892418" lon="10.795998"><ele>1544.0</ele></trkpt>
      <trkpt lat="45.892761" lon="10.795469"><ele>1553.2</ele></trkpt>
      <trkpt lat="45.892732" lon="10.794844"><ele>1563.8</ele></trkpt>
      <trkpt lat="45.892881" lon="10.794576"><ele>1577.0</ele></trkpt>
      <trkpt lat="45.892988" lon="10.794212"><ele>1590.1</ele></trkpt>
      <trkpt lat="45.893083" lon="10.793563"><ele>1602.3</ele></trkpt>
      <trkpt lat="45.893095" lon="10.793080"><ele>1613.7</ele></trkpt>
      <trkpt lat="45.893080" lon="10.792658"><ele>1624.2</ele></trkpt>
      <trkpt lat="45.893158" lon="10.792111"><ele>1630.1</ele></trkpt>
      <trkpt lat="45.893124" lon="10.791628"><ele>1633.0</ele></trkpt>
      <trkpt lat="45.893281" lon="10.791327"><ele>1634.2</ele></trkpt>
      <trkpt lat="45.893547" lon="10.791016"><ele>1633.7</ele></trkpt>
      <trkpt lat="45.893540" lon="10.790668"><ele>1630.7</ele></trkpt>
      <trkpt lat="45.893619" lon="10.790339"><ele>1627.9</ele></trkpt>
      <trkpt lat="45.893873" lon="10.790088"><ele>1625.5</ele></trkpt>
      <trkpt lat="45.894141" lon="10.789832"><ele>1622.2</ele></trkpt>
      <trkpt lat="45.894245" lon="10.789516"><ele>1619.7</ele></trkpt>
      <trkpt lat="45.894321" lon="10.789163"><ele>1621.1</ele></trkpt>
      <trkpt lat="45.894413" lon="10.788863"><ele>1625.4</ele></trkpt>
      <trkpt lat="45.894616" lon="10.788185"><ele>1631.4</ele></trkpt>
      <trkpt lat="45.894843" lon="10.787885"><ele>1639.2</ele></trkpt>
      <trkpt lat="45.895149" lon="10.787681"><ele>1647.0</ele></trkpt>
      <trkpt lat="45.895409" lon="10.787413"><ele>1652.7</ele></trkpt>
      <trkpt lat="45.895620" lon="10.787264"><ele>1657.1</ele></trkpt>
      <trkpt lat="45.895859" lon="10.787116"><ele>1661.6</ele></trkpt>
      <trkpt lat="45.896145" lon="10.786946"><ele>1663.4</ele></trkpt>
      <trkpt lat="45.896422" lon="10.786864"><ele>1662.6</ele></trkpt>
      <trkpt lat="45.896744" lon="10.786627"><ele>1660.0</ele></trkpt>
      <trkpt lat="45.896933" lon="10.786361"><ele>1655.6</ele></trkpt>
      <trkpt lat="45.897182" lon="10.786194"><ele>1650.2</ele></trkpt>
      <trkpt lat="45.897819" lon="10.785715"><ele>1646.4</ele></trkpt>
      <trkpt lat="45.898084" lon="10.785597"><ele>1644.2</ele></trkpt>
      <trkpt lat="45.898341" lon="10.785639"><ele>1643.0</ele></trkpt>
      <trkpt lat="45.898623" lon="10.785482"><ele>1642.8</ele></trkpt>
      <trkpt lat="45.899280" lon="10.785420"><ele>1643.6</ele></trkpt>
      <trkpt lat="45.899532" lon="10.785243"><ele>1645.4</ele></trkpt>
      <trkpt lat="45.899816" lon="10.785090"><ele>1648.2</ele></trkpt>
      <trkpt lat="45.900122" lon="10.785004"><ele>1651.9</ele></trkpt>
      <trkpt lat="45.900354" lon="10.785015"><ele>1656.8</ele></trkpt>
      <trkpt lat="45.900658" lon="10.785004"><ele>1662.1</ele></trkpt>
      <trkpt lat="45.900914" lon="10.784861"><ele>1667.6</ele></trkpt>
      <trkpt lat="45.900886" lon="10.784486"><ele>1673.3</ele></trkpt>
      <trkpt lat="45.900831" lon="10.784082"><ele>1679.1</ele></trkpt>
      <trkpt lat="45.900814" lon="10.783757"><ele>1684.8</ele></trkpt>
      <trkpt lat="45.900902" lon="10.783324"><ele>1690.2</ele></trkpt>
      <trkpt lat="45.901018" lon="10.783011"><ele>1693.7</ele></trkpt>
      <trkpt lat="45.901118" lon="10.782701"><ele>1697.4</ele></trkpt>
      <trkpt lat="45.901328" lon="10.782322"><ele>1700.2</ele></trkpt>
      <trkpt lat="45.901471" lon="10.782002"><ele>1702.2</ele></trkpt>
      <trkpt lat="45.901752" lon="10.781820"><ele>1703.4</ele></trkpt>
      <trkpt lat="45.901969" lon="10.781574"><ele>1705.7</ele></trkpt>
      <trkpt lat="45.902162" lon="10.781274"><ele>1706.9</ele></trkpt>
      <trkpt lat="45.902431" lon="10.781232"><ele>1708.1</ele></trkpt>
      <trkpt lat="45.902719" lon="10.780865"><ele>1709.3</ele></trkpt>
      <trkpt lat="45.902864" lon="10.780500"><ele>1712.6</ele></trkpt>
      <trkpt lat="45.902983" lon="10.780191"><ele>1714.8</ele></trkpt>
      <trkpt lat="45.903208" lon="10.780226"><ele>1715.9</ele></trkpt>
      <trkpt lat="45.903603" lon="10.780362"><ele>1716.6</ele></trkpt>
      <trkpt lat="45.903770" lon="10.780072"><ele>1716.9</ele></trkpt>
      <trkpt lat="45.903904" lon="10.779676"><ele>1714.7</ele></trkpt>
      <trkpt lat="45.904116" lon="10.779534"><ele>1713.0</ele></trkpt>
      <trkpt lat="45.904585" lon="10.779340"><ele>1711.9</ele></trkpt>
      <trkpt lat="45.904886" lon="10.779215"><ele>1713.4</ele></trkpt>
      <trkpt lat="45.905104" lon="10.779071"><ele>1717.3</ele></trkpt>
      <trkpt lat="45.905131" lon="10.778745"><ele>1724.5</ele></trkpt>
      <trkpt lat="45.905049" lon="10.778380"><ele>1734.8</ele></trkpt>
      <trkpt lat="45.904822" lon="10.778117"><ele>1747.9</ele></trkpt>
      <trkpt lat="45.904398" lon="10.777634"><ele>1761.2</ele></trkpt>
      <trkpt lat="45.904082" lon="10.777203"><ele>1774.9</ele></trkpt>
      <trkpt lat="45.903896" lon="10.776727"><ele>1785.9</ele></trkpt>
      <trkpt lat="45.903839" lon="10.776318"><ele>1794.0</ele></trkpt>
      <trkpt lat="45.903886" lon="10.775588"><ele>1799.3</ele></trkpt>
      <trkpt lat="45.903886" lon="10.775142"><ele>1801.8</ele></trkpt>
      <trkpt lat="45.903977" lon="10.774569"><ele>1801.5</ele></trkpt>
      <trkpt lat="45.904104" lon="10.773782"><ele>1800.7</ele></trkpt>
      <trkpt lat="45.904292" lon="10.773371"><ele>1799.6</ele></trkpt>
      <trkpt lat="45.904536" lon="10.773060"><ele>1798.2</ele></trkpt>
      <trkpt lat="45.904743" lon="10.772859"><ele>1796.4</ele></trkpt>
      <trkpt lat="45.905147" lon="10.772555"><ele>1796.6</ele></trkpt>
      <trkpt lat="45.905376" lon="10.772603"><ele>1798.9</ele></trkpt>
      <trkpt lat="45.905687" lon="10.772721"><ele>1801.2</ele></trkpt>
      <trkpt lat="45.906050" lon="10.772637"><ele>1801.2</ele></trkpt>
      <trkpt lat="45.906364" lon="10.772549"><ele>1799.0</ele></trkpt>
      <trkpt lat="45.906652" lon="10.772582"><ele>1792.1</ele></trkpt>
      <trkpt lat="45.906915" lon="10.772660"><ele>1780.9</ele></trkpt>
      <trkpt lat="45.907215" lon="10.772734"><ele>1768.6</ele></trkpt>
      <trkpt lat="45.907442" lon="10.772859"><ele>1756.8</ele></trkpt>
      <trkpt lat="45.907679" lon="10.773016"><ele>1745.5</ele></trkpt>
      <trkpt lat="45.907915" lon="10.772996"><ele>1735.8</ele></trkpt>
      <trkpt lat="45.908169" lon="10.772944"><ele>1727.4</ele></trkpt>
      <trkpt lat="45.908511" lon="10.772949"><ele>1721.6</ele></trkpt>
      <trkpt lat="45.908842" lon="10.772856"><ele>1719.6</ele></trkpt>
      <trkpt lat="45.909122" lon="10.772990"><ele>1720.6</ele></trkpt>
      <trkpt lat="45.909375" lon="10.772946"><ele>1723.1</ele></trkpt>
      <trkpt lat="45.909669" lon="10.772595"><ele>1726.1</ele></trkpt>
      <trkpt lat="45.909658" lon="10.772257"><ele>1728.1</ele></trkpt>
      <trkpt lat="45.909808" lon="10.771647"><ele>1729.0</ele></trkpt>
      <trkpt lat="45.909819" lon="10.771046"><ele>1729.1</ele></trkpt>
      <trkpt lat="45.909682" lon="10.770679"><ele>1728.8</ele></trkpt>
      <trkpt lat="45.909522" lon="10.770181"><ele>1729.1</ele></trkpt>
      <trkpt lat="45.909547" lon="10.769678"><ele>1729.0</ele></trkpt>
      <trkpt lat="45.909494" lon="10.769362"><ele>1729.2</ele></trkpt>
      <trkpt lat="45.909492" lon="10.769020"><ele>1728.7</ele></trkpt>
      <trkpt lat="45.909560" lon="10.768545"><ele>1728.9</ele></trkpt>
      <trkpt lat="45.909649" lon="10.768149"><ele>1729.7</ele></trkpt>
      <trkpt lat="45.909766" lon="10.767808"><ele>1731.3</ele></trkpt>
      <trkpt lat="45.909951" lon="10.767364"><ele>1732.1</ele></trkpt>
      <trkpt lat="45.910201" lon="10.767051"><ele>1733.7</ele></trkpt>
      <trkpt lat="45.910453" lon="10.766863"><ele>1734.7</ele></trkpt>
      <trkpt lat="45.910750" lon="10.766521"><ele>1733.6</ele></trkpt>
      <trkpt lat="45.910876" lon="10.766224"><ele>1730.5</ele></trkpt>
      <trkpt lat="45.911109" lon="10.765821"><ele>1727.4</ele></trkpt>
      <trkpt lat="45.911351" lon="10.765799"><ele>1723.0</ele></trkpt>
      <trkpt lat="45.911449" lon="10.766156"><ele>1717.3</ele></trkpt>
      <trkpt lat="45.911527" lon="10.766611"><ele>1711.6</ele></trkpt>
      <trkpt lat="45.911526" lon="10.767013"><ele>1706.0</ele></trkpt>
      <trkpt lat="45.911703" lon="10.767273"><ele>1699.0</ele></trkpt>
      <trkpt lat="45.911930" lon="10.767298"><ele>1692.0</ele></trkpt>
      <trkpt lat="45.912143" lon="10.767450"><ele>1686.4</ele></trkpt>
      <trkpt lat="45.912380" lon="10.767504"><ele>1682.2</ele></trkpt>
      <trkpt lat="45.912605" lon="10.767519"><ele>1679.4</ele></trkpt>
      <trkpt lat="45.912866" lon="10.767472"><ele>1678.0</ele></trkpt>
      <trkpt lat="45.913127" lon="10.767437"><ele>1679.1</ele></trkpt>
      <trkpt lat="45.913418" lon="10.767463"><ele>1681.4</ele></trkpt>
      <trkpt lat="45.913660" lon="10.767544"><ele>1684.8</ele></trkpt>
      <trkpt lat="45.913904" lon="10.767608"><ele>1689.3</ele></trkpt>
      <trkpt lat="45.914194" lon="10.767665"><ele>1695.0</ele></trkpt>
      <trkpt lat="45.914384" lon="10.767854"><ele>1700.7</ele></trkpt>
      <trkpt lat="45.914643" lon="10.768064"><ele>1706.3</ele></trkpt>
      <trkpt lat="45.914808" lon="10.768333"><ele>1709.8</ele></trkpt>
      <trkpt lat="45.915033" lon="10.768294"><ele>1712.2</ele></trkpt>
      <trkpt lat="45.915480" lon="10.768293"><ele>1712.3</ele></trkpt>
      <trkpt lat="45.915765" lon="10.768189"><ele>1710.3</ele></trkpt>
      <trkpt lat="45.916009" lon="10.768353"><ele>1706.0</ele></trkpt>
      <trkpt lat="45.916195" lon="10.768711"><ele>1701.7</ele></trkpt>
      <trkpt lat="45.916497" lon="10.768808"><ele>1696.2</ele></trkpt>
      <trkpt lat="45.916749" lon="10.768947"><ele>1690.8</ele></trkpt>
      <trkpt lat="45.916996" lon="10.769122"><ele>1685.3</ele></trkpt>
      <trkpt lat="45.917205" lon="10.769409"><ele>1682.1</ele></trkpt>
      <trkpt lat="45.917482" lon="10.769406"><ele>1679.9</ele></trkpt>
      <trkpt lat="45.917659" lon="10.769619"><ele>1679.0</ele></trkpt>
      <trkpt lat="45.917781" lon="10.769971"><ele>1679.4</ele></trkpt>
      <trkpt lat="45.917924" lon="10.770270"><ele>1679.2</ele></trkpt>
      <trkpt lat="45.918159" lon="10.770147"><ele>1676.2</ele></trkpt>
      <trkpt lat="45.918411" lon="10.770203"><ele>1671.5</ele></trkpt>
      <trkpt lat="45.918649" lon="10.770341"><ele>1666.8</ele></trkpt>
      <trkpt lat="45.918805" lon="10.770593"><ele>1662.0</ele></trkpt>
      <trkpt lat="45.918979" lon="10.770821"><ele>1659.2</ele></trkpt>
      <trkpt lat="45.919125" lon="10.771128"><ele>1658.2</ele></trkpt>
      <trkpt lat="45.919439" lon="10.771241"><ele>1658.9</ele></trkpt>
      <trkpt lat="45.919555" lon="10.770942"><ele>1658.1</ele></trkpt>
      <trkpt lat="45.919762" lon="10.770604"><ele>1657.7</ele></trkpt>
      <trkpt lat="45.920014" lon="10.770374"><ele>1657.6</ele></trkpt>
      <trkpt lat="45.920111" lon="10.770019"><ele>1657.9</ele></trkpt>
      <trkpt lat="45.920311" lon="10.769846"><ele>1656.8</ele></trkpt>
      <trkpt lat="45.920713" lon="10.769906"><ele>1655.7</ele></trkpt>
      <trkpt lat="45.921101" lon="10.769571"><ele>1652.8</ele></trkpt>
      <trkpt lat="45.921374" lon="10.769737"><ele>1648.0</ele></trkpt>
      <trkpt lat="45.921695" lon="10.769894"><ele>1639.9</ele></trkpt>
      <trkpt lat="45.921940" lon="10.769669"><ele>1631.7</ele></trkpt>
      <trkpt lat="45.922194" lon="10.769584"><ele>1623.3</ele></trkpt>
      <trkpt lat="45.922408" lon="10.769258"><ele>1614.9</ele></trkpt>
      <trkpt lat="45.922692" lon="10.769265"><ele>1606.3</ele></trkpt>
      <trkpt lat="45.922827" lon="10.768979"><ele>1599.1</ele></trkpt>
      <trkpt lat="45.923136" lon="10.768915"><ele>1591.9</ele></trkpt>
      <trkpt lat="45.923393" lon="10.768983"><ele>1587.6</ele></trkpt>
      <trkpt lat="45.923592" lon="10.768802"><ele>1583.4</ele></trkpt>
      <trkpt lat="45.923877" lon="10.768842"><ele>1580.9</ele></trkpt>
      <trkpt lat="45.924102" lon="10.768868"><ele>1579.9</ele></trkpt>
      <trkpt lat="45.924390" lon="10.768985"><ele>1580.6</ele></trkpt>
      <trkpt lat="45.924653" lon="10.768758"><ele>1579.9</ele></trkpt>
      <trkpt lat="45.924933" lon="10.768706"><ele>1580.7</ele></trkpt>
      <trkpt lat="45.925252" lon="10.768847"><ele>1581.4</ele></trkpt>
      <trkpt lat="45.925517" lon="10.769045"><ele>1582.2</ele></trkpt>
      <trkpt lat="45.925725" lon="10.769189"><ele>1580.1</ele></trkpt>
      <trkpt lat="45.926038" lon="10.769129"><ele>1578.8</ele></trkpt>
      <trkpt lat="45.926191" lon="10.768881"><ele>1576.9</ele></trkpt>
      <trkpt lat="45.926417" lon="10.768828"><ele>1574.1</ele></trkpt>
      <trkpt lat="45.926654" lon="10.768772"><ele>1570.0</ele></trkpt>
    </trkseg>
  </trk>
</gpx>
