<?xml version="1.0" encoding="UTF-8"?>
<gpx version="1.1" creator="TrailShare content prep" xmlns="http://www.topografix.com/GPX/1/1">
  <metadata>
    <name>Garda Brenta Tappa 4: Stenico → Rifugio Al Cacciatore</name>
    <desc>Itinerario Garda Brenta (SAT, ref GB), tappa 4/7. Geometria: OpenStreetMap contributors (ODbL). Elevazione: Open-Elevation (SRTM), serie smussata e calibrata.</desc>
  </metadata>
  <trk>
    <name>Garda Brenta Tappa 4: Stenico → Rifugio Al Cacciatore</name>
    <trkseg>
      <trkpt lat="46.052560" lon="10.853699"><ele>668.0</ele></trkpt>
      <trkpt lat="46.052325" lon="10.853980"><ele>670.6</ele></trkpt>
      <trkpt lat="46.052560" lon="10.853699"><ele>673.4</ele></trkpt>
      <trkpt lat="46.052960" lon="10.853584"><ele>676.4</ele></trkpt>
      <trkpt lat="46.052974" lon="10.854010"><ele>678.7</ele></trkpt>
      <trkpt lat="46.052816" lon="10.854387"><ele>683.4</ele></trkpt>
      <trkpt lat="46.053072" lon="10.854399"><ele>687.4</ele></trkpt>
      <trkpt lat="46.053304" lon="10.854476"><ele>692.4</ele></trkpt>
      <trkpt lat="46.053583" lon="10.854547"><ele>697.7</ele></trkpt>
      <trkpt lat="46.053830" lon="10.854569"><ele>703.4</ele></trkpt>
      <trkpt lat="46.054083" lon="10.854374"><ele>708.3</ele></trkpt>
      <trkpt lat="46.054167" lon="10.853786"><ele>714.2</ele></trkpt>
      <trkpt lat="46.054156" lon="10.853309"><ele>719.4</ele></trkpt>
      <trkpt lat="46.054204" lon="10.852858"><ele>724.7</ele></trkpt>
      <trkpt lat="46.054321" lon="10.852562"><ele>728.8</ele></trkpt>
      <trkpt lat="46.054533" lon="10.852395"><ele>733.8</ele></trkpt>
      <trkpt lat="46.054638" lon="10.852723"><ele>739.0</ele></trkpt>
      <trkpt lat="46.054800" lon="10.852982"><ele>745.0</ele></trkpt>
      <trkpt lat="46.055121" lon="10.853114"><ele>751.6</ele></trkpt>
      <trkpt lat="46.055400" lon="10.852956"><ele>759.8</ele></trkpt>
      <trkpt lat="46.055703" lon="10.852915"><ele>768.0</ele></trkpt>
      <trkpt lat="46.056007" lon="10.852820"><ele>776.4</ele></trkpt>
      <trkpt lat="46.056326" lon="10.852227"><ele>784.9</ele></trkpt>
      <trkpt lat="46.056388" lon="10.851878"><ele>793.3</ele></trkpt>
      <trkpt lat="46.056344" lon="10.851475"><ele>801.8</ele></trkpt>
      <trkpt lat="46.056339" lon="10.851122"><ele>807.1</ele></trkpt>
      <trkpt lat="46.056385" lon="10.850780"><ele>809.0</ele></trkpt>
      <trkpt lat="46.056679" lon="10.850634"><ele>809.7</ele></trkpt>
      <trkpt lat="46.056967" lon="10.850271"><ele>809.3</ele></trkpt>
      <trkpt lat="46.057252" lon="10.850134"><ele>807.7</ele></trkpt>
      <trkpt lat="46.057702" lon="10.850020"><ele>808.0</ele></trkpt>
      <trkpt lat="46.057865" lon="10.849762"><ele>810.6</ele></trkpt>
      <trkpt lat="46.058103" lon="10.849494"><ele>813.1</ele></trkpt>
      <trkpt lat="46.058502" lon="10.849352"><ele>815.7</ele></trkpt>
      <trkpt lat="46.058704" lon="10.849142"><ele>819.9</ele></trkpt>
      <trkpt lat="46.058937" lon="10.849070"><ele>827.6</ele></trkpt>
      <trkpt lat="46.059321" lon="10.848968"><ele>836.4</ele></trkpt>
      <trkpt lat="46.059502" lon="10.848713"><ele>845.5</ele></trkpt>
      <trkpt lat="46.059691" lon="10.848446"><ele>854.8</ele></trkpt>
      <trkpt lat="46.059993" lon="10.848371"><ele>862.8</ele></trkpt>
      <trkpt lat="46.060248" lon="10.848163"><ele>867.7</ele></trkpt>
      <trkpt lat="46.060468" lon="10.847914"><ele>871.7</ele></trkpt>
      <trkpt lat="46.060730" lon="10.847882"><ele>875.7</ele></trkpt>
      <trkpt lat="46.060969" lon="10.848011"><ele>880.8</ele></trkpt>
      <trkpt lat="46.061230" lon="10.848038"><ele>885.3</ele></trkpt>
      <trkpt lat="46.061573" lon="10.848223"><ele>889.3</ele></trkpt>
      <trkpt lat="46.061875" lon="10.848328"><ele>893.6</ele></trkpt>
      <trkpt lat="46.062126" lon="10.848428"><ele>898.3</ele></trkpt>
      <trkpt lat="46.062330" lon="10.848657"><ele>902.1</ele></trkpt>
      <trkpt lat="46.062593" lon="10.848577"><ele>906.8</ele></trkpt>
      <trkpt lat="46.062857" lon="10.848586"><ele>912.3</ele></trkpt>
      <trkpt lat="46.062923" lon="10.848900"><ele>919.4</ele></trkpt>
      <trkpt lat="46.063303" lon="10.848904"><ele>927.0</ele></trkpt>
      <trkpt lat="46.063719" lon="10.848959"><ele>935.1</ele></trkpt>
      <trkpt lat="46.064000" lon="10.848937"><ele>943.8</ele></trkpt>
      <trkpt lat="46.064219" lon="10.848842"><ele>952.7</ele></trkpt>
      <trkpt lat="46.064495" lon="10.848705"><ele>960.2</ele></trkpt>
      <trkpt lat="46.064842" lon="10.848463"><ele>967.5</ele></trkpt>
      <trkpt lat="46.065018" lon="10.848189"><ele>974.3</ele></trkpt>
      <trkpt lat="46.064982" lon="10.847826"><ele>980.8</ele></trkpt>
      <trkpt lat="46.064723" lon="10.847875"><ele>985.7</ele></trkpt>
      <trkpt lat="46.064363" lon="10.847836"><ele>989.0</ele></trkpt>
      <trkpt lat="46.064128" lon="10.847649"><ele>991.0</ele></trkpt>
      <trkpt lat="46.063857" lon="10.847427"><ele>991.8</ele></trkpt>
      <trkpt lat="46.063570" lon="10.847446"><ele>991.3</ele></trkpt>
      <trkpt lat="46.063859" lon="10.847138"><ele>991.0</ele></trkpt>
      <trkpt lat="46.064082" lon="10.847052"><ele>991.0</ele></trkpt>
      <trkpt lat="46.064436" lon="10.846816"><ele>994.6</ele></trkpt>
      <trkpt lat="46.064863" lon="10.846687"><ele>1001.7</ele></trkpt>
      <trkpt lat="46.064791" lon="10.846311"><ele>1011.5</ele></trkpt>
      <trkpt lat="46.064540" lon="10.846075"><ele>1024.1</ele></trkpt>
      <trkpt lat="46.064296" lon="10.846141"><ele>1039.0</ele></trkpt>
      <trkpt lat="46.064076" lon="10.846061"><ele>1052.7</ele></trkpt>
      <trkpt lat="46.064256" lon="10.845797"><ele>1063.2</ele></trkpt>
      <trkpt lat="46.064546" lon="10.845464"><ele>1073.8</ele></trkpt>
      <trkpt lat="46.064757" lon="10.845298"><ele>1084.3</ele></trkpt>
      <trkpt lat="46.065043" lon="10.845324"><ele>1091.7</ele></trkpt>
      <trkpt lat="46.065279" lon="10.845464"><ele>1095.9</ele></trkpt>
      <trkpt lat="46.065413" lon="10.845813"><ele>1099.7</ele></trkpt>
      <trkpt lat="46.065705" lon="10.845889"><ele>1100.8</ele></trkpt>
      <trkpt lat="46.065998" lon="10.845662"><ele>1099.2</ele></trkpt>
      <trkpt lat="46.066290" lon="10.845590"><ele>1098.3</ele></trkpt>
      <trkpt lat="46.066493" lon="10.845421"><ele>1100.7</ele></trkpt>
      <trkpt lat="46.066215" lon="10.845252"><ele>1103.0</ele></trkpt>
      <trkpt lat="46.065996" lon="10.845035"><ele>1105.3</ele></trkpt>
      <trkpt lat="46.065769" lon="10.844891"><ele>1107.7</ele></trkpt>
      <trkpt lat="46.065683" lon="10.844579"><ele>1110.0</ele></trkpt>
      <trkpt lat="46.065638" lon="10.844230"><ele>1110.4</ele></trkpt>
      <trkpt lat="46.065522" lon="10.843934"><ele>1111.2</ele></trkpt>
      <trkpt lat="46.065893" lon="10.844128"><ele>1112.4</ele></trkpt>
      <trkpt lat="46.066096" lon="10.844308"><ele>1116.9</ele></trkpt>
      <trkpt lat="46.066415" lon="10.844360"><ele>1124.8</ele></trkpt>
      <trkpt lat="46.066665" lon="10.844159"><ele>1135.6</ele></trkpt>
      <trkpt lat="46.066925" lon="10.844074"><ele>1149.3</ele></trkpt>
      <trkpt lat="46.067204" lon="10.844037"><ele>1166.0</ele></trkpt>
      <trkpt lat="46.066981" lon="10.843849"><ele>1184.2</ele></trkpt>
      <trkpt lat="46.067275" lon="10.843538"><ele>1203.7</ele></trkpt>
      <trkpt lat="46.067671" lon="10.843381"><ele>1224.3</ele></trkpt>
      <trkpt lat="46.068094" lon="10.843224"><ele>1246.0</ele></trkpt>
      <trkpt lat="46.068416" lon="10.842894"><ele>1266.1</ele></trkpt>
      <trkpt lat="46.068692" lon="10.842792"><ele>1282.8</ele></trkpt>
      <trkpt lat="46.069034" lon="10.842701"><ele>1296.5</ele></trkpt>
      <trkpt lat="46.068827" lon="10.842387"><ele>1307.3</ele></trkpt>
      <trkpt lat="46.069094" lon="10.842115"><ele>1315.2</ele></trkpt>
      <trkpt lat="46.069450" lon="10.842061"><ele>1321.5</ele></trkpt>
      <trkpt lat="46.069715" lon="10.842162"><ele>1326.3</ele></trkpt>
      <trkpt lat="46.069898" lon="10.842544"><ele>1329.4</ele></trkpt>
      <trkpt lat="46.070090" lon="10.842961"><ele>1332.2</ele></trkpt>
      <trkpt lat="46.070319" lon="10.843176"><ele>1334.6</ele></trkpt>
      <trkpt lat="46.070307" lon="10.842701"><ele>1338.2</ele></trkpt>
      <trkpt lat="46.070199" lon="10.842410"><ele>1343.0</ele></trkpt>
      <trkpt lat="46.070504" lon="10.842560"><ele>1350.7</ele></trkpt>
      <trkpt lat="46.070727" lon="10.843016"><ele>1360.1</ele></trkpt>
      <trkpt lat="46.071165" lon="10.843028"><ele>1371.1</ele></trkpt>
      <trkpt lat="46.071392" lon="10.842723"><ele>1383.9</ele></trkpt>
      <trkpt lat="46.071511" lon="10.842194"><ele>1398.1</ele></trkpt>
      <trkpt lat="46.071811" lon="10.841835"><ele>1410.8</ele></trkpt>
      <trkpt lat="46.071919" lon="10.841470"><ele>1422.0</ele></trkpt>
      <trkpt lat="46.072053" lon="10.841186"><ele>1431.8</ele></trkpt>
      <trkpt lat="46.072350" lon="10.840896"><ele>1440.1</ele></trkpt>
      <trkpt lat="46.072734" lon="10.841183"><ele>1444.9</ele></trkpt>
      <trkpt lat="46.073037" lon="10.840987"><ele>1447.3</ele></trkpt>
      <trkpt lat="46.073465" lon="10.840732"><ele>1447.4</ele></trkpt>
      <trkpt lat="46.073744" lon="10.840585"><ele>1445.2</ele></trkpt>
      <trkpt lat="46.074061" lon="10.840917"><ele>1440.9</ele></trkpt>
      <trkpt lat="46.074269" lon="10.841398"><ele>1439.2</ele></trkpt>
      <trkpt lat="46.074258" lon="10.842057"><ele>1440.0</ele></trkpt>
      <trkpt lat="46.074182" lon="10.842548"><ele>1443.4</ele></trkpt>
      <trkpt lat="46.074234" lon="10.843023"><ele>1449.3</ele></trkpt>
      <trkpt lat="46.074435" lon="10.843173"><ele>1458.0</ele></trkpt>
      <trkpt lat="46.074784" lon="10.843125"><ele>1467.2</ele></trkpt>
      <trkpt lat="46.075160" lon="10.843165"><ele>1476.8</ele></trkpt>
      <trkpt lat="46.075527" lon="10.843223"><ele>1486.9</ele></trkpt>
      <trkpt lat="46.075828" lon="10.843340"><ele>1497.1</ele></trkpt>
      <trkpt lat="46.076077" lon="10.843618"><ele>1504.6</ele></trkpt>
      <trkpt lat="46.075975" lon="10.843975"><ele>1508.8</ele></trkpt>
      <trkpt lat="46.075671" lon="10.844365"><ele>1509.4</ele></trkpt>
      <trkpt lat="46.075381" lon="10.844686"><ele>1506.6</ele></trkpt>
      <trkpt lat="46.075142" lon="10.845075"><ele>1501.0</ele></trkpt>
      <trkpt lat="46.074831" lon="10.845428"><ele>1494.6</ele></trkpt>
      <trkpt lat="46.074595" lon="10.845695"><ele>1489.6</ele></trkpt>
      <trkpt lat="46.074343" lon="10.845872"><ele>1485.8</ele></trkpt>
      <trkpt lat="46.074278" lon="10.846249"><ele>1483.5</ele></trkpt>
      <trkpt lat="46.074230" lon="10.846566"><ele>1484.6</ele></trkpt>
      <trkpt lat="46.074286" lon="10.847014"><ele>1489.8</ele></trkpt>
      <trkpt lat="46.074394" lon="10.847320"><ele>1497.9</ele></trkpt>
      <trkpt lat="46.074752" lon="10.848403"><ele>1509.1</ele></trkpt>
      <trkpt lat="46.074931" lon="10.848910"><ele>1523.0</ele></trkpt>
      <trkpt lat="46.074994" lon="10.849713"><ele>1537.7</ele></trkpt>
      <trkpt lat="46.074917" lon="10.850085"><ele>1551.3</ele></trkpt>
      <trkpt lat="46.074661" lon="10.850254"><ele>1563.8</ele></trkpt>
      <trkpt lat="46.074403" lon="10.850297"><ele>1575.3</ele></trkpt>
      <trkpt lat="46.074172" lon="10.850490"><ele>1585.6</ele></trkpt>
      <trkpt lat="46.073935" lon="10.850626"><ele>1593.4</ele></trkpt>
      <trkpt lat="46.073664" lon="10.850662"><ele>1599.6</ele></trkpt>
      <trkpt lat="46.073473" lon="10.851083"><ele>1604.2</ele></trkpt>
      <trkpt lat="46.073423" lon="10.851443"><ele>1607.3</ele></trkpt>
      <trkpt lat="46.073140" lon="10.851864"><ele>1608.9</ele></trkpt>
      <trkpt lat="46.072935" lon="10.852287"><ele>1610.4</ele></trkpt>
      <trkpt lat="46.072788" lon="10.852577"><ele>1614.0</ele></trkpt>
      <trkpt lat="46.072401" lon="10.852741"><ele>1619.6</ele></trkpt>
      <trkpt lat="46.072045" lon="10.852937"><ele>1625.3</ele></trkpt>
      <trkpt lat="46.071738" lon="10.853390"><ele>1632.7</ele></trkpt>
      <trkpt lat="46.071586" lon="10.853712"><ele>1641.8</ele></trkpt>
      <trkpt lat="46.071494" lon="10.854017"><ele>1651.8</ele></trkpt>
      <trkpt lat="46.071467" lon="10.854382"><ele>1662.7</ele></trkpt>
      <trkpt lat="46.071387" lon="10.854793"><ele>1676.5</ele></trkpt>
      <trkpt lat="46.071841" lon="10.854421"><ele>1691.4</ele></trkpt>
      <trkpt lat="46.071952" lon="10.854914"><ele>1705.7</ele></trkpt>
      <trkpt lat="46.071916" lon="10.855256"><ele>1717.9</ele></trkpt>
      <trkpt lat="46.071391" lon="10.856371"><ele>1728.1</ele></trkpt>
      <trkpt lat="46.071275" lon="10.856688"><ele>1736.3</ele></trkpt>
      <trkpt lat="46.071148" lon="10.857104"><ele>1742.6</ele></trkpt>
      <trkpt lat="46.071189" lon="10.857456"><ele>1746.7</ele></trkpt>
      <trkpt lat="46.071582" lon="10.857432"><ele>1748.9</ele></trkpt>
      <trkpt lat="46.071869" lon="10.857537"><ele>1750.7</ele></trkpt>
      <trkpt lat="46.072164" lon="10.857692"><ele>1752.3</ele></trkpt>
      <trkpt lat="46.072434" lon="10.857978"><ele>1753.5</ele></trkpt>
      <trkpt lat="46.072593" lon="10.858246"><ele>1756.6</ele></trkpt>
      <trkpt lat="46.072788" lon="10.858770"><ele>1761.3</ele></trkpt>
      <trkpt lat="46.072869" lon="10.859138"><ele>1766.1</ele></trkpt>
      <trkpt lat="46.073100" lon="10.859537"><ele>1771.9</ele></trkpt>
      <trkpt lat="46.073343" lon="10.859603"><ele>1779.9</ele></trkpt>
      <trkpt lat="46.073699" lon="10.859537"><ele>1790.2</ele></trkpt>
      <trkpt lat="46.073976" lon="10.859253"><ele>1801.1</ele></trkpt>
      <trkpt lat="46.074330" lon="10.858774"><ele>1812.4</ele></trkpt>
      <trkpt lat="46.074529" lon="10.858514"><ele>1823.2</ele></trkpt>
      <trkpt lat="46.074800" lon="10.858250"><ele>1832.3</ele></trkpt>
      <trkpt lat="46.075037" lon="10.858122"><ele>1839.7</ele></trkpt>
      <trkpt lat="46.075233" lon="10.857944"><ele>1847.2</ele></trkpt>
      <trkpt lat="46.075494" lon="10.857798"><ele>1854.0</ele></trkpt>
      <trkpt lat="46.075740" lon="10.857893"><ele>1859.5</ele></trkpt>
      <trkpt lat="46.075980" lon="10.858031"><ele>1863.8</ele></trkpt>
      <trkpt lat="46.076197" lon="10.858129"><ele>1867.8</ele></trkpt>
      <trkpt lat="46.076425" lon="10.858280"><ele>1871.1</ele></trkpt>
      <trkpt lat="46.076697" lon="10.858387"><ele>1874.9</ele></trkpt>
      <trkpt lat="46.076929" lon="10.858576"><ele>1879.6</ele></trkpt>
      <trkpt lat="46.076746" lon="10.858866"><ele>1885.1</ele></trkpt>
      <trkpt lat="46.077011" lon="10.858860"><ele>1892.4</ele></trkpt>
      <trkpt lat="46.077256" lon="10.858933"><ele>1901.3</ele></trkpt>
      <trkpt lat="46.077495" lon="10.858982"><ele>1911.9</ele></trkpt>
      <trkpt lat="46.078267" lon="10.858873"><ele>1924.3</ele></trkpt>
      <trkpt lat="46.078565" lon="10.858802"><ele>1937.5</ele></trkpt>
      <trkpt lat="46.078797" lon="10.858773"><ele>1950.0</ele></trkpt>
      <trkpt lat="46.079231" lon="10.858633"><ele>1961.6</ele></trkpt>
      <trkpt lat="46.079518" lon="10.858644"><ele>1972.3</ele></trkpt>
      <trkpt lat="46.079799" lon="10.858550"><ele>1982.2</ele></trkpt>
      <trkpt lat="46.079940" lon="10.858264"><ele>1990.0</ele></trkpt>
      <trkpt lat="46.079986" lon="10.857773"><ele>1995.9</ele></trkpt>
      <trkpt lat="46.080253" lon="10.857738"><ele>1999.8</ele></trkpt>
      <trkpt lat="46.080504" lon="10.857989"><ele>2001.6</ele></trkpt>
      <trkpt lat="46.080676" lon="10.858241"><ele>2001.5</ele></trkpt>
      <trkpt lat="46.080739" lon="10.858561"><ele>2001.3</ele></trkpt>
      <trkpt lat="46.080718" lon="10.859171"><ele>2001.0</ele></trkpt>
      <trkpt lat="46.081061" lon="10.859328"><ele>2003.0</ele></trkpt>
      <trkpt lat="46.081523" lon="10.859119"><ele>2007.5</ele></trkpt>
      <trkpt lat="46.081770" lon="10.859079"><ele>2013.2</ele></trkpt>
      <trkpt lat="46.082002" lon="10.859065"><ele>2020.4</ele></trkpt>
      <trkpt lat="46.082325" lon="10.858567"><ele>2028.8</ele></trkpt>
      <trkpt lat="46.082581" lon="10.858366"><ele>2036.2</ele></trkpt>
      <trkpt lat="46.082960" lon="10.858112"><ele>2042.6</ele></trkpt>
      <trkpt lat="46.083289" lon="10.857962"><ele>2048.9</ele></trkpt>
      <trkpt lat="46.083574" lon="10.857646"><ele>2055.2</ele></trkpt>
      <trkpt lat="46.083867" lon="10.857599"><ele>2059.2</ele></trkpt>
      <trkpt lat="46.084268" lon="10.857522"><ele>2060.2</ele></trkpt>
      <trkpt lat="46.084523" lon="10.857337"><ele>2061.6</ele></trkpt>
      <trkpt lat="46.084752" lon="10.857066"><ele>2063.2</ele></trkpt>
      <trkpt lat="46.085002" lon="10.857028"><ele>2065.1</ele></trkpt>
      <trkpt lat="46.085267" lon="10.857046"><ele>2069.7</ele></trkpt>
      <trkpt lat="46.085387" lon="10.856698"><ele>2077.4</ele></trkpt>
      <trkpt lat="46.085550" lon="10.856339"><ele>2085.2</ele></trkpt>
      <trkpt lat="46.085748" lon="10.856053"><ele>2093.0</ele></trkpt>
      <trkpt lat="46.086010" lon="10.856002"><ele>2098.0</ele></trkpt>
      <trkpt lat="46.086314" lon="10.855967"><ele>2100.9</ele></trkpt>
      <trkpt lat="46.086613" lon="10.855879"><ele>2099.5</ele></trkpt>
      <trkpt lat="46.086922" lon="10.855765"><ele>2093.8</ele></trkpt>
      <trkpt lat="46.087092" lon="10.855510"><ele>2083.9</ele></trkpt>
      <trkpt lat="46.087264" lon="10.855296"><ele>2072.3</ele></trkpt>
      <trkpt lat="46.087536" lon="10.855273"><ele>2060.8</ele></trkpt>
      <trkpt lat="46.087691" lon="10.855021"><ele>2051.3</ele></trkpt>
      <trkpt lat="46.087916" lon="10.854933"><ele>2043.9</ele></trkpt>
      <trkpt lat="46.088114" lon="10.854727"><ele>2041.3</ele></trkpt>
      <trkpt lat="46.088251" lon="10.854417"><ele>2044.8</ele></trkpt>
      <trkpt lat="46.088488" lon="10.854186"><ele>2050.2</ele></trkpt>
      <trkpt lat="46.088636" lon="10.853871"><ele>2057.5</ele></trkpt>
      <trkpt lat="46.088833" lon="10.853661"><ele>2066.7</ele></trkpt>
      <trkpt lat="46.089097" lon="10.852717"><ele>2075.1</ele></trkpt>
      <trkpt lat="46.089352" lon="10.852314"><ele>2079.4</ele></trkpt>
      <trkpt lat="46.089579" lon="10.851920"><ele>2081.5</ele></trkpt>
      <trkpt lat="46.090031" lon="10.851477"><ele>2081.9</ele></trkpt>
      <trkpt lat="46.090620" lon="10.851062"><ele>2081.2</ele></trkpt>
      <trkpt lat="46.090795" lon="10.850855"><ele>2078.2</ele></trkpt>
      <trkpt lat="46.091022" lon="10.850576"><ele>2077.1</ele></trkpt>
      <trkpt lat="46.091238" lon="10.850402"><ele>2077.1</ele></trkpt>
      <trkpt lat="46.091649" lon="10.850193"><ele>2077.9</ele></trkpt>
      <trkpt lat="46.091865" lon="10.850005"><ele>2078.8</ele></trkpt>
      <trkpt lat="46.092060" lon="10.849836"><ele>2081.0</ele></trkpt>
      <trkpt lat="46.092453" lon="10.849670"><ele>2083.2</ele></trkpt>
      <trkpt lat="46.092746" lon="10.849820"><ele>2085.7</ele></trkpt>
      <trkpt lat="46.093011" lon="10.850088"><ele>2087.0</ele></trkpt>
      <trkpt lat="46.093341" lon="10.850813"><ele>2086.8</ele></trkpt>
      <trkpt lat="46.093503" lon="10.851214"><ele>2085.3</ele></trkpt>
      <trkpt lat="46.093571" lon="10.851677"><ele>2084.0</ele></trkpt>
      <trkpt lat="46.093554" lon="10.852102"><ele>2083.0</ele></trkpt>
      <trkpt lat="46.093498" lon="10.852470"><ele>2084.3</ele></trkpt>
      <trkpt lat="46.093760" lon="10.852537"><ele>2087.8</ele></trkpt>
      <trkpt lat="46.094011" lon="10.852422"><ele>2090.7</ele></trkpt>
      <trkpt lat="46.094186" lon="10.852095"><ele>2091.0</ele></trkpt>
      <trkpt lat="46.094419" lon="10.851775"><ele>2089.5</ele></trkpt>
      <trkpt lat="46.094683" lon="10.851461"><ele>2086.4</ele></trkpt>
      <trkpt lat="46.095202" lon="10.850895"><ele>2081.6</ele></trkpt>
      <trkpt lat="46.095548" lon="10.850665"><ele>2076.3</ele></trkpt>
      <trkpt lat="46.095912" lon="10.850592"><ele>2070.7</ele></trkpt>
      <trkpt lat="46.096238" lon="10.850595"><ele>2063.1</ele></trkpt>
      <trkpt lat="46.096498" lon="10.850799"><ele>2053.5</ele></trkpt>
      <trkpt lat="46.097064" lon="10.850828"><ele>2044.1</ele></trkpt>
      <trkpt lat="46.097290" lon="10.850836"><ele>2036.1</ele></trkpt>
      <trkpt lat="46.097568" lon="10.850954"><ele>2029.6</ele></trkpt>
      <trkpt lat="46.097828" lon="10.850893"><ele>2025.0</ele></trkpt>
      <trkpt lat="46.098033" lon="10.851118"><ele>2022.4</ele></trkpt>
      <trkpt lat="46.098548" lon="10.851373"><ele>2019.7</ele></trkpt>
      <trkpt lat="46.098791" lon="10.851518"><ele>2016.9</ele></trkpt>
      <trkpt lat="46.098977" lon="10.851767"><ele>2014.6</ele></trkpt>
      <trkpt lat="46.099095" lon="10.852129"><ele>2013.4</ele></trkpt>
      <trkpt lat="46.099186" lon="10.852647"><ele>2013.4</ele></trkpt>
      <trkpt lat="46.099305" lon="10.853084"><ele>2014.5</ele></trkpt>
      <trkpt lat="46.099390" lon="10.853411"><ele>2016.8</ele></trkpt>
      <trkpt lat="46.099485" lon="10.853789"><ele>2019.9</ele></trkpt>
      <trkpt lat="46.099792" lon="10.853709"><ele>2021.5</ele></trkpt>
      <trkpt lat="46.100019" lon="10.853666"><ele>2021.7</ele></trkpt>
      <trkpt lat="46.100455" lon="10.853496"><ele>2021.0</ele></trkpt>
      <trkpt lat="46.100747" lon="10.853488"><ele>2019.3</ele></trkpt>
      <trkpt lat="46.101150" lon="10.853789"><ele>2015.9</ele></trkpt>
      <trkpt lat="46.101455" lon="10.854160"><ele>2012.4</ele></trkpt>
      <trkpt lat="46.101711" lon="10.854358"><ele>2008.7</ele></trkpt>
      <trkpt lat="46.102020" lon="10.854278"><ele>2004.3</ele></trkpt>
      <trkpt lat="46.102417" lon="10.854051"><ele>2002.9</ele></trkpt>
      <trkpt lat="46.102999" lon="10.853572"><ele>2009.1</ele></trkpt>
      <trkpt lat="46.103320" lon="10.853160"><ele>2023.0</ele></trkpt>
      <trkpt lat="46.103488" lon="10.852859"><ele>2044.1</ele></trkpt>
      <trkpt lat="46.103715" lon="10.852943"><ele>2072.4</ele></trkpt>
      <trkpt lat="46.103959" lon="10.853005"><ele>2104.3</ele></trkpt>
      <trkpt lat="46.106125" lon="10.866140"><ele>2135.8</ele></trkpt>
      <trkpt lat="46.106396" lon="10.866171"><ele>2166.8</ele></trkpt>
      <trkpt lat="46.106611" lon="10.866313"><ele>2194.6</ele></trkpt>
      <trkpt lat="46.106855" lon="10.866278"><ele>2215.6</ele></trkpt>
      <trkpt lat="46.107098" lon="10.866421"><ele>2228.4</ele></trkpt>
      <trkpt lat="46.107324" lon="10.866444"><ele>2233.0</ele></trkpt>
      <trkpt lat="46.107558" lon="10.866499"><ele>2229.3</ele></trkpt>
      <trkpt lat="46.107856" lon="10.866657"><ele>2220.6</ele></trkpt>
      <trkpt lat="46.108105" lon="10.866848"><ele>2210.3</ele></trkpt>
      <trkpt lat="46.108297" lon="10.867049"><ele>2200.1</ele></trkpt>
      <trkpt lat="46.108520" lon="10.867246"><ele>2189.9</ele></trkpt>
      <trkpt lat="46.108717" lon="10.867494"><ele>2182.9</ele></trkpt>
      <trkpt lat="46.108993" lon="10.867762"><ele>2179.0</ele></trkpt>
      <trkpt lat="46.109209" lon="10.867891"><ele>2177.3</ele></trkpt>
      <trkpt lat="46.109433" lon="10.867990"><ele>2177.7</ele></trkpt>
      <trkpt lat="46.109621" lon="10.868170"><ele>2180.1</ele></trkpt>
      <trkpt lat="46.109859" lon="10.868315"><ele>2181.4</ele></trkpt>
      <trkpt lat="46.110104" lon="10.868314"><ele>2181.7</ele></trkpt>
      <trkpt lat="46.110383" lon="10.868363"><ele>2181.9</ele></trkpt>
      <trkpt lat="46.110651" lon="10.868192"><ele>2182.1</ele></trkpt>
      <trkpt lat="46.110873" lon="10.868315"><ele>2182.3</ele></trkpt>
      <trkpt lat="46.111115" lon="10.868308"><ele>2182.2</ele></trkpt>
      <trkpt lat="46.111398" lon="10.867989"><ele>2181.8</ele></trkpt>
      <trkpt lat="46.111406" lon="10.867638"><ele>2181.0</ele></trkpt>
      <trkpt lat="46.111615" lon="10.867486"><ele>2179.8</ele></trkpt>
      <trkpt lat="46.111851" lon="10.867416"><ele>2178.3</ele></trkpt>
      <trkpt lat="46.111845" lon="10.866987"><ele>2176.8</ele></trkpt>
      <trkpt lat="46.111849" lon="10.866649"><ele>2175.2</ele></trkpt>
      <trkpt lat="46.111699" lon="10.866378"><ele>2173.7</ele></trkpt>
      <trkpt lat="46.111560" lon="10.866111"><ele>2171.7</ele></trkpt>
      <trkpt lat="46.111301" lon="10.866108"><ele>2169.7</ele></trkpt>
      <trkpt lat="46.111146" lon="10.865866"><ele>2167.7</ele></trkpt>
      <trkpt lat="46.111084" lon="10.865470"><ele>2165.5</ele></trkpt>
      <trkpt lat="46.111117" lon="10.865095"><ele>2163.3</ele></trkpt>
      <trkpt lat="46.111115" lon="10.864739"><ele>2161.4</ele></trkpt>
      <trkpt lat="46.111237" lon="10.864449"><ele>2159.6</ele></trkpt>
      <trkpt lat="46.111374" lon="10.864097"><ele>2154.8</ele></trkpt>
      <trkpt lat="46.111632" lon="10.864010"><ele>2147.2</ele></trkpt>
      <trkpt lat="46.111888" lon="10.864015"><ele>2137.1</ele></trkpt>
      <trkpt lat="46.112106" lon="10.863883"><ele>2124.5</ele></trkpt>
      <trkpt lat="46.112266" lon="10.863598"><ele>2109.4</ele></trkpt>
      <trkpt lat="46.112405" lon="10.863326"><ele>2094.7</ele></trkpt>
      <trkpt lat="46.112654" lon="10.863129"><ele>2081.5</ele></trkpt>
      <trkpt lat="46.112896" lon="10.862991"><ele>2069.5</ele></trkpt>
      <trkpt lat="46.113118" lon="10.862931"><ele>2058.7</ele></trkpt>
      <trkpt lat="46.113327" lon="10.862786"><ele>2052.0</ele></trkpt>
      <trkpt lat="46.113507" lon="10.862584"><ele>2048.3</ele></trkpt>
      <trkpt lat="46.113745" lon="10.862590"><ele>2046.4</ele></trkpt>
      <trkpt lat="46.113956" lon="10.862431"><ele>2046.4</ele></trkpt>
      <trkpt lat="46.114191" lon="10.862253"><ele>2048.3</ele></trkpt>
      <trkpt lat="46.114314" lon="10.861970"><ele>2049.4</ele></trkpt>
      <trkpt lat="46.114562" lon="10.861589"><ele>2049.3</ele></trkpt>
      <trkpt lat="46.114756" lon="10.861303"><ele>2048.0</ele></trkpt>
      <trkpt lat="46.114945" lon="10.861071"><ele>2045.5</ele></trkpt>
      <trkpt lat="46.115104" lon="10.860803"><ele>2041.9</ele></trkpt>
      <trkpt lat="46.115262" lon="10.860522"><ele>2037.9</ele></trkpt>
      <trkpt lat="46.115383" lon="10.860233"><ele>2034.9</ele></trkpt>
      <trkpt lat="46.115571" lon="10.860478"><ele>2032.9</ele></trkpt>
      <trkpt lat="46.115775" lon="10.860671"><ele>2031.4</ele></trkpt>
      <trkpt lat="46.115935" lon="10.860951"><ele>2030.4</ele></trkpt>
      <trkpt lat="46.116009" lon="10.861309"><ele>2029.0</ele></trkpt>
      <trkpt lat="46.115998" lon="10.861683"><ele>2027.2</ele></trkpt>
      <trkpt lat="46.116079" lon="10.862001"><ele>2025.0</ele></trkpt>
      <trkpt lat="46.116150" lon="10.862347"><ele>2023.0</ele></trkpt>
      <trkpt lat="46.116279" lon="10.862633"><ele>2021.2</ele></trkpt>
      <trkpt lat="46.116510" lon="10.862735"><ele>2019.4</ele></trkpt>
      <trkpt lat="46.116742" lon="10.862811"><ele>2017.7</ele></trkpt>
      <trkpt lat="46.116960" lon="10.862975"><ele>2014.6</ele></trkpt>
      <trkpt lat="46.117144" lon="10.863231"><ele>2010.4</ele></trkpt>
      <trkpt lat="46.117292" lon="10.863522"><ele>2004.8</ele></trkpt>
      <trkpt lat="46.117443" lon="10.863830"><ele>1997.8</ele></trkpt>
      <trkpt lat="46.117562" lon="10.864118"><ele>1989.6</ele></trkpt>
      <trkpt lat="46.117679" lon="10.864442"><ele>1981.2</ele></trkpt>
      <trkpt lat="46.117680" lon="10.864791"><ele>1975.1</ele></trkpt>
      <trkpt lat="46.117810" lon="10.865082"><ele>1968.8</ele></trkpt>
      <trkpt lat="46.117994" lon="10.865342"><ele>1962.2</ele></trkpt>
      <trkpt lat="46.118223" lon="10.865538"><ele>1957.2</ele></trkpt>
      <trkpt lat="46.118448" lon="10.865679"><ele>1953.6</ele></trkpt>
      <trkpt lat="46.118616" lon="10.866012"><ele>1949.2</ele></trkpt>
      <trkpt lat="46.118823" lon="10.866377"><ele>1946.6</ele></trkpt>
      <trkpt lat="46.118980" lon="10.866694"><ele>1945.6</ele></trkpt>
      <trkpt lat="46.119067" lon="10.866999"><ele>1944.6</ele></trkpt>
      <trkpt lat="46.119194" lon="10.867272"><ele>1940.1</ele></trkpt>
      <trkpt lat="46.119332" lon="10.867591"><ele>1934.8</ele></trkpt>
      <trkpt lat="46.119351" lon="10.867969"><ele>1928.6</ele></trkpt>
      <trkpt lat="46.119502" lon="10.868218"><ele>1921.4</ele></trkpt>
      <trkpt lat="46.119674" lon="10.868437"><ele>1913.3</ele></trkpt>
      <trkpt lat="46.119866" lon="10.868652"><ele>1907.8</ele></trkpt>
      <trkpt lat="46.120048" lon="10.868883"><ele>1904.6</ele></trkpt>
      <trkpt lat="46.120230" lon="10.869132"><ele>1902.8</ele></trkpt>
      <trkpt lat="46.120360" lon="10.869445"><ele>1902.6</ele></trkpt>
      <trkpt lat="46.120556" lon="10.869687"><ele>1905.1</ele></trkpt>
      <trkpt lat="46.120724" lon="10.870060"><ele>1910.1</ele></trkpt>
      <trkpt lat="46.120801" lon="10.870470"><ele>1915.4</ele></trkpt>
      <trkpt lat="46.120975" lon="10.870728"><ele>1921.9</ele></trkpt>
      <trkpt lat="46.120997" lon="10.871064"><ele>1928.2</ele></trkpt>
      <trkpt lat="46.120983" lon="10.871403"><ele>1933.3</ele></trkpt>
      <trkpt lat="46.121109" lon="10.871762"><ele>1934.8</ele></trkpt>
      <trkpt lat="46.121233" lon="10.872117"><ele>1933.5</ele></trkpt>
      <trkpt lat="46.121370" lon="10.872384"><ele>1929.5</ele></trkpt>
      <trkpt lat="46.121555" lon="10.872739"><ele>1923.9</ele></trkpt>
      <trkpt lat="46.121718" lon="10.872994"><ele>1916.9</ele></trkpt>
      <trkpt lat="46.121864" lon="10.873278"><ele>1910.7</ele></trkpt>
      <trkpt lat="46.121980" lon="10.873576"><ele>1902.0</ele></trkpt>
      <trkpt lat="46.121871" lon="10.873970"><ele>1894.6</ele></trkpt>
      <trkpt lat="46.121768" lon="10.874261"><ele>1890.1</ele></trkpt>
      <trkpt lat="46.121837" lon="10.874594"><ele>1885.8</ele></trkpt>
      <trkpt lat="46.122031" lon="10.874784"><ele>1881.6</ele></trkpt>
      <trkpt lat="46.122260" lon="10.874949"><ele>1879.9</ele></trkpt>
      <trkpt lat="46.122488" lon="10.875148"><ele>1877.1</ele></trkpt>
      <trkpt lat="46.122671" lon="10.874866"><ele>1871.6</ele></trkpt>
      <trkpt lat="46.122935" lon="10.874933"><ele>1866.0</ele></trkpt>
      <trkpt lat="46.123161" lon="10.875054"><ele>1862.9</ele></trkpt>
      <trkpt lat="46.123532" lon="10.875443"><ele>1859.7</ele></trkpt>
      <trkpt lat="46.123698" lon="10.875761"><ele>1854.9</ele></trkpt>
      <trkpt lat="46.123806" lon="10.876131"><ele>1852.1</ele></trkpt>
      <trkpt lat="46.123968" lon="10.876402"><ele>1851.2</ele></trkpt>
      <trkpt lat="46.124242" lon="10.876260"><ele>1849.8</ele></trkpt>
      <trkpt lat="46.124491" lon="10.876217"><ele>1850.4</ele></trkpt>
      <trkpt lat="46.124738" lon="10.876311"><ele>1854.7</ele></trkpt>
      <trkpt lat="46.124934" lon="10.876528"><ele>1858.9</ele></trkpt>
      <trkpt lat="46.125209" lon="10.876505"><ele>1861.0</ele></trkpt>
      <trkpt lat="46.125455" lon="10.876382"><ele>1861.1</ele></trkpt>
      <trkpt lat="46.125674" lon="10.876462"><ele>1859.0</ele></trkpt>
      <trkpt lat="46.125957" lon="10.876573"><ele>1854.0</ele></trkpt>
      <trkpt lat="46.126110" lon="10.876827"><ele>1847.3</ele></trkpt>
      <trkpt lat="46.126334" lon="10.876977"><ele>1841.0</ele></trkpt>
      <trkpt lat="46.126508" lon="10.877236"><ele>1835.0</ele></trkpt>
      <trkpt lat="46.126712" lon="10.877394"><ele>1829.3</ele></trkpt>
      <trkpt lat="46.126950" lon="10.877654"><ele>1824.9</ele></trkpt>
      <trkpt lat="46.127060" lon="10.877937"><ele>1821.0</ele></trkpt>
      <trkpt lat="46.127260" lon="10.878183"><ele>1817.8</ele></trkpt>
      <trkpt lat="46.127471" lon="10.878428"><ele>1815.2</ele></trkpt>
      <trkpt lat="46.127682" lon="10.878645"><ele>1813.1</ele></trkpt>
      <trkpt lat="46.127894" lon="10.878798"><ele>1811.7</ele></trkpt>
      <trkpt lat="46.128164" lon="10.879103"><ele>1810.2</ele></trkpt>
      <trkpt lat="46.128402" lon="10.879311"><ele>1808.8</ele></trkpt>
      <trkpt lat="46.128631" lon="10.879367"><ele>1807.3</ele></trkpt>
      <trkpt lat="46.128868" lon="10.879419"><ele>1813.2</ele></trkpt>
      <trkpt lat="46.129122" lon="10.879427"><ele>1827.7</ele></trkpt>
      <trkpt lat="46.129427" lon="10.879493"><ele>1851.1</ele></trkpt>
      <trkpt lat="46.129702" lon="10.879641"><ele>1883.2</ele></trkpt>
      <trkpt lat="46.129894" lon="10.879906"><ele>1924.0</ele></trkpt>
      <trkpt lat="46.130129" lon="10.880083"><ele>1965.1</ele></trkpt>
      <trkpt lat="46.106125" lon="10.866140"><ele>2005.1</ele></trkpt>
      <trkpt lat="46.105912" lon="10.865962"><ele>2044.3</ele></trkpt>
      <trkpt lat="46.105782" lon="10.865694"><ele>2082.7</ele></trkpt>
      <trkpt lat="46.105587" lon="10.865525"><ele>2113.2</ele></trkpt>
      <trkpt lat="46.105330" lon="10.865481"><ele>2136.9</ele></trkpt>
      <trkpt lat="46.105407" lon="10.865070"><ele>2153.7</ele></trkpt>
      <trkpt lat="46.105449" lon="10.864720"><ele>2163.3</ele></trkpt>
      <trkpt lat="46.105361" lon="10.864410"><ele>2165.7</ele></trkpt>
      <trkpt lat="46.105204" lon="10.864166"><ele>2166.8</ele></trkpt>
      <trkpt lat="46.105159" lon="10.863802"><ele>2166.6</ele></trkpt>
      <trkpt lat="46.105090" lon="10.863436"><ele>2164.7</ele></trkpt>
      <trkpt lat="46.105039" lon="10.863089"><ele>2161.2</ele></trkpt>
      <trkpt lat="46.105026" lon="10.862745"><ele>2155.9</ele></trkpt>
      <trkpt lat="46.104810" lon="10.862600"><ele>2150.1</ele></trkpt>
      <trkpt lat="46.104644" lon="10.862380"><ele>2143.9</ele></trkpt>
      <trkpt lat="46.104576" lon="10.862033"><ele>2137.7</ele></trkpt>
      <trkpt lat="46.104634" lon="10.861715"><ele>2129.6</ele></trkpt>
      <trkpt lat="46.104758" lon="10.861416"><ele>2120.8</ele></trkpt>
      <trkpt lat="46.104966" lon="10.861285"><ele>2111.4</ele></trkpt>
      <trkpt lat="46.105149" lon="10.861084"><ele>2101.4</ele></trkpt>
      <trkpt lat="46.105258" lon="10.860787"><ele>2090.7</ele></trkpt>
      <trkpt lat="46.105410" lon="10.860464"><ele>2081.2</ele></trkpt>
      <trkpt lat="46.105501" lon="10.860167"><ele>2070.9</ele></trkpt>
      <trkpt lat="46.105588" lon="10.859849"><ele>2059.8</ele></trkpt>
      <trkpt lat="46.105673" lon="10.859527"><ele>2047.8</ele></trkpt>
      <trkpt lat="46.105743" lon="10.859197"><ele>2039.9</ele></trkpt>
      <trkpt lat="46.105840" lon="10.858903"><ele>2036.0</ele></trkpt>
      <trkpt lat="46.105970" lon="10.858625"><ele>2034.0</ele></trkpt>
      <trkpt lat="46.106003" lon="10.858258"><ele>2033.9</ele></trkpt>
      <trkpt lat="46.106151" lon="10.858013"><ele>2036.2</ele></trkpt>
      <trkpt lat="46.106206" lon="10.857653"><ele>2035.9</ele></trkpt>
      <trkpt lat="46.106277" lon="10.857343"><ele>2034.0</ele></trkpt>
      <trkpt lat="46.106284" lon="10.857011"><ele>2033.4</ele></trkpt>
      <trkpt lat="46.106158" lon="10.856713"><ele>2034.2</ele></trkpt>
      <trkpt lat="46.106073" lon="10.856349"><ele>2032.8</ele></trkpt>
      <trkpt lat="46.105954" lon="10.856059"><ele>2029.2</ele></trkpt>
      <trkpt lat="46.105805" lon="10.855784"><ele>2025.6</ele></trkpt>
      <trkpt lat="46.105789" lon="10.855432"><ele>2021.8</ele></trkpt>
      <trkpt lat="46.105594" lon="10.855259"><ele>2017.5</ele></trkpt>
      <trkpt lat="46.105353" lon="10.855092"><ele>2015.6</ele></trkpt>
      <trkpt lat="46.105277" lon="10.854766"><ele>2016.2</ele></trkpt>
      <trkpt lat="46.105194" lon="10.854446"><ele>2016.2</ele></trkpt>
      <trkpt lat="46.105161" lon="10.854084"><ele>2015.8</ele></trkpt>
      <trkpt lat="46.105218" lon="10.853761"><ele>2015.6</ele></trkpt>
      <trkpt lat="46.105092" lon="10.853480"><ele>2015.0</ele></trkpt>
      <trkpt lat="46.104973" lon="10.853172"><ele>2014.0</ele></trkpt>
      <trkpt lat="46.104823" lon="10.852872"><ele>2012.7</ele></trkpt>
      <trkpt lat="46.104732" lon="10.852514"><ele>2011.0</ele></trkpt>
      <trkpt lat="46.104600" lon="10.852169"><ele>2008.7</ele></trkpt>
      <trkpt lat="46.104363" lon="10.852070"><ele>2006.4</ele></trkpt>
      <trkpt lat="46.104155" lon="10.852242"><ele>2005.5</ele></trkpt>
      <trkpt lat="46.104087" lon="10.852560"><ele>2004.3</ele></trkpt>
      <trkpt lat="46.103995" lon="10.852859"><ele>2002.3</ele></trkpt>
      <trkpt lat="46.103959" lon="10.853005"><ele>2000.2</ele></trkpt>
    </trkseg>
  </trk>
</gpx>
