<?xml version="1.0" encoding="UTF-8"?>
<gpx version="1.1" creator="TrailShare content prep" xmlns="http://www.topografix.com/GPX/1/1">
  <metadata>
    <name>Garda Brenta Tappa 7: Rifugio San Pietro → Varone</name>
    <desc>Itinerario Garda Brenta (SAT, ref GB), tappa 7/7. Geometria: OpenStreetMap contributors (ODbL). Elevazione: Open-Elevation (SRTM), serie smussata e calibrata.</desc>
  </metadata>
  <trk>
    <name>Garda Brenta Tappa 7: Rifugio San Pietro → Varone</name>
    <trkseg>
      <trkpt lat="45.938024" lon="10.837046"><ele>936.2</ele></trkpt>
      <trkpt lat="45.937638" lon="10.837159"><ele>939.0</ele></trkpt>
      <trkpt lat="45.937295" lon="10.837191"><ele>942.8</ele></trkpt>
      <trkpt lat="45.937022" lon="10.837149"><ele>947.5</ele></trkpt>
      <trkpt lat="45.936729" lon="10.837174"><ele>952.6</ele></trkpt>
      <trkpt lat="45.936494" lon="10.837396"><ele>958.9</ele></trkpt>
      <trkpt lat="45.936254" lon="10.837558"><ele>964.0</ele></trkpt>
      <trkpt lat="45.935833" lon="10.837663"><ele>968.0</ele></trkpt>
      <trkpt lat="45.935553" lon="10.837684"><ele>970.6</ele></trkpt>
      <trkpt lat="45.935177" lon="10.837712"><ele>971.0</ele></trkpt>
      <trkpt lat="45.934885" lon="10.837573"><ele>968.7</ele></trkpt>
      <trkpt lat="45.934434" lon="10.837503"><ele>965.2</ele></trkpt>
      <trkpt lat="45.934176" lon="10.837480"><ele>960.6</ele></trkpt>
      <trkpt lat="45.933774" lon="10.837471"><ele>954.8</ele></trkpt>
      <trkpt lat="45.933384" lon="10.837470"><ele>948.9</ele></trkpt>
      <trkpt lat="45.933136" lon="10.837663"><ele>944.6</ele></trkpt>
      <trkpt lat="45.933015" lon="10.837978"><ele>941.7</ele></trkpt>
      <trkpt lat="45.932837" lon="10.838200"><ele>940.7</ele></trkpt>
      <trkpt lat="45.938024" lon="10.837046"><ele>941.1</ele></trkpt>
      <trkpt lat="45.938271" lon="10.836806"><ele>943.0</ele></trkpt>
      <trkpt lat="45.938526" lon="10.836583"><ele>944.8</ele></trkpt>
      <trkpt lat="45.938765" lon="10.836413"><ele>946.5</ele></trkpt>
      <trkpt lat="45.939032" lon="10.836288"><ele>947.7</ele></trkpt>
      <trkpt lat="45.939911" lon="10.836447"><ele>949.8</ele></trkpt>
      <trkpt lat="45.940211" lon="10.836580"><ele>952.7</ele></trkpt>
      <trkpt lat="45.940513" lon="10.836784"><ele>956.5</ele></trkpt>
      <trkpt lat="45.940913" lon="10.836937"><ele>960.9</ele></trkpt>
      <trkpt lat="45.941310" lon="10.836985"><ele>966.1</ele></trkpt>
      <trkpt lat="45.941541" lon="10.836977"><ele>971.0</ele></trkpt>
      <trkpt lat="45.941789" lon="10.836918"><ele>975.8</ele></trkpt>
      <trkpt lat="45.942220" lon="10.837071"><ele>980.3</ele></trkpt>
      <trkpt lat="45.942500" lon="10.837347"><ele>986.2</ele></trkpt>
      <trkpt lat="45.942783" lon="10.837361"><ele>992.3</ele></trkpt>
      <trkpt lat="45.942996" lon="10.836991"><ele>998.9</ele></trkpt>
      <trkpt lat="45.943063" lon="10.836666"><ele>1005.8</ele></trkpt>
      <trkpt lat="45.943200" lon="10.836204"><ele>1015.1</ele></trkpt>
      <trkpt lat="45.943143" lon="10.835760"><ele>1025.7</ele></trkpt>
      <trkpt lat="45.943054" lon="10.835355"><ele>1038.3</ele></trkpt>
      <trkpt lat="45.942921" lon="10.834805"><ele>1053.1</ele></trkpt>
      <trkpt lat="45.942839" lon="10.834392"><ele>1070.0</ele></trkpt>
      <trkpt lat="45.942606" lon="10.833582"><ele>1085.6</ele></trkpt>
      <trkpt lat="45.942505" lon="10.833279"><ele>1100.0</ele></trkpt>
      <trkpt lat="45.942405" lon="10.832772"><ele>1113.1</ele></trkpt>
      <trkpt lat="45.942231" lon="10.832410"><ele>1124.9</ele></trkpt>
      <trkpt lat="45.942110" lon="10.832085"><ele>1135.5</ele></trkpt>
      <trkpt lat="45.942296" lon="10.831881"><ele>1146.2</ele></trkpt>
      <trkpt lat="45.942511" lon="10.831994"><ele>1157.0</ele></trkpt>
      <trkpt lat="45.942793" lon="10.832023"><ele>1167.8</ele></trkpt>
      <trkpt lat="45.943272" lon="10.832149"><ele>1178.7</ele></trkpt>
      <trkpt lat="45.943509" lon="10.832222"><ele>1189.6</ele></trkpt>
      <trkpt lat="45.943837" lon="10.832394"><ele>1200.4</ele></trkpt>
      <trkpt lat="45.944255" lon="10.832477"><ele>1213.2</ele></trkpt>
      <trkpt lat="45.944515" lon="10.832430"><ele>1226.0</ele></trkpt>
      <trkpt lat="45.944754" lon="10.832564"><ele>1238.6</ele></trkpt>
      <trkpt lat="45.944897" lon="10.832218"><ele>1250.8</ele></trkpt>
      <trkpt lat="45.944680" lon="10.831797"><ele>1262.8</ele></trkpt>
      <trkpt lat="45.944876" lon="10.831547"><ele>1272.8</ele></trkpt>
      <trkpt lat="45.944932" lon="10.831213"><ele>1282.8</ele></trkpt>
      <trkpt lat="45.945160" lon="10.831306"><ele>1292.8</ele></trkpt>
      <trkpt lat="45.945205" lon="10.830975"><ele>1303.1</ele></trkpt>
      <trkpt lat="45.945516" lon="10.830862"><ele>1311.6</ele></trkpt>
      <trkpt lat="45.945832" lon="10.830597"><ele>1322.0</ele></trkpt>
      <trkpt lat="45.946152" lon="10.830623"><ele>1332.2</ele></trkpt>
      <trkpt lat="45.946426" lon="10.830621"><ele>1342.3</ele></trkpt>
      <trkpt lat="45.946685" lon="10.830655"><ele>1352.3</ele></trkpt>
      <trkpt lat="45.947127" lon="10.830643"><ele>1363.9</ele></trkpt>
      <trkpt lat="45.947536" lon="10.830580"><ele>1373.5</ele></trkpt>
      <trkpt lat="45.948130" lon="10.830575"><ele>1385.6</ele></trkpt>
      <trkpt lat="45.948512" lon="10.830563"><ele>1400.4</ele></trkpt>
      <trkpt lat="45.948811" lon="10.830486"><ele>1417.8</ele></trkpt>
      <trkpt lat="45.949382" lon="10.830208"><ele>1433.8</ele></trkpt>
      <trkpt lat="45.949729" lon="10.829947"><ele>1448.4</ele></trkpt>
      <trkpt lat="45.949895" lon="10.829690"><ele>1458.8</ele></trkpt>
      <trkpt lat="45.950243" lon="10.829250"><ele>1465.0</ele></trkpt>
      <trkpt lat="45.950490" lon="10.829266"><ele>1467.0</ele></trkpt>
      <trkpt lat="45.950741" lon="10.829263"><ele>1471.0</ele></trkpt>
      <trkpt lat="45.951010" lon="10.829142"><ele>1474.3</ele></trkpt>
      <trkpt lat="45.951392" lon="10.829153"><ele>1476.9</ele></trkpt>
      <trkpt lat="45.951657" lon="10.828947"><ele>1478.6</ele></trkpt>
      <trkpt lat="45.951922" lon="10.828789"><ele>1482.1</ele></trkpt>
      <trkpt lat="45.952070" lon="10.828461"><ele>1486.3</ele></trkpt>
      <trkpt lat="45.952497" lon="10.828178"><ele>1492.6</ele></trkpt>
      <trkpt lat="45.952706" lon="10.828035"><ele>1501.2</ele></trkpt>
      <trkpt lat="45.953138" lon="10.827745"><ele>1511.9</ele></trkpt>
      <trkpt lat="45.953563" lon="10.827454"><ele>1520.4</ele></trkpt>
      <trkpt lat="45.954089" lon="10.827289"><ele>1525.4</ele></trkpt>
      <trkpt lat="45.954331" lon="10.827134"><ele>1528.6</ele></trkpt>
      <trkpt lat="45.954834" lon="10.827058"><ele>1529.8</ele></trkpt>
      <trkpt lat="45.955137" lon="10.826973"><ele>1529.2</ele></trkpt>
      <trkpt lat="45.955532" lon="10.826871"><ele>1528.8</ele></trkpt>
      <trkpt lat="45.955849" lon="10.826871"><ele>1530.3</ele></trkpt>
      <trkpt lat="45.956129" lon="10.826860"><ele>1533.3</ele></trkpt>
      <trkpt lat="45.956371" lon="10.826855"><ele>1537.8</ele></trkpt>
      <trkpt lat="45.956632" lon="10.826774"><ele>1544.0</ele></trkpt>
      <trkpt lat="45.956950" lon="10.826875"><ele>1552.6</ele></trkpt>
      <trkpt lat="45.957103" lon="10.827178"><ele>1562.0</ele></trkpt>
      <trkpt lat="45.957242" lon="10.827625"><ele>1570.6</ele></trkpt>
      <trkpt lat="45.957460" lon="10.828022"><ele>1578.3</ele></trkpt>
      <trkpt lat="45.957656" lon="10.828384"><ele>1583.8</ele></trkpt>
      <trkpt lat="45.957871" lon="10.828968"><ele>1586.0</ele></trkpt>
      <trkpt lat="45.958114" lon="10.829421"><ele>1585.2</ele></trkpt>
      <trkpt lat="45.958299" lon="10.829639"><ele>1583.0</ele></trkpt>
      <trkpt lat="45.958514" lon="10.829755"><ele>1579.5</ele></trkpt>
      <trkpt lat="45.958808" lon="10.829763"><ele>1574.9</ele></trkpt>
      <trkpt lat="45.959090" lon="10.829650"><ele>1569.4</ele></trkpt>
      <trkpt lat="45.959316" lon="10.829677"><ele>1564.6</ele></trkpt>
      <trkpt lat="45.959548" lon="10.829599"><ele>1560.5</ele></trkpt>
      <trkpt lat="45.959897" lon="10.829507"><ele>1557.2</ele></trkpt>
      <trkpt lat="45.960473" lon="10.829531"><ele>1555.6</ele></trkpt>
      <trkpt lat="45.960740" lon="10.829521"><ele>1556.3</ele></trkpt>
      <trkpt lat="45.961055" lon="10.829709"><ele>1557.6</ele></trkpt>
      <trkpt lat="45.961299" lon="10.829830"><ele>1559.5</ele></trkpt>
      <trkpt lat="45.961542" lon="10.829958"><ele>1561.9</ele></trkpt>
      <trkpt lat="45.962086" lon="10.830229"><ele>1565.0</ele></trkpt>
      <trkpt lat="45.962459" lon="10.830291"><ele>1568.0</ele></trkpt>
      <trkpt lat="45.962768" lon="10.830323"><ele>1571.0</ele></trkpt>
      <trkpt lat="45.963057" lon="10.830269"><ele>1574.0</ele></trkpt>
      <trkpt lat="45.963484" lon="10.830308"><ele>1576.6</ele></trkpt>
      <trkpt lat="45.963900" lon="10.830600"><ele>1578.3</ele></trkpt>
      <trkpt lat="45.964138" lon="10.830684"><ele>1578.9</ele></trkpt>
      <trkpt lat="45.964484" lon="10.830984"><ele>1578.6</ele></trkpt>
      <trkpt lat="45.964468" lon="10.830645"><ele>1577.3</ele></trkpt>
      <trkpt lat="45.964528" lon="10.830260"><ele>1575.4</ele></trkpt>
      <trkpt lat="45.964708" lon="10.830020"><ele>1571.0</ele></trkpt>
      <trkpt lat="45.964898" lon="10.829777"><ele>1564.1</ele></trkpt>
      <trkpt lat="45.965203" lon="10.829724"><ele>1554.6</ele></trkpt>
      <trkpt lat="45.965460" lon="10.829617"><ele>1542.9</ele></trkpt>
      <trkpt lat="45.965696" lon="10.829391"><ele>1529.1</ele></trkpt>
      <trkpt lat="45.965895" lon="10.829222"><ele>1515.7</ele></trkpt>
      <trkpt lat="45.965804" lon="10.828909"><ele>1502.7</ele></trkpt>
      <trkpt lat="45.965526" lon="10.828357"><ele>1490.0</ele></trkpt>
      <trkpt lat="45.965490" lon="10.827997"><ele>1477.3</ele></trkpt>
      <trkpt lat="45.965259" lon="10.827948"><ele>1464.5</ele></trkpt>
      <trkpt lat="45.965000" lon="10.827954"><ele>1451.5</ele></trkpt>
      <trkpt lat="45.964750" lon="10.827901"><ele>1438.4</ele></trkpt>
      <trkpt lat="45.964588" lon="10.827609"><ele>1425.1</ele></trkpt>
      <trkpt lat="45.965312" lon="10.827126"><ele>1411.7</ele></trkpt>
      <trkpt lat="45.965550" lon="10.827090"><ele>1396.5</ele></trkpt>
      <trkpt lat="45.965504" lon="10.826734"><ele>1379.6</ele></trkpt>
      <trkpt lat="45.965802" lon="10.826634"><ele>1361.1</ele></trkpt>
      <trkpt lat="45.966038" lon="10.826731"><ele>1340.8</ele></trkpt>
      <trkpt lat="45.966262" lon="10.826830"><ele>1321.5</ele></trkpt>
      <trkpt lat="45.966491" lon="10.826830"><ele>1307.4</ele></trkpt>
      <trkpt lat="45.966796" lon="10.826805"><ele>1298.7</ele></trkpt>
      <trkpt lat="45.967022" lon="10.826732"><ele>1295.3</ele></trkpt>
      <trkpt lat="45.967229" lon="10.826920"><ele>1297.1</ele></trkpt>
      <trkpt lat="45.967505" lon="10.826951"><ele>1300.7</ele></trkpt>
      <trkpt lat="45.967782" lon="10.827059"><ele>1303.3</ele></trkpt>
      <trkpt lat="45.968010" lon="10.827158"><ele>1305.1</ele></trkpt>
      <trkpt lat="45.968256" lon="10.827225"><ele>1304.6</ele></trkpt>
      <trkpt lat="45.968471" lon="10.827323"><ele>1301.9</ele></trkpt>
      <trkpt lat="45.968705" lon="10.827229"><ele>1295.1</ele></trkpt>
      <trkpt lat="45.968547" lon="10.826963"><ele>1284.4</ele></trkpt>
      <trkpt lat="45.968427" lon="10.826657"><ele>1269.7</ele></trkpt>
      <trkpt lat="45.968623" lon="10.826483"><ele>1252.4</ele></trkpt>
      <trkpt lat="45.968779" lon="10.826216"><ele>1233.5</ele></trkpt>
      <trkpt lat="45.969011" lon="10.826195"><ele>1216.2</ele></trkpt>
      <trkpt lat="45.969445" lon="10.826080"><ele>1200.6</ele></trkpt>
      <trkpt lat="45.969627" lon="10.825865"><ele>1188.2</ele></trkpt>
      <trkpt lat="45.969595" lon="10.825530"><ele>1178.8</ele></trkpt>
      <trkpt lat="45.969392" lon="10.825181"><ele>1168.9</ele></trkpt>
      <trkpt lat="45.968986" lon="10.824663"><ele>1158.5</ele></trkpt>
      <trkpt lat="45.968680" lon="10.824245"><ele>1147.5</ele></trkpt>
      <trkpt lat="45.968573" lon="10.823918"><ele>1134.7</ele></trkpt>
      <trkpt lat="45.968504" lon="10.823500"><ele>1121.6</ele></trkpt>
      <trkpt lat="45.968681" lon="10.823246"><ele>1110.2</ele></trkpt>
      <trkpt lat="45.968900" lon="10.822764"><ele>1099.6</ele></trkpt>
      <trkpt lat="45.968566" lon="10.822550"><ele>1090.0</ele></trkpt>
      <trkpt lat="45.968293" lon="10.822587"><ele>1081.2</ele></trkpt>
      <trkpt lat="45.968089" lon="10.822726"><ele>1074.4</ele></trkpt>
      <trkpt lat="45.967825" lon="10.822738"><ele>1069.4</ele></trkpt>
      <trkpt lat="45.967559" lon="10.822610"><ele>1066.4</ele></trkpt>
      <trkpt lat="45.967882" lon="10.822603"><ele>1065.2</ele></trkpt>
      <trkpt lat="45.967367" lon="10.821876"><ele>1066.0</ele></trkpt>
      <trkpt lat="45.967233" lon="10.821287"><ele>1064.6</ele></trkpt>
      <trkpt lat="45.967041" lon="10.820927"><ele>1061.9</ele></trkpt>
      <trkpt lat="45.967357" lon="10.820902"><ele>1057.9</ele></trkpt>
      <trkpt lat="45.967710" lon="10.821087"><ele>1052.4</ele></trkpt>
      <trkpt lat="45.968001" lon="10.821087"><ele>1045.7</ele></trkpt>
      <trkpt lat="45.968390" lon="10.821149"><ele>1038.9</ele></trkpt>
      <trkpt lat="45.968362" lon="10.820746"><ele>1032.1</ele></trkpt>
      <trkpt lat="45.968084" lon="10.820334"><ele>1023.7</ele></trkpt>
      <trkpt lat="45.967867" lon="10.820133"><ele>1013.6</ele></trkpt>
      <trkpt lat="45.967660" lon="10.820007"><ele>1003.1</ele></trkpt>
      <trkpt lat="45.967909" lon="10.819842"><ele>992.4</ele></trkpt>
      <trkpt lat="45.968176" lon="10.819960"><ele>983.6</ele></trkpt>
      <trkpt lat="45.968567" lon="10.820149"><ele>978.4</ele></trkpt>
      <trkpt lat="45.968825" lon="10.820324"><ele>976.8</ele></trkpt>
      <trkpt lat="45.969068" lon="10.820431"><ele>977.4</ele></trkpt>
      <trkpt lat="45.969434" lon="10.820602"><ele>977.8</ele></trkpt>
      <trkpt lat="45.969654" lon="10.820721"><ele>977.4</ele></trkpt>
      <trkpt lat="45.970036" lon="10.821003"><ele>976.0</ele></trkpt>
      <trkpt lat="45.970243" lon="10.821168"><ele>973.9</ele></trkpt>
      <trkpt lat="45.970481" lon="10.821211"><ele>970.9</ele></trkpt>
      <trkpt lat="45.970692" lon="10.821354"><ele>967.6</ele></trkpt>
      <trkpt lat="45.970913" lon="10.821465"><ele>962.3</ele></trkpt>
      <trkpt lat="45.971298" lon="10.821915"><ele>955.0</ele></trkpt>
      <trkpt lat="45.971246" lon="10.821484"><ele>945.8</ele></trkpt>
      <trkpt lat="45.971055" lon="10.821113"><ele>937.1</ele></trkpt>
      <trkpt lat="45.970856" lon="10.820956"><ele>930.9</ele></trkpt>
      <trkpt lat="45.970701" lon="10.820659"><ele>927.2</ele></trkpt>
      <trkpt lat="45.970531" lon="10.820203"><ele>923.9</ele></trkpt>
      <trkpt lat="45.970389" lon="10.819949"><ele>921.1</ele></trkpt>
      <trkpt lat="45.970626" lon="10.820128"><ele>916.0</ele></trkpt>
      <trkpt lat="45.970810" lon="10.820337"><ele>908.5</ele></trkpt>
      <trkpt lat="45.970718" lon="10.819872"><ele>898.7</ele></trkpt>
      <trkpt lat="45.970599" lon="10.819595"><ele>888.7</ele></trkpt>
      <trkpt lat="45.970855" lon="10.819831"><ele>880.4</ele></trkpt>
      <trkpt lat="45.971084" lon="10.820165"><ele>872.1</ele></trkpt>
      <trkpt lat="45.971376" lon="10.820364"><ele>863.9</ele></trkpt>
      <trkpt lat="45.971252" lon="10.819893"><ele>857.7</ele></trkpt>
      <trkpt lat="45.971098" lon="10.819542"><ele>851.9</ele></trkpt>
      <trkpt lat="45.970909" lon="10.819043"><ele>844.5</ele></trkpt>
      <trkpt lat="45.970680" lon="10.818817"><ele>837.5</ele></trkpt>
      <trkpt lat="45.970661" lon="10.818407"><ele>832.5</ele></trkpt>
      <trkpt lat="45.970532" lon="10.818136"><ele>827.6</ele></trkpt>
      <trkpt lat="45.970795" lon="10.818073"><ele>822.2</ele></trkpt>
      <trkpt lat="45.970939" lon="10.818498"><ele>818.5</ele></trkpt>
      <trkpt lat="45.971171" lon="10.818603"><ele>816.5</ele></trkpt>
      <trkpt lat="45.971405" lon="10.818661"><ele>812.9</ele></trkpt>
      <trkpt lat="45.971651" lon="10.818969"><ele>809.6</ele></trkpt>
      <trkpt lat="45.971879" lon="10.819164"><ele>808.5</ele></trkpt>
      <trkpt lat="45.972194" lon="10.819351"><ele>807.5</ele></trkpt>
      <trkpt lat="45.972455" lon="10.819472"><ele>805.1</ele></trkpt>
      <trkpt lat="45.972637" lon="10.819735"><ele>802.7</ele></trkpt>
      <trkpt lat="45.972990" lon="10.819842"><ele>798.7</ele></trkpt>
      <trkpt lat="45.973141" lon="10.820090"><ele>793.0</ele></trkpt>
      <trkpt lat="45.973385" lon="10.819995"><ele>785.7</ele></trkpt>
      <trkpt lat="45.973746" lon="10.820042"><ele>779.8</ele></trkpt>
      <trkpt lat="45.973961" lon="10.820278"><ele>775.3</ele></trkpt>
      <trkpt lat="45.974202" lon="10.820335"><ele>772.3</ele></trkpt>
      <trkpt lat="45.974644" lon="10.820363"><ele>770.6</ele></trkpt>
      <trkpt lat="45.974404" lon="10.819938"><ele>770.5</ele></trkpt>
      <trkpt lat="45.974004" lon="10.819324"><ele>770.4</ele></trkpt>
      <trkpt lat="45.973353" lon="10.818259"><ele>770.5</ele></trkpt>
      <trkpt lat="45.973150" lon="10.817935"><ele>770.3</ele></trkpt>
      <trkpt lat="45.972943" lon="10.817701"><ele>769.8</ele></trkpt>
      <trkpt lat="45.972301" lon="10.817226"><ele>768.6</ele></trkpt>
      <trkpt lat="45.971466" lon="10.816638"><ele>766.9</ele></trkpt>
      <trkpt lat="45.971125" lon="10.816333"><ele>764.6</ele></trkpt>
      <trkpt lat="45.970913" lon="10.816069"><ele>762.7</ele></trkpt>
      <trkpt lat="45.970674" lon="10.815611"><ele>761.4</ele></trkpt>
      <trkpt lat="45.969678" lon="10.813403"><ele>760.5</ele></trkpt>
      <trkpt lat="45.969434" lon="10.813101"><ele>759.6</ele></trkpt>
      <trkpt lat="45.969089" lon="10.812788"><ele>759.1</ele></trkpt>
      <trkpt lat="45.968815" lon="10.812517"><ele>758.6</ele></trkpt>
      <trkpt lat="45.968552" lon="10.812350"><ele>758.2</ele></trkpt>
      <trkpt lat="45.967377" lon="10.812131"><ele>757.9</ele></trkpt>
      <trkpt lat="45.966920" lon="10.812031"><ele>758.3</ele></trkpt>
      <trkpt lat="45.966268" lon="10.811784"><ele>759.2</ele></trkpt>
      <trkpt lat="45.965903" lon="10.811634"><ele>760.3</ele></trkpt>
      <trkpt lat="45.965648" lon="10.811532"><ele>761.7</ele></trkpt>
      <trkpt lat="45.965362" lon="10.811422"><ele>763.8</ele></trkpt>
      <trkpt lat="45.965266" lon="10.811763"><ele>766.6</ele></trkpt>
      <trkpt lat="45.965116" lon="10.812132"><ele>769.9</ele></trkpt>
      <trkpt lat="45.964963" lon="10.812529"><ele>773.7</ele></trkpt>
      <trkpt lat="45.964765" lon="10.812897"><ele>777.9</ele></trkpt>
      <trkpt lat="45.964582" lon="10.813092"><ele>782.1</ele></trkpt>
      <trkpt lat="45.964327" lon="10.813328"><ele>786.0</ele></trkpt>
      <trkpt lat="45.964100" lon="10.813590"><ele>789.5</ele></trkpt>
      <trkpt lat="45.963871" lon="10.813725"><ele>792.8</ele></trkpt>
      <trkpt lat="45.963448" lon="10.813707"><ele>795.8</ele></trkpt>
      <trkpt lat="45.962922" lon="10.813921"><ele>798.7</ele></trkpt>
      <trkpt lat="45.962598" lon="10.814036"><ele>801.7</ele></trkpt>
      <trkpt lat="45.962288" lon="10.814096"><ele>804.8</ele></trkpt>
      <trkpt lat="45.962053" lon="10.814328"><ele>807.3</ele></trkpt>
      <trkpt lat="45.961832" lon="10.814739"><ele>809.2</ele></trkpt>
      <trkpt lat="45.961519" lon="10.814820"><ele>810.6</ele></trkpt>
      <trkpt lat="45.961201" lon="10.814828"><ele>811.5</ele></trkpt>
      <trkpt lat="45.960748" lon="10.814783"><ele>811.7</ele></trkpt>
      <trkpt lat="45.960496" lon="10.814800"><ele>811.8</ele></trkpt>
      <trkpt lat="45.960186" lon="10.814939"><ele>811.8</ele></trkpt>
      <trkpt lat="45.960046" lon="10.814656"><ele>811.1</ele></trkpt>
      <trkpt lat="45.959726" lon="10.814435"><ele>809.6</ele></trkpt>
      <trkpt lat="45.959318" lon="10.814411"><ele>808.2</ele></trkpt>
      <trkpt lat="45.959032" lon="10.814419"><ele>806.9</ele></trkpt>
      <trkpt lat="45.958647" lon="10.814447"><ele>805.1</ele></trkpt>
      <trkpt lat="45.958347" lon="10.814557"><ele>803.5</ele></trkpt>
      <trkpt lat="45.958059" lon="10.814569"><ele>802.0</ele></trkpt>
      <trkpt lat="45.957742" lon="10.814507"><ele>799.7</ele></trkpt>
      <trkpt lat="45.957566" lon="10.814739"><ele>796.6</ele></trkpt>
      <trkpt lat="45.957297" lon="10.814848"><ele>793.7</ele></trkpt>
      <trkpt lat="45.956933" lon="10.814987"><ele>791.2</ele></trkpt>
      <trkpt lat="45.956696" lon="10.815099"><ele>788.8</ele></trkpt>
      <trkpt lat="45.956367" lon="10.815274"><ele>787.0</ele></trkpt>
      <trkpt lat="45.956165" lon="10.815441"><ele>785.7</ele></trkpt>
      <trkpt lat="45.955945" lon="10.815590"><ele>784.3</ele></trkpt>
      <trkpt lat="45.955749" lon="10.815793"><ele>782.9</ele></trkpt>
      <trkpt lat="45.955527" lon="10.815854"><ele>782.1</ele></trkpt>
      <trkpt lat="45.955206" lon="10.816016"><ele>782.0</ele></trkpt>
      <trkpt lat="45.954971" lon="10.816068"><ele>782.6</ele></trkpt>
      <trkpt lat="45.954738" lon="10.815933"><ele>783.8</ele></trkpt>
      <trkpt lat="45.954561" lon="10.815705"><ele>785.7</ele></trkpt>
      <trkpt lat="45.954342" lon="10.815866"><ele>787.6</ele></trkpt>
      <trkpt lat="45.954010" lon="10.815905"><ele>789.4</ele></trkpt>
      <trkpt lat="45.953777" lon="10.815970"><ele>792.5</ele></trkpt>
      <trkpt lat="45.953535" lon="10.815885"><ele>795.5</ele></trkpt>
      <trkpt lat="45.953193" lon="10.815862"><ele>798.2</ele></trkpt>
      <trkpt lat="45.952762" lon="10.816006"><ele>800.5</ele></trkpt>
      <trkpt lat="45.952528" lon="10.816255"><ele>802.5</ele></trkpt>
      <trkpt lat="45.952324" lon="10.816468"><ele>803.0</ele></trkpt>
      <trkpt lat="45.952117" lon="10.816692"><ele>803.1</ele></trkpt>
      <trkpt lat="45.951897" lon="10.817065"><ele>803.2</ele></trkpt>
      <trkpt lat="45.951674" lon="10.817272"><ele>803.3</ele></trkpt>
      <trkpt lat="45.951357" lon="10.817348"><ele>801.8</ele></trkpt>
      <trkpt lat="45.951048" lon="10.817522"><ele>799.7</ele></trkpt>
      <trkpt lat="45.950866" lon="10.817737"><ele>797.0</ele></trkpt>
      <trkpt lat="45.950655" lon="10.818009"><ele>793.5</ele></trkpt>
      <trkpt lat="45.950406" lon="10.818210"><ele>789.5</ele></trkpt>
      <trkpt lat="45.950049" lon="10.818461"><ele>784.9</ele></trkpt>
      <trkpt lat="45.949750" lon="10.818610"><ele>778.7</ele></trkpt>
      <trkpt lat="45.949465" lon="10.818711"><ele>770.9</ele></trkpt>
      <trkpt lat="45.949124" lon="10.818738"><ele>761.8</ele></trkpt>
      <trkpt lat="45.948709" lon="10.818781"><ele>751.5</ele></trkpt>
      <trkpt lat="45.948039" lon="10.818741"><ele>741.8</ele></trkpt>
      <trkpt lat="45.947815" lon="10.818645"><ele>732.6</ele></trkpt>
      <trkpt lat="45.947573" lon="10.818313"><ele>724.3</ele></trkpt>
      <trkpt lat="45.947396" lon="10.818002"><ele>716.4</ele></trkpt>
      <trkpt lat="45.947423" lon="10.817656"><ele>710.2</ele></trkpt>
      <trkpt lat="45.947263" lon="10.817333"><ele>705.6</ele></trkpt>
      <trkpt lat="45.947075" lon="10.816991"><ele>702.6</ele></trkpt>
      <trkpt lat="45.947152" lon="10.817407"><ele>701.0</ele></trkpt>
      <trkpt lat="45.947072" lon="10.817747"><ele>701.5</ele></trkpt>
      <trkpt lat="45.947098" lon="10.818081"><ele>702.6</ele></trkpt>
      <trkpt lat="45.946853" lon="10.818346"><ele>704.2</ele></trkpt>
      <trkpt lat="45.946609" lon="10.818433"><ele>706.3</ele></trkpt>
      <trkpt lat="45.946360" lon="10.818426"><ele>709.0</ele></trkpt>
      <trkpt lat="45.946120" lon="10.818542"><ele>710.3</ele></trkpt>
      <trkpt lat="45.945738" lon="10.818826"><ele>710.2</ele></trkpt>
      <trkpt lat="45.945486" lon="10.818897"><ele>708.7</ele></trkpt>
      <trkpt lat="45.945085" lon="10.818988"><ele>705.9</ele></trkpt>
      <trkpt lat="45.944896" lon="10.819216"><ele>701.1</ele></trkpt>
      <trkpt lat="45.944985" lon="10.818834"><ele>695.8</ele></trkpt>
      <trkpt lat="45.945215" lon="10.818616"><ele>690.0</ele></trkpt>
      <trkpt lat="45.945412" lon="10.818443"><ele>685.0</ele></trkpt>
      <trkpt lat="45.945583" lon="10.818211"><ele>680.0</ele></trkpt>
      <trkpt lat="45.945361" lon="10.818265"><ele>676.9</ele></trkpt>
      <trkpt lat="45.945000" lon="10.818298"><ele>675.6</ele></trkpt>
      <trkpt lat="45.944620" lon="10.818402"><ele>675.0</ele></trkpt>
      <trkpt lat="45.944152" lon="10.818671"><ele>673.7</ele></trkpt>
      <trkpt lat="45.943850" lon="10.818827"><ele>673.5</ele></trkpt>
      <trkpt lat="45.943533" lon="10.818907"><ele>673.1</ele></trkpt>
      <trkpt lat="45.943181" lon="10.818894"><ele>672.5</ele></trkpt>
      <trkpt lat="45.942929" lon="10.818866"><ele>671.4</ele></trkpt>
      <trkpt lat="45.942599" lon="10.818742"><ele>670.8</ele></trkpt>
      <trkpt lat="45.942371" lon="10.818741"><ele>669.6</ele></trkpt>
      <trkpt lat="45.941569" lon="10.818782"><ele>668.0</ele></trkpt>
      <trkpt lat="45.941240" lon="10.818907"><ele>665.5</ele></trkpt>
      <trkpt lat="45.940969" lon="10.818863"><ele>663.6</ele></trkpt>
      <trkpt lat="45.940681" lon="10.818843"><ele>660.4</ele></trkpt>
      <trkpt lat="45.940397" lon="10.818830"><ele>655.9</ele></trkpt>
      <trkpt lat="45.940089" lon="10.818829"><ele>650.1</ele></trkpt>
      <trkpt lat="45.939851" lon="10.818870"><ele>643.3</ele></trkpt>
      <trkpt lat="45.939541" lon="10.818961"><ele>634.9</ele></trkpt>
      <trkpt lat="45.939217" lon="10.819095"><ele>627.4</ele></trkpt>
      <trkpt lat="45.938910" lon="10.819337"><ele>620.9</ele></trkpt>
      <trkpt lat="45.938729" lon="10.819578"><ele>617.0</ele></trkpt>
      <trkpt lat="45.938473" lon="10.819710"><ele>613.8</ele></trkpt>
      <trkpt lat="45.937551" lon="10.820260"><ele>612.1</ele></trkpt>
      <trkpt lat="45.936959" lon="10.820687"><ele>610.8</ele></trkpt>
      <trkpt lat="45.936770" lon="10.820864"><ele>609.7</ele></trkpt>
      <trkpt lat="45.936399" lon="10.821011"><ele>608.0</ele></trkpt>
      <trkpt lat="45.936144" lon="10.820921"><ele>608.2</ele></trkpt>
      <trkpt lat="45.936000" lon="10.820627"><ele>608.5</ele></trkpt>
      <trkpt lat="45.935678" lon="10.820649"><ele>608.3</ele></trkpt>
      <trkpt lat="45.935405" lon="10.820739"><ele>607.6</ele></trkpt>
      <trkpt lat="45.935178" lon="10.820753"><ele>607.8</ele></trkpt>
      <trkpt lat="45.934910" lon="10.820835"><ele>607.5</ele></trkpt>
      <trkpt lat="45.934598" lon="10.821083"><ele>607.9</ele></trkpt>
      <trkpt lat="45.934108" lon="10.821348"><ele>609.0</ele></trkpt>
      <trkpt lat="45.933802" lon="10.821500"><ele>610.1</ele></trkpt>
      <trkpt lat="45.933581" lon="10.821616"><ele>609.5</ele></trkpt>
      <trkpt lat="45.933368" lon="10.821874"><ele>607.6</ele></trkpt>
      <trkpt lat="45.932996" lon="10.822656"><ele>605.0</ele></trkpt>
      <trkpt lat="45.932818" lon="10.822878"><ele>601.9</ele></trkpt>
      <trkpt lat="45.932589" lon="10.823283"><ele>599.8</ele></trkpt>
      <trkpt lat="45.932428" lon="10.823548"><ele>598.1</ele></trkpt>
      <trkpt lat="45.932227" lon="10.823701"><ele>597.0</ele></trkpt>
      <trkpt lat="45.932100" lon="10.823974"><ele>596.6</ele></trkpt>
      <trkpt lat="45.931963" lon="10.824358"><ele>597.0</ele></trkpt>
      <trkpt lat="45.931821" lon="10.824816"><ele>597.2</ele></trkpt>
      <trkpt lat="45.931604" lon="10.825015"><ele>597.6</ele></trkpt>
      <trkpt lat="45.931381" lon="10.824968"><ele>598.1</ele></trkpt>
      <trkpt lat="45.931072" lon="10.825113"><ele>598.7</ele></trkpt>
      <trkpt lat="45.930853" lon="10.825320"><ele>598.2</ele></trkpt>
      <trkpt lat="45.930682" lon="10.825565"><ele>597.8</ele></trkpt>
      <trkpt lat="45.930713" lon="10.825918"><ele>597.3</ele></trkpt>
      <trkpt lat="45.930657" lon="10.826248"><ele>596.6</ele></trkpt>
      <trkpt lat="45.930417" lon="10.826225"><ele>595.9</ele></trkpt>
      <trkpt lat="45.930088" lon="10.826386"><ele>596.0</ele></trkpt>
      <trkpt lat="45.929825" lon="10.826480"><ele>595.1</ele></trkpt>
      <trkpt lat="45.929754" lon="10.826144"><ele>593.2</ele></trkpt>
      <trkpt lat="45.929964" lon="10.825697"><ele>590.4</ele></trkpt>
      <trkpt lat="45.930200" lon="10.825814"><ele>586.7</ele></trkpt>
      <trkpt lat="45.930357" lon="10.825556"><ele>582.0</ele></trkpt>
      <trkpt lat="45.930283" lon="10.825116"><ele>577.3</ele></trkpt>
      <trkpt lat="45.930105" lon="10.824898"><ele>572.7</ele></trkpt>
      <trkpt lat="45.930239" lon="10.824613"><ele>567.0</ele></trkpt>
      <trkpt lat="45.930301" lon="10.824269"><ele>560.3</ele></trkpt>
      <trkpt lat="45.930252" lon="10.823922"><ele>553.5</ele></trkpt>
      <trkpt lat="45.929758" lon="10.823816"><ele>546.6</ele></trkpt>
      <trkpt lat="45.929416" lon="10.823713"><ele>539.6</ele></trkpt>
      <trkpt lat="45.929195" lon="10.823528"><ele>533.6</ele></trkpt>
      <trkpt lat="45.928970" lon="10.823533"><ele>528.4</ele></trkpt>
      <trkpt lat="45.928888" lon="10.824055"><ele>522.1</ele></trkpt>
      <trkpt lat="45.928768" lon="10.824351"><ele>515.2</ele></trkpt>
      <trkpt lat="45.928483" lon="10.824397"><ele>508.7</ele></trkpt>
      <trkpt lat="45.928164" lon="10.824398"><ele>502.7</ele></trkpt>
      <trkpt lat="45.927672" lon="10.824401"><ele>497.1</ele></trkpt>
      <trkpt lat="45.927180" lon="10.824469"><ele>493.2</ele></trkpt>
      <trkpt lat="45.926849" lon="10.824867"><ele>490.3</ele></trkpt>
      <trkpt lat="45.926725" lon="10.825140"><ele>487.4</ele></trkpt>
      <trkpt lat="45.926538" lon="10.825487"><ele>484.6</ele></trkpt>
      <trkpt lat="45.926431" lon="10.825919"><ele>482.9</ele></trkpt>
      <trkpt lat="45.926373" lon="10.826326"><ele>482.8</ele></trkpt>
      <trkpt lat="45.926383" lon="10.826707"><ele>482.5</ele></trkpt>
      <trkpt lat="45.926152" lon="10.826833"><ele>482.0</ele></trkpt>
      <trkpt lat="45.925905" lon="10.826752"><ele>481.4</ele></trkpt>
      <trkpt lat="45.925677" lon="10.826783"><ele>479.4</ele></trkpt>
      <trkpt lat="45.925461" lon="10.827028"><ele>477.2</ele></trkpt>
      <trkpt lat="45.925217" lon="10.827416"><ele>476.4</ele></trkpt>
      <trkpt lat="45.924565" lon="10.828040"><ele>475.3</ele></trkpt>
      <trkpt lat="45.924327" lon="10.828244"><ele>474.0</ele></trkpt>
      <trkpt lat="45.923915" lon="10.828662"><ele>471.5</ele></trkpt>
      <trkpt lat="45.923747" lon="10.828931"><ele>468.0</ele></trkpt>
      <trkpt lat="45.923512" lon="10.829207"><ele>463.7</ele></trkpt>
      <trkpt lat="45.922942" lon="10.829888"><ele>460.0</ele></trkpt>
      <trkpt lat="45.922630" lon="10.830292"><ele>457.1</ele></trkpt>
      <trkpt lat="45.922404" lon="10.830450"><ele>455.2</ele></trkpt>
      <trkpt lat="45.922159" lon="10.830298"><ele>451.6</ele></trkpt>
      <trkpt lat="45.921927" lon="10.830279"><ele>447.9</ele></trkpt>
      <trkpt lat="45.921696" lon="10.830459"><ele>444.2</ele></trkpt>
      <trkpt lat="45.921414" lon="10.830839"><ele>440.6</ele></trkpt>
      <trkpt lat="45.921222" lon="10.831173"><ele>437.6</ele></trkpt>
      <trkpt lat="45.921026" lon="10.831433"><ele>436.2</ele></trkpt>
      <trkpt lat="45.920825" lon="10.831623"><ele>434.9</ele></trkpt>
      <trkpt lat="45.920640" lon="10.831884"><ele>433.6</ele></trkpt>
      <trkpt lat="45.920534" lon="10.832212"><ele>431.5</ele></trkpt>
      <trkpt lat="45.920168" lon="10.832686"><ele>429.4</ele></trkpt>
      <trkpt lat="45.919918" lon="10.832777"><ele>427.1</ele></trkpt>
      <trkpt lat="45.919614" lon="10.832922"><ele>424.7</ele></trkpt>
      <trkpt lat="45.919295" lon="10.832923"><ele>422.2</ele></trkpt>
      <trkpt lat="45.919034" lon="10.832907"><ele>420.3</ele></trkpt>
      <trkpt lat="45.918805" lon="10.832873"><ele>418.8</ele></trkpt>
      <trkpt lat="45.918490" lon="10.832864"><ele>416.8</ele></trkpt>
      <trkpt lat="45.918087" lon="10.832946"><ele>414.4</ele></trkpt>
      <trkpt lat="45.917633" lon="10.833020"><ele>411.6</ele></trkpt>
      <trkpt lat="45.917409" lon="10.833166"><ele>408.7</ele></trkpt>
      <trkpt lat="45.917183" lon="10.833266"><ele>405.5</ele></trkpt>
      <trkpt lat="45.916979" lon="10.833532"><ele>402.6</ele></trkpt>
      <trkpt lat="45.916650" lon="10.833791"><ele>400.1</ele></trkpt>
      <trkpt lat="45.916532" lon="10.834133"><ele>398.0</ele></trkpt>
      <trkpt lat="45.916611" lon="10.834513"><ele>394.8</ele></trkpt>
      <trkpt lat="45.916454" lon="10.834784"><ele>391.4</ele></trkpt>
      <trkpt lat="45.916163" lon="10.834796"><ele>387.7</ele></trkpt>
      <trkpt lat="45.915915" lon="10.834810"><ele>383.6</ele></trkpt>
      <trkpt lat="45.915605" lon="10.835023"><ele>377.2</ele></trkpt>
      <trkpt lat="45.915380" lon="10.835402"><ele>369.2</ele></trkpt>
      <trkpt lat="45.915262" lon="10.835729"><ele>359.2</ele></trkpt>
      <trkpt lat="45.915061" lon="10.836019"><ele>346.9</ele></trkpt>
      <trkpt lat="45.914804" lon="10.836123"><ele>332.4</ele></trkpt>
      <trkpt lat="45.914584" lon="10.836280"><ele>318.7</ele></trkpt>
      <trkpt lat="45.914381" lon="10.836457"><ele>304.5</ele></trkpt>
      <trkpt lat="45.914143" lon="10.836386"><ele>289.8</ele></trkpt>
      <trkpt lat="45.913908" lon="10.836380"><ele>275.8</ele></trkpt>
      <trkpt lat="45.914119" lon="10.836695"><ele>264.7</ele></trkpt>
      <trkpt lat="45.914401" lon="10.836936"><ele>254.5</ele></trkpt>
      <trkpt lat="45.914493" lon="10.837316"><ele>246.6</ele></trkpt>
      <trkpt lat="45.914446" lon="10.837637"><ele>240.8</ele></trkpt>
      <trkpt lat="45.914210" lon="10.837817"><ele>236.0</ele></trkpt>
      <trkpt lat="45.914118" lon="10.837449"><ele>230.0</ele></trkpt>
      <trkpt lat="45.913925" lon="10.837281"><ele>225.2</ele></trkpt>
      <trkpt lat="45.914009" lon="10.837617"><ele>221.6</ele></trkpt>
      <trkpt lat="45.914003" lon="10.837955"><ele>218.0</ele></trkpt>
      <trkpt lat="45.913919" lon="10.838324"><ele>214.4</ele></trkpt>
      <trkpt lat="45.913692" lon="10.838301"><ele>210.8</ele></trkpt>
      <trkpt lat="45.913574" lon="10.838583"><ele>205.9</ele></trkpt>
      <trkpt lat="45.913306" lon="10.838711"><ele>199.7</ele></trkpt>
      <trkpt lat="45.913073" lon="10.838950"><ele>193.6</ele></trkpt>
      <trkpt lat="45.912979" lon="10.839244"><ele>187.3</ele></trkpt>
      <trkpt lat="45.912602" lon="10.838998"><ele>181.1</ele></trkpt>
      <trkpt lat="45.912408" lon="10.838687"><ele>178.0</ele></trkpt>
      <trkpt lat="45.912054" lon="10.838458"><ele>174.0</ele></trkpt>
      <trkpt lat="45.911748" lon="10.838221"><ele>168.7</ele></trkpt>
      <trkpt lat="45.911622" lon="10.838123"><ele>163.4</ele></trkpt>
    </trkseg>
  </trk>
</gpx>
