<?xml version="1.0" encoding="UTF-8"?>
<gpx version="1.1" creator="TrailShare content prep" xmlns="http://www.topografix.com/GPX/1/1">
  <metadata>
    <name>TMB Tappa 3: Les Chapieux → Rifugio Elisabetta</name>
    <desc>Tour du Mont Blanc, tappa 3/7 (FR→IT). Geometria: OpenStreetMap contributors (ODbL), relation OSM tappa CCW. Elevazione: Open-Elevation (SRTM).</desc>
  </metadata>
  <trk>
    <name>TMB Tappa 3: Les Chapieux → Rifugio Elisabetta</name>
    <trkseg>
      <trkpt lat="45.727445" lon="6.767454"><ele>1790.0</ele></trkpt>
      <trkpt lat="45.727448" lon="6.767793"><ele>1790.0</ele></trkpt>
      <trkpt lat="45.727335" lon="6.768246"><ele>1790.0</ele></trkpt>
      <trkpt lat="45.727260" lon="6.768591"><ele>1790.0</ele></trkpt>
      <trkpt lat="45.727257" lon="6.768962"><ele>1787.0</ele></trkpt>
      <trkpt lat="45.727710" lon="6.769316"><ele>1787.0</ele></trkpt>
      <trkpt lat="45.727908" lon="6.769581"><ele>1787.0</ele></trkpt>
      <trkpt lat="45.728171" lon="6.769592"><ele>1787.0</ele></trkpt>
      <trkpt lat="45.728384" lon="6.769734"><ele>1787.0</ele></trkpt>
      <trkpt lat="45.728617" lon="6.769791"><ele>1787.0</ele></trkpt>
      <trkpt lat="45.728880" lon="6.770034"><ele>1787.0</ele></trkpt>
      <trkpt lat="45.729090" lon="6.770364"><ele>1787.0</ele></trkpt>
      <trkpt lat="45.729248" lon="6.770603"><ele>1791.0</ele></trkpt>
      <trkpt lat="45.729496" lon="6.770822"><ele>1791.0</ele></trkpt>
      <trkpt lat="45.729703" lon="6.771097"><ele>1805.0</ele></trkpt>
      <trkpt lat="45.729892" lon="6.771332"><ele>1805.0</ele></trkpt>
      <trkpt lat="45.730036" lon="6.771687"><ele>1805.0</ele></trkpt>
      <trkpt lat="45.730040" lon="6.772017"><ele>1805.0</ele></trkpt>
      <trkpt lat="45.730032" lon="6.772348"><ele>1805.0</ele></trkpt>
      <trkpt lat="45.730179" lon="6.772689"><ele>1805.0</ele></trkpt>
      <trkpt lat="45.730353" lon="6.772996"><ele>1836.0</ele></trkpt>
      <trkpt lat="45.730548" lon="6.773275"><ele>1836.0</ele></trkpt>
      <trkpt lat="45.730827" lon="6.773524"><ele>1836.0</ele></trkpt>
      <trkpt lat="45.730989" lon="6.773813"><ele>1836.0</ele></trkpt>
      <trkpt lat="45.731284" lon="6.774282"><ele>1829.0</ele></trkpt>
      <trkpt lat="45.731472" lon="6.774605"><ele>1829.0</ele></trkpt>
      <trkpt lat="45.731801" lon="6.774809"><ele>1829.0</ele></trkpt>
      <trkpt lat="45.732112" lon="6.774992"><ele>1829.0</ele></trkpt>
      <trkpt lat="45.732509" lon="6.775561"><ele>1864.0</ele></trkpt>
      <trkpt lat="45.732657" lon="6.775941"><ele>1864.0</ele></trkpt>
      <trkpt lat="45.732929" lon="6.776352"><ele>1864.0</ele></trkpt>
      <trkpt lat="45.733130" lon="6.776657"><ele>1864.0</ele></trkpt>
      <trkpt lat="45.733345" lon="6.776921"><ele>1837.0</ele></trkpt>
      <trkpt lat="45.733537" lon="6.777164"><ele>1877.0</ele></trkpt>
      <trkpt lat="45.733771" lon="6.777236"><ele>1877.0</ele></trkpt>
      <trkpt lat="45.734012" lon="6.777359"><ele>1877.0</ele></trkpt>
      <trkpt lat="45.734268" lon="6.777456"><ele>1877.0</ele></trkpt>
      <trkpt lat="45.734485" lon="6.777643"><ele>1877.0</ele></trkpt>
      <trkpt lat="45.734720" lon="6.777791"><ele>1877.0</ele></trkpt>
      <trkpt lat="45.734958" lon="6.777997"><ele>1877.0</ele></trkpt>
      <trkpt lat="45.735040" lon="6.778312"><ele>1877.0</ele></trkpt>
      <trkpt lat="45.735253" lon="6.778491"><ele>1877.0</ele></trkpt>
      <trkpt lat="45.735449" lon="6.778263"><ele>1856.0</ele></trkpt>
      <trkpt lat="45.735689" lon="6.778188"><ele>1856.0</ele></trkpt>
      <trkpt lat="45.735930" lon="6.778299"><ele>1856.0</ele></trkpt>
      <trkpt lat="45.736162" lon="6.778481"><ele>1856.0</ele></trkpt>
      <trkpt lat="45.736394" lon="6.778613"><ele>1856.0</ele></trkpt>
      <trkpt lat="45.736638" lon="6.778821"><ele>1856.0</ele></trkpt>
      <trkpt lat="45.736869" lon="6.779010"><ele>1856.0</ele></trkpt>
      <trkpt lat="45.737068" lon="6.779165"><ele>1856.0</ele></trkpt>
      <trkpt lat="45.736828" lon="6.779281"><ele>1903.0</ele></trkpt>
      <trkpt lat="45.736674" lon="6.779518"><ele>1903.0</ele></trkpt>
      <trkpt lat="45.736459" lon="6.779386"><ele>1903.0</ele></trkpt>
      <trkpt lat="45.736322" lon="6.779119"><ele>1856.0</ele></trkpt>
      <trkpt lat="45.736172" lon="6.779362"><ele>1903.0</ele></trkpt>
      <trkpt lat="45.735930" lon="6.779298"><ele>1903.0</ele></trkpt>
      <trkpt lat="45.735698" lon="6.779241"><ele>1903.0</ele></trkpt>
      <trkpt lat="45.735478" lon="6.779170"><ele>1903.0</ele></trkpt>
      <trkpt lat="45.735586" lon="6.779469"><ele>1903.0</ele></trkpt>
      <trkpt lat="45.735716" lon="6.779835"><ele>1903.0</ele></trkpt>
      <trkpt lat="45.735921" lon="6.780058"><ele>1903.0</ele></trkpt>
      <trkpt lat="45.736019" lon="6.780401"><ele>1903.0</ele></trkpt>
      <trkpt lat="45.736186" lon="6.780686"><ele>1903.0</ele></trkpt>
      <trkpt lat="45.736353" lon="6.780961"><ele>1903.0</ele></trkpt>
      <trkpt lat="45.736507" lon="6.781222"><ele>1903.0</ele></trkpt>
      <trkpt lat="45.736299" lon="6.781411"><ele>1967.0</ele></trkpt>
      <trkpt lat="45.736038" lon="6.781341"><ele>1967.0</ele></trkpt>
      <trkpt lat="45.735727" lon="6.781293"><ele>1967.0</ele></trkpt>
      <trkpt lat="45.735489" lon="6.781255"><ele>1967.0</ele></trkpt>
      <trkpt lat="45.735253" lon="6.781165"><ele>1919.0</ele></trkpt>
      <trkpt lat="45.735015" lon="6.781208"><ele>1919.0</ele></trkpt>
      <trkpt lat="45.735206" lon="6.781465"><ele>1978.0</ele></trkpt>
      <trkpt lat="45.735487" lon="6.781710"><ele>1967.0</ele></trkpt>
      <trkpt lat="45.735767" lon="6.782000"><ele>1967.0</ele></trkpt>
      <trkpt lat="45.735412" lon="6.782022"><ele>1978.0</ele></trkpt>
      <trkpt lat="45.735140" lon="6.782069"><ele>1978.0</ele></trkpt>
      <trkpt lat="45.734906" lon="6.782048"><ele>1978.0</ele></trkpt>
      <trkpt lat="45.734676" lon="6.782125"><ele>1978.0</ele></trkpt>
      <trkpt lat="45.734750" lon="6.782455"><ele>1978.0</ele></trkpt>
      <trkpt lat="45.735004" lon="6.782535"><ele>1978.0</ele></trkpt>
      <trkpt lat="45.734864" lon="6.782800"><ele>1978.0</ele></trkpt>
      <trkpt lat="45.735094" lon="6.782902"><ele>1978.0</ele></trkpt>
      <trkpt lat="45.735338" lon="6.783133"><ele>1978.0</ele></trkpt>
      <trkpt lat="45.735560" lon="6.783429"><ele>2062.0</ele></trkpt>
      <trkpt lat="45.735673" lon="6.783734"><ele>2062.0</ele></trkpt>
      <trkpt lat="45.735747" lon="6.784077"><ele>2062.0</ele></trkpt>
      <trkpt lat="45.735886" lon="6.784352"><ele>2062.0</ele></trkpt>
      <trkpt lat="45.736151" lon="6.784388"><ele>2062.0</ele></trkpt>
      <trkpt lat="45.736373" lon="6.784636"><ele>2062.0</ele></trkpt>
      <trkpt lat="45.736615" lon="6.784654"><ele>2062.0</ele></trkpt>
      <trkpt lat="45.736847" lon="6.784846"><ele>2062.0</ele></trkpt>
      <trkpt lat="45.737080" lon="6.784939"><ele>2062.0</ele></trkpt>
      <trkpt lat="45.737301" lon="6.785065"><ele>2062.0</ele></trkpt>
      <trkpt lat="45.737503" lon="6.785273"><ele>2015.0</ele></trkpt>
      <trkpt lat="45.737635" lon="6.785535"><ele>2114.0</ele></trkpt>
      <trkpt lat="45.737832" lon="6.785740"><ele>2114.0</ele></trkpt>
      <trkpt lat="45.738095" lon="6.785857"><ele>2114.0</ele></trkpt>
      <trkpt lat="45.738312" lon="6.785950"><ele>2114.0</ele></trkpt>
      <trkpt lat="45.738508" lon="6.786106"><ele>2114.0</ele></trkpt>
      <trkpt lat="45.738708" lon="6.786384"><ele>2114.0</ele></trkpt>
      <trkpt lat="45.738898" lon="6.786628"><ele>2114.0</ele></trkpt>
      <trkpt lat="45.739024" lon="6.786948"><ele>2114.0</ele></trkpt>
      <trkpt lat="45.739022" lon="6.787296"><ele>2114.0</ele></trkpt>
      <trkpt lat="45.739175" lon="6.787621"><ele>2171.0</ele></trkpt>
      <trkpt lat="45.739307" lon="6.787914"><ele>2171.0</ele></trkpt>
      <trkpt lat="45.739374" lon="6.788312"><ele>2171.0</ele></trkpt>
      <trkpt lat="45.739507" lon="6.788666"><ele>2171.0</ele></trkpt>
      <trkpt lat="45.739602" lon="6.788966"><ele>2139.0</ele></trkpt>
      <trkpt lat="45.739652" lon="6.789289"><ele>2139.0</ele></trkpt>
      <trkpt lat="45.739889" lon="6.789309"><ele>2139.0</ele></trkpt>
      <trkpt lat="45.740146" lon="6.789173"><ele>2139.0</ele></trkpt>
      <trkpt lat="45.740385" lon="6.789144"><ele>2139.0</ele></trkpt>
      <trkpt lat="45.740618" lon="6.789079"><ele>2139.0</ele></trkpt>
      <trkpt lat="45.740829" lon="6.789247"><ele>2139.0</ele></trkpt>
      <trkpt lat="45.741068" lon="6.789342"><ele>2139.0</ele></trkpt>
      <trkpt lat="45.741245" lon="6.789596"><ele>2192.0</ele></trkpt>
      <trkpt lat="45.741402" lon="6.789862"><ele>2192.0</ele></trkpt>
      <trkpt lat="45.741450" lon="6.790304"><ele>2192.0</ele></trkpt>
      <trkpt lat="45.741535" lon="6.790623"><ele>2192.0</ele></trkpt>
      <trkpt lat="45.741659" lon="6.790979"><ele>2192.0</ele></trkpt>
      <trkpt lat="45.741867" lon="6.791372"><ele>2176.0</ele></trkpt>
      <trkpt lat="45.741958" lon="6.791679"><ele>2227.0</ele></trkpt>
      <trkpt lat="45.741981" lon="6.792039"><ele>2227.0</ele></trkpt>
      <trkpt lat="45.742150" lon="6.792321"><ele>2227.0</ele></trkpt>
      <trkpt lat="45.742330" lon="6.792531"><ele>2227.0</ele></trkpt>
      <trkpt lat="45.742586" lon="6.792743"><ele>2227.0</ele></trkpt>
      <trkpt lat="45.742764" lon="6.792958"><ele>2227.0</ele></trkpt>
      <trkpt lat="45.742988" lon="6.793004"><ele>2227.0</ele></trkpt>
      <trkpt lat="45.743167" lon="6.793217"><ele>2227.0</ele></trkpt>
      <trkpt lat="45.743396" lon="6.793252"><ele>2227.0</ele></trkpt>
      <trkpt lat="45.743532" lon="6.792975"><ele>2227.0</ele></trkpt>
      <trkpt lat="45.743765" lon="6.792880"><ele>2300.0</ele></trkpt>
      <trkpt lat="45.743874" lon="6.792582"><ele>2300.0</ele></trkpt>
      <trkpt lat="45.743957" lon="6.792272"><ele>2300.0</ele></trkpt>
      <trkpt lat="45.744144" lon="6.792036"><ele>2300.0</ele></trkpt>
      <trkpt lat="45.744350" lon="6.791848"><ele>2300.0</ele></trkpt>
      <trkpt lat="45.744590" lon="6.791709"><ele>2300.0</ele></trkpt>
      <trkpt lat="45.744808" lon="6.791564"><ele>2256.0</ele></trkpt>
      <trkpt lat="45.745059" lon="6.791487"><ele>2256.0</ele></trkpt>
      <trkpt lat="45.745305" lon="6.791328"><ele>2256.0</ele></trkpt>
      <trkpt lat="45.745557" lon="6.791436"><ele>2256.0</ele></trkpt>
      <trkpt lat="45.745818" lon="6.791597"><ele>2256.0</ele></trkpt>
      <trkpt lat="45.746006" lon="6.791819"><ele>2313.0</ele></trkpt>
      <trkpt lat="45.746014" lon="6.792152"><ele>2313.0</ele></trkpt>
      <trkpt lat="45.746081" lon="6.792517"><ele>2313.0</ele></trkpt>
      <trkpt lat="45.746175" lon="6.792855"><ele>2313.0</ele></trkpt>
      <trkpt lat="45.746263" lon="6.793160"><ele>2313.0</ele></trkpt>
      <trkpt lat="45.746346" lon="6.793571"><ele>2313.0</ele></trkpt>
      <trkpt lat="45.746495" lon="6.793836"><ele>2353.0</ele></trkpt>
      <trkpt lat="45.746616" lon="6.794152"><ele>2353.0</ele></trkpt>
      <trkpt lat="45.746705" lon="6.794471"><ele>2353.0</ele></trkpt>
      <trkpt lat="45.746799" lon="6.794878"><ele>2353.0</ele></trkpt>
      <trkpt lat="45.746920" lon="6.795186"><ele>2353.0</ele></trkpt>
      <trkpt lat="45.747096" lon="6.795498"><ele>2353.0</ele></trkpt>
      <trkpt lat="45.747242" lon="6.795781"><ele>2353.0</ele></trkpt>
      <trkpt lat="45.747358" lon="6.796118"><ele>2368.0</ele></trkpt>
      <trkpt lat="45.747445" lon="6.796466"><ele>2368.0</ele></trkpt>
      <trkpt lat="45.747594" lon="6.796805"><ele>2368.0</ele></trkpt>
      <trkpt lat="45.747752" lon="6.797138"><ele>2368.0</ele></trkpt>
      <trkpt lat="45.747910" lon="6.797436"><ele>2368.0</ele></trkpt>
      <trkpt lat="45.748104" lon="6.797605"><ele>2381.0</ele></trkpt>
      <trkpt lat="45.748284" lon="6.797863"><ele>2381.0</ele></trkpt>
      <trkpt lat="45.748412" lon="6.798188"><ele>2419.0</ele></trkpt>
      <trkpt lat="45.748548" lon="6.798503"><ele>2419.0</ele></trkpt>
      <trkpt lat="45.748600" lon="6.798853"><ele>2419.0</ele></trkpt>
      <trkpt lat="45.748684" lon="6.799264"><ele>2419.0</ele></trkpt>
      <trkpt lat="45.748788" lon="6.799550"><ele>2419.0</ele></trkpt>
      <trkpt lat="45.748909" lon="6.799897"><ele>2419.0</ele></trkpt>
      <trkpt lat="45.749040" lon="6.800208"><ele>2444.0</ele></trkpt>
      <trkpt lat="45.749162" lon="6.800597"><ele>2444.0</ele></trkpt>
      <trkpt lat="45.749276" lon="6.800903"><ele>2444.0</ele></trkpt>
      <trkpt lat="45.749424" lon="6.801309"><ele>2444.0</ele></trkpt>
      <trkpt lat="45.749439" lon="6.801698"><ele>2444.0</ele></trkpt>
      <trkpt lat="45.749572" lon="6.802061"><ele>2444.0</ele></trkpt>
      <trkpt lat="45.749662" lon="6.802427"><ele>2457.0</ele></trkpt>
      <trkpt lat="45.749807" lon="6.802829"><ele>2457.0</ele></trkpt>
      <trkpt lat="45.749946" lon="6.803188"><ele>2457.0</ele></trkpt>
      <trkpt lat="45.750134" lon="6.803571"><ele>2496.0</ele></trkpt>
      <trkpt lat="45.750280" lon="6.803866"><ele>2496.0</ele></trkpt>
      <trkpt lat="45.750428" lon="6.804198"><ele>2501.0</ele></trkpt>
      <trkpt lat="45.750599" lon="6.804464"><ele>2501.0</ele></trkpt>
      <trkpt lat="45.750725" lon="6.804776"><ele>2501.0</ele></trkpt>
      <trkpt lat="45.750799" lon="6.805099"><ele>2501.0</ele></trkpt>
      <trkpt lat="45.750968" lon="6.805441"><ele>2501.0</ele></trkpt>
      <trkpt lat="45.751153" lon="6.805711"><ele>2501.0</ele></trkpt>
      <trkpt lat="45.751266" lon="6.806005"><ele>2501.0</ele></trkpt>
      <trkpt lat="45.751377" lon="6.806375"><ele>2507.0</ele></trkpt>
      <trkpt lat="45.751438" lon="6.806766"><ele>2507.0</ele></trkpt>
      <trkpt lat="45.751303" lon="6.807199"><ele>2507.0</ele></trkpt>
      <trkpt lat="45.751235" lon="6.807577"><ele>2507.0</ele></trkpt>
      <trkpt lat="45.750997" lon="6.807746"><ele>2507.0</ele></trkpt>
      <trkpt lat="45.750933" lon="6.808097"><ele>2507.0</ele></trkpt>
      <trkpt lat="45.751096" lon="6.808451"><ele>2490.0</ele></trkpt>
      <trkpt lat="45.751183" lon="6.808782"><ele>2490.0</ele></trkpt>
      <trkpt lat="45.751201" lon="6.809128"><ele>2490.0</ele></trkpt>
      <trkpt lat="45.751287" lon="6.809430"><ele>2490.0</ele></trkpt>
      <trkpt lat="45.751338" lon="6.809792"><ele>2490.0</ele></trkpt>
      <trkpt lat="45.751510" lon="6.810181"><ele>2490.0</ele></trkpt>
      <trkpt lat="45.751542" lon="6.810671"><ele>2456.0</ele></trkpt>
      <trkpt lat="45.751599" lon="6.811007"><ele>2456.0</ele></trkpt>
      <trkpt lat="45.751683" lon="6.811349"><ele>2456.0</ele></trkpt>
      <trkpt lat="45.751708" lon="6.811771"><ele>2456.0</ele></trkpt>
      <trkpt lat="45.751530" lon="6.812016"><ele>2456.0</ele></trkpt>
      <trkpt lat="45.751527" lon="6.812409"><ele>2456.0</ele></trkpt>
      <trkpt lat="45.751608" lon="6.812901"><ele>2425.0</ele></trkpt>
      <trkpt lat="45.751703" lon="6.813254"><ele>2425.0</ele></trkpt>
      <trkpt lat="45.751791" lon="6.813607"><ele>2425.0</ele></trkpt>
      <trkpt lat="45.751894" lon="6.813915"><ele>2425.0</ele></trkpt>
      <trkpt lat="45.752073" lon="6.814356"><ele>2425.0</ele></trkpt>
      <trkpt lat="45.752251" lon="6.814634"><ele>2356.0</ele></trkpt>
      <trkpt lat="45.752414" lon="6.814953"><ele>2356.0</ele></trkpt>
      <trkpt lat="45.752485" lon="6.815272"><ele>2356.0</ele></trkpt>
      <trkpt lat="45.752652" lon="6.815513"><ele>2356.0</ele></trkpt>
      <trkpt lat="45.752482" lon="6.815800"><ele>2356.0</ele></trkpt>
      <trkpt lat="45.752538" lon="6.816126"><ele>2356.0</ele></trkpt>
      <trkpt lat="45.752608" lon="6.816477"><ele>2356.0</ele></trkpt>
      <trkpt lat="45.752578" lon="6.816824"><ele>2311.0</ele></trkpt>
      <trkpt lat="45.752568" lon="6.817238"><ele>2311.0</ele></trkpt>
      <trkpt lat="45.752559" lon="6.817588"><ele>2311.0</ele></trkpt>
      <trkpt lat="45.752642" lon="6.817952"><ele>2311.0</ele></trkpt>
      <trkpt lat="45.752942" lon="6.818155"><ele>2311.0</ele></trkpt>
      <trkpt lat="45.753164" lon="6.818274"><ele>2311.0</ele></trkpt>
      <trkpt lat="45.753430" lon="6.818176"><ele>2311.0</ele></trkpt>
      <trkpt lat="45.753639" lon="6.818463"><ele>2311.0</ele></trkpt>
      <trkpt lat="45.753869" lon="6.818831"><ele>2276.0</ele></trkpt>
      <trkpt lat="45.754095" lon="6.818891"><ele>2276.0</ele></trkpt>
      <trkpt lat="45.754155" lon="6.819273"><ele>2276.0</ele></trkpt>
      <trkpt lat="45.754293" lon="6.819616"><ele>2329.0</ele></trkpt>
      <trkpt lat="45.754334" lon="6.819998"><ele>2329.0</ele></trkpt>
      <trkpt lat="45.754355" lon="6.820402"><ele>2329.0</ele></trkpt>
      <trkpt lat="45.754318" lon="6.820765"><ele>2329.0</ele></trkpt>
      <trkpt lat="45.754370" lon="6.821085"><ele>2314.0</ele></trkpt>
      <trkpt lat="45.754332" lon="6.821405"><ele>2314.0</ele></trkpt>
      <trkpt lat="45.754441" lon="6.821695"><ele>2314.0</ele></trkpt>
      <trkpt lat="45.754516" lon="6.822037"><ele>2314.0</ele></trkpt>
      <trkpt lat="45.754692" lon="6.822428"><ele>2314.0</ele></trkpt>
      <trkpt lat="45.754888" lon="6.822769"><ele>2314.0</ele></trkpt>
      <trkpt lat="45.755129" lon="6.823228"><ele>2276.0</ele></trkpt>
      <trkpt lat="45.755375" lon="6.823746"><ele>2276.0</ele></trkpt>
      <trkpt lat="45.755464" lon="6.824049"><ele>2276.0</ele></trkpt>
      <trkpt lat="45.755647" lon="6.824523"><ele>2276.0</ele></trkpt>
      <trkpt lat="45.755778" lon="6.824865"><ele>2276.0</ele></trkpt>
      <trkpt lat="45.755981" lon="6.825093"><ele>2214.0</ele></trkpt>
      <trkpt lat="45.756206" lon="6.825504"><ele>2214.0</ele></trkpt>
      <trkpt lat="45.756367" lon="6.825877"><ele>2258.0</ele></trkpt>
      <trkpt lat="45.756560" lon="6.826148"><ele>2258.0</ele></trkpt>
      <trkpt lat="45.756723" lon="6.826414"><ele>2258.0</ele></trkpt>
      <trkpt lat="45.756941" lon="6.826664"><ele>2258.0</ele></trkpt>
      <trkpt lat="45.757241" lon="6.826903"><ele>2258.0</ele></trkpt>
      <trkpt lat="45.757386" lon="6.827153"><ele>2206.0</ele></trkpt>
      <trkpt lat="45.757593" lon="6.827524"><ele>2206.0</ele></trkpt>
      <trkpt lat="45.757766" lon="6.827856"><ele>2206.0</ele></trkpt>
      <trkpt lat="45.757978" lon="6.828318"><ele>2206.0</ele></trkpt>
      <trkpt lat="45.758183" lon="6.828577"><ele>2206.0</ele></trkpt>
      <trkpt lat="45.758389" lon="6.828937"><ele>2260.0</ele></trkpt>
      <trkpt lat="45.758541" lon="6.829332"><ele>2216.0</ele></trkpt>
      <trkpt lat="45.758671" lon="6.829693"><ele>2216.0</ele></trkpt>
      <trkpt lat="45.758774" lon="6.829994"><ele>2216.0</ele></trkpt>
      <trkpt lat="45.758989" lon="6.830354"><ele>2216.0</ele></trkpt>
      <trkpt lat="45.759169" lon="6.830614"><ele>2216.0</ele></trkpt>
      <trkpt lat="45.759393" lon="6.831059"><ele>2216.0</ele></trkpt>
      <trkpt lat="45.759550" lon="6.831383"><ele>2166.0</ele></trkpt>
      <trkpt lat="45.759694" lon="6.831750"><ele>2166.0</ele></trkpt>
      <trkpt lat="45.759857" lon="6.832038"><ele>2166.0</ele></trkpt>
      <trkpt lat="45.760071" lon="6.832384"><ele>2166.0</ele></trkpt>
      <trkpt lat="45.760261" lon="6.832690"><ele>2166.0</ele></trkpt>
      <trkpt lat="45.760423" lon="6.832925"><ele>2208.0</ele></trkpt>
      <trkpt lat="45.760618" lon="6.833227"><ele>2208.0</ele></trkpt>
      <trkpt lat="45.760776" lon="6.833540"><ele>2157.0</ele></trkpt>
      <trkpt lat="45.760960" lon="6.833735"><ele>2157.0</ele></trkpt>
      <trkpt lat="45.761255" lon="6.834028"><ele>2157.0</ele></trkpt>
      <trkpt lat="45.761431" lon="6.834266"><ele>2157.0</ele></trkpt>
      <trkpt lat="45.761688" lon="6.834443"><ele>2157.0</ele></trkpt>
      <trkpt lat="45.761979" lon="6.834714"><ele>2157.0</ele></trkpt>
      <trkpt lat="45.762209" lon="6.835022"><ele>2157.0</ele></trkpt>
      <trkpt lat="45.762418" lon="6.835398"><ele>2157.0</ele></trkpt>
      <trkpt lat="45.762686" lon="6.835764"><ele>2157.0</ele></trkpt>
      <trkpt lat="45.762896" lon="6.835930"><ele>2157.0</ele></trkpt>
      <trkpt lat="45.763067" lon="6.836179"><ele>2157.0</ele></trkpt>
      <trkpt lat="45.763264" lon="6.836408"><ele>2157.0</ele></trkpt>
      <trkpt lat="45.763528" lon="6.836566"><ele>2157.0</ele></trkpt>
      <trkpt lat="45.763776" lon="6.836685"><ele>2157.0</ele></trkpt>
      <trkpt lat="45.764075" lon="6.836963"><ele>2157.0</ele></trkpt>
      <trkpt lat="45.764260" lon="6.837223"><ele>2157.0</ele></trkpt>
      <trkpt lat="45.764434" lon="6.837515"><ele>2146.0</ele></trkpt>
      <trkpt lat="45.764764" lon="6.837602"><ele>2149.0</ele></trkpt>
      <trkpt lat="45.764964" lon="6.837325"><ele>2198.0</ele></trkpt>
      <trkpt lat="45.765239" lon="6.837061"><ele>2198.0</ele></trkpt>
      <trkpt lat="45.765600" lon="6.836999"><ele>2198.0</ele></trkpt>
      <trkpt lat="45.765858" lon="6.837206"><ele>2198.0</ele></trkpt>
      <trkpt lat="45.766082" lon="6.837431"><ele>2198.0</ele></trkpt>
      <trkpt lat="45.766351" lon="6.837503"><ele>2149.0</ele></trkpt>
      <trkpt lat="45.766642" lon="6.837395"><ele>2198.0</ele></trkpt>
      <trkpt lat="45.766844" lon="6.837495"><ele>2193.0</ele></trkpt>
    </trkseg>
  </trk>
</gpx>
