<?xml version="1.0" encoding="UTF-8"?>
<gpx version="1.1" creator="TrailShare content prep" xmlns="http://www.topografix.com/GPX/1/1">
  <metadata>
    <name>TMB Tappa 5: Courmayeur → Rifugio Walter Bonatti</name>
    <desc>Tour du Mont Blanc, tappa 5/7 (IT). Geometria: OpenStreetMap contributors (ODbL), relation OSM tappa CCW. Elevazione: Open-Elevation (SRTM).</desc>
  </metadata>
  <trk>
    <name>TMB Tappa 5: Courmayeur → Rifugio Walter Bonatti</name>
    <trkseg>
      <trkpt lat="45.835455" lon="7.020916"><ele>2058.0</ele></trkpt>
      <trkpt lat="45.835338" lon="7.020570"><ele>2067.0</ele></trkpt>
      <trkpt lat="45.835398" lon="7.020189"><ele>2067.0</ele></trkpt>
      <trkpt lat="45.835268" lon="7.019758"><ele>2067.0</ele></trkpt>
      <trkpt lat="45.835304" lon="7.019384"><ele>2067.0</ele></trkpt>
      <trkpt lat="45.835522" lon="7.018924"><ele>1973.0</ele></trkpt>
      <trkpt lat="45.835698" lon="7.018610"><ele>1984.0</ele></trkpt>
      <trkpt lat="45.835801" lon="7.018223"><ele>1984.0</ele></trkpt>
      <trkpt lat="45.835970" lon="7.017965"><ele>1984.0</ele></trkpt>
      <trkpt lat="45.836181" lon="7.017606"><ele>1984.0</ele></trkpt>
      <trkpt lat="45.836336" lon="7.017234"><ele>1984.0</ele></trkpt>
      <trkpt lat="45.836385" lon="7.016908"><ele>1984.0</ele></trkpt>
      <trkpt lat="45.836400" lon="7.016385"><ele>1963.0</ele></trkpt>
      <trkpt lat="45.836233" lon="7.016041"><ele>1963.0</ele></trkpt>
      <trkpt lat="45.835918" lon="7.015280"><ele>1963.0</ele></trkpt>
      <trkpt lat="45.835768" lon="7.014915"><ele>1963.0</ele></trkpt>
      <trkpt lat="45.835492" lon="7.014359"><ele>1901.0</ele></trkpt>
      <trkpt lat="45.835248" lon="7.013896"><ele>2029.0</ele></trkpt>
      <trkpt lat="45.835169" lon="7.013470"><ele>2029.0</ele></trkpt>
      <trkpt lat="45.835034" lon="7.012856"><ele>2029.0</ele></trkpt>
      <trkpt lat="45.834899" lon="7.012469"><ele>1967.0</ele></trkpt>
      <trkpt lat="45.834706" lon="7.012129"><ele>1967.0</ele></trkpt>
      <trkpt lat="45.834462" lon="7.011812"><ele>1967.0</ele></trkpt>
      <trkpt lat="45.834392" lon="7.011501"><ele>1967.0</ele></trkpt>
      <trkpt lat="45.834427" lon="7.011085"><ele>1967.0</ele></trkpt>
      <trkpt lat="45.834401" lon="7.010748"><ele>1967.0</ele></trkpt>
      <trkpt lat="45.834271" lon="7.010280"><ele>1929.0</ele></trkpt>
      <trkpt lat="45.834052" lon="7.009838"><ele>1929.0</ele></trkpt>
      <trkpt lat="45.833665" lon="7.009211"><ele>1929.0</ele></trkpt>
      <trkpt lat="45.833281" lon="7.008546"><ele>2041.0</ele></trkpt>
      <trkpt lat="45.833018" lon="7.008238"><ele>1970.0</ele></trkpt>
      <trkpt lat="45.832879" lon="7.007776"><ele>1970.0</ele></trkpt>
      <trkpt lat="45.833126" lon="7.007790"><ele>1970.0</ele></trkpt>
      <trkpt lat="45.832894" lon="7.007379"><ele>1970.0</ele></trkpt>
      <trkpt lat="45.832637" lon="7.006985"><ele>1970.0</ele></trkpt>
      <trkpt lat="45.832416" lon="7.006532"><ele>1970.0</ele></trkpt>
      <trkpt lat="45.832189" lon="7.006293"><ele>1970.0</ele></trkpt>
      <trkpt lat="45.831892" lon="7.005912"><ele>1903.0</ele></trkpt>
      <trkpt lat="45.831644" lon="7.005702"><ele>1903.0</ele></trkpt>
      <trkpt lat="45.831443" lon="7.005236"><ele>1903.0</ele></trkpt>
      <trkpt lat="45.831204" lon="7.005019"><ele>1996.0</ele></trkpt>
      <trkpt lat="45.830755" lon="7.004561"><ele>1996.0</ele></trkpt>
      <trkpt lat="45.830417" lon="7.004333"><ele>1996.0</ele></trkpt>
      <trkpt lat="45.830170" lon="7.004145"><ele>1910.0</ele></trkpt>
      <trkpt lat="45.829789" lon="7.003650"><ele>1910.0</ele></trkpt>
      <trkpt lat="45.829678" lon="7.003330"><ele>1910.0</ele></trkpt>
      <trkpt lat="45.829267" lon="7.003007"><ele>1910.0</ele></trkpt>
      <trkpt lat="45.829009" lon="7.003025"><ele>2005.0</ele></trkpt>
      <trkpt lat="45.828770" lon="7.002705"><ele>2005.0</ele></trkpt>
      <trkpt lat="45.828528" lon="7.002357"><ele>2005.0</ele></trkpt>
      <trkpt lat="45.828224" lon="7.001968"><ele>1973.0</ele></trkpt>
      <trkpt lat="45.828031" lon="7.001340"><ele>1973.0</ele></trkpt>
      <trkpt lat="45.827871" lon="7.000929"><ele>1973.0</ele></trkpt>
      <trkpt lat="45.827659" lon="7.000497"><ele>1973.0</ele></trkpt>
      <trkpt lat="45.827410" lon="6.999932"><ele>1928.0</ele></trkpt>
      <trkpt lat="45.827232" lon="6.999483"><ele>1928.0</ele></trkpt>
      <trkpt lat="45.827143" lon="6.999045"><ele>1928.0</ele></trkpt>
      <trkpt lat="45.826999" lon="6.998638"><ele>2048.0</ele></trkpt>
      <trkpt lat="45.826948" lon="6.998055"><ele>2048.0</ele></trkpt>
      <trkpt lat="45.826830" lon="6.997587"><ele>2001.0</ele></trkpt>
      <trkpt lat="45.826657" lon="6.997139"><ele>2001.0</ele></trkpt>
      <trkpt lat="45.826535" lon="6.996766"><ele>2001.0</ele></trkpt>
      <trkpt lat="45.826095" lon="6.996235"><ele>2001.0</ele></trkpt>
      <trkpt lat="45.825943" lon="6.995908"><ele>2001.0</ele></trkpt>
      <trkpt lat="45.825825" lon="6.995379"><ele>1954.0</ele></trkpt>
      <trkpt lat="45.825753" lon="6.994841"><ele>1954.0</ele></trkpt>
      <trkpt lat="45.825574" lon="6.994391"><ele>1954.0</ele></trkpt>
      <trkpt lat="45.825544" lon="6.993983"><ele>1954.0</ele></trkpt>
      <trkpt lat="45.825589" lon="6.993629"><ele>1931.0</ele></trkpt>
      <trkpt lat="45.825457" lon="6.993167"><ele>1931.0</ele></trkpt>
      <trkpt lat="45.825287" lon="6.992869"><ele>1931.0</ele></trkpt>
      <trkpt lat="45.825145" lon="6.992492"><ele>1931.0</ele></trkpt>
      <trkpt lat="45.825045" lon="6.992154"><ele>1931.0</ele></trkpt>
      <trkpt lat="45.824917" lon="6.991603"><ele>1968.0</ele></trkpt>
      <trkpt lat="45.824793" lon="6.991310"><ele>1968.0</ele></trkpt>
      <trkpt lat="45.824619" lon="6.991027"><ele>1968.0</ele></trkpt>
      <trkpt lat="45.824469" lon="6.990643"><ele>1968.0</ele></trkpt>
      <trkpt lat="45.824331" lon="6.990132"><ele>1968.0</ele></trkpt>
      <trkpt lat="45.824235" lon="6.989611"><ele>1968.0</ele></trkpt>
      <trkpt lat="45.824235" lon="6.989288"><ele>1953.0</ele></trkpt>
      <trkpt lat="45.824138" lon="6.988851"><ele>1953.0</ele></trkpt>
      <trkpt lat="45.823913" lon="6.988340"><ele>1953.0</ele></trkpt>
      <trkpt lat="45.823692" lon="6.987992"><ele>1953.0</ele></trkpt>
      <trkpt lat="45.823367" lon="6.987530"><ele>1953.0</ele></trkpt>
      <trkpt lat="45.823180" lon="6.987277"><ele>1914.0</ele></trkpt>
      <trkpt lat="45.823048" lon="6.987014"><ele>1914.0</ele></trkpt>
      <trkpt lat="45.822564" lon="6.986388"><ele>2002.0</ele></trkpt>
      <trkpt lat="45.822374" lon="6.986151"><ele>2002.0</ele></trkpt>
      <trkpt lat="45.822150" lon="6.985872"><ele>2002.0</ele></trkpt>
      <trkpt lat="45.821985" lon="6.985550"><ele>2002.0</ele></trkpt>
      <trkpt lat="45.821650" lon="6.984799"><ele>1938.0</ele></trkpt>
      <trkpt lat="45.821214" lon="6.984346"><ele>1938.0</ele></trkpt>
      <trkpt lat="45.820937" lon="6.983939"><ele>1938.0</ele></trkpt>
      <trkpt lat="45.820683" lon="6.983351"><ele>2036.0</ele></trkpt>
      <trkpt lat="45.820234" lon="6.982683"><ele>1986.0</ele></trkpt>
      <trkpt lat="45.820037" lon="6.982415"><ele>1986.0</ele></trkpt>
      <trkpt lat="45.819705" lon="6.981898"><ele>1986.0</ele></trkpt>
      <trkpt lat="45.819580" lon="6.981530"><ele>1986.0</ele></trkpt>
      <trkpt lat="45.819400" lon="6.981103"><ele>1943.0</ele></trkpt>
      <trkpt lat="45.818839" lon="6.980358"><ele>1943.0</ele></trkpt>
      <trkpt lat="45.818462" lon="6.980140"><ele>2016.0</ele></trkpt>
      <trkpt lat="45.818140" lon="6.979787"><ele>2016.0</ele></trkpt>
      <trkpt lat="45.817600" lon="6.979469"><ele>2016.0</ele></trkpt>
      <trkpt lat="45.817171" lon="6.979146"><ele>1952.0</ele></trkpt>
      <trkpt lat="45.816745" lon="6.978809"><ele>1952.0</ele></trkpt>
      <trkpt lat="45.816503" lon="6.978650"><ele>2003.0</ele></trkpt>
      <trkpt lat="45.816260" lon="6.978486"><ele>2003.0</ele></trkpt>
      <trkpt lat="45.815859" lon="6.978138"><ele>2003.0</ele></trkpt>
      <trkpt lat="45.815585" lon="6.977959"><ele>2003.0</ele></trkpt>
      <trkpt lat="45.815336" lon="6.977920"><ele>2003.0</ele></trkpt>
      <trkpt lat="45.815021" lon="6.977781"><ele>2003.0</ele></trkpt>
      <trkpt lat="45.814772" lon="6.977801"><ele>2003.0</ele></trkpt>
      <trkpt lat="45.814665" lon="6.978128"><ele>2003.0</ele></trkpt>
      <trkpt lat="45.814422" lon="6.978302"><ele>2007.0</ele></trkpt>
      <trkpt lat="45.813851" lon="6.978252"><ele>2007.0</ele></trkpt>
      <trkpt lat="45.813585" lon="6.978233"><ele>2007.0</ele></trkpt>
      <trkpt lat="45.813297" lon="6.978148"><ele>2007.0</ele></trkpt>
      <trkpt lat="45.812990" lon="6.978207"><ele>2007.0</ele></trkpt>
      <trkpt lat="45.812727" lon="6.978418"><ele>2007.0</ele></trkpt>
      <trkpt lat="45.812367" lon="6.978362"><ele>1987.0</ele></trkpt>
      <trkpt lat="45.812018" lon="6.978428"><ele>1987.0</ele></trkpt>
      <trkpt lat="45.811759" lon="6.978535"><ele>1987.0</ele></trkpt>
      <trkpt lat="45.811544" lon="6.978749"><ele>1987.0</ele></trkpt>
      <trkpt lat="45.811317" lon="6.979097"><ele>1987.0</ele></trkpt>
      <trkpt lat="45.811115" lon="6.979453"><ele>2084.0</ele></trkpt>
      <trkpt lat="45.810887" lon="6.979652"><ele>2084.0</ele></trkpt>
      <trkpt lat="45.810618" lon="6.979718"><ele>2084.0</ele></trkpt>
      <trkpt lat="45.810387" lon="6.979726"><ele>1987.0</ele></trkpt>
      <trkpt lat="45.810252" lon="6.980032"><ele>1987.0</ele></trkpt>
      <trkpt lat="45.809948" lon="6.979997"><ele>1987.0</ele></trkpt>
      <trkpt lat="45.809773" lon="6.979753"><ele>1987.0</ele></trkpt>
      <trkpt lat="45.809610" lon="6.979524"><ele>1987.0</ele></trkpt>
      <trkpt lat="45.809560" lon="6.979014"><ele>1991.0</ele></trkpt>
      <trkpt lat="45.809195" lon="6.978598"><ele>1991.0</ele></trkpt>
      <trkpt lat="45.808940" lon="6.978725"><ele>1991.0</ele></trkpt>
      <trkpt lat="45.808714" lon="6.978432"><ele>1991.0</ele></trkpt>
      <trkpt lat="45.808496" lon="6.978265"><ele>1991.0</ele></trkpt>
      <trkpt lat="45.808391" lon="6.977734"><ele>1991.0</ele></trkpt>
      <trkpt lat="45.808181" lon="6.977480"><ele>1884.0</ele></trkpt>
      <trkpt lat="45.807934" lon="6.977306"><ele>1884.0</ele></trkpt>
      <trkpt lat="45.807786" lon="6.977557"><ele>1884.0</ele></trkpt>
      <trkpt lat="45.807841" lon="6.977871"><ele>1884.0</ele></trkpt>
      <trkpt lat="45.807821" lon="6.978196"><ele>1884.0</ele></trkpt>
      <trkpt lat="45.807657" lon="6.978451"><ele>1884.0</ele></trkpt>
      <trkpt lat="45.807530" lon="6.978156"><ele>1884.0</ele></trkpt>
      <trkpt lat="45.807292" lon="6.978303"><ele>1884.0</ele></trkpt>
      <trkpt lat="45.807195" lon="6.978004"><ele>1884.0</ele></trkpt>
      <trkpt lat="45.807071" lon="6.978349"><ele>1884.0</ele></trkpt>
      <trkpt lat="45.807016" lon="6.978685"><ele>1884.0</ele></trkpt>
      <trkpt lat="45.806961" lon="6.979027"><ele>1884.0</ele></trkpt>
      <trkpt lat="45.807013" lon="6.979350"><ele>1845.0</ele></trkpt>
      <trkpt lat="45.807035" lon="6.979742"><ele>1845.0</ele></trkpt>
      <trkpt lat="45.807009" lon="6.980096"><ele>1845.0</ele></trkpt>
      <trkpt lat="45.806955" lon="6.980416"><ele>1845.0</ele></trkpt>
      <trkpt lat="45.807021" lon="6.980746"><ele>1845.0</ele></trkpt>
      <trkpt lat="45.807146" lon="6.981066"><ele>1845.0</ele></trkpt>
      <trkpt lat="45.807151" lon="6.981398"><ele>1790.0</ele></trkpt>
      <trkpt lat="45.807161" lon="6.981804"><ele>1790.0</ele></trkpt>
      <trkpt lat="45.807093" lon="6.982127"><ele>1790.0</ele></trkpt>
      <trkpt lat="45.806874" lon="6.982239"><ele>1790.0</ele></trkpt>
      <trkpt lat="45.806606" lon="6.982179"><ele>1790.0</ele></trkpt>
      <trkpt lat="45.806467" lon="6.981909"><ele>1790.0</ele></trkpt>
      <trkpt lat="45.806352" lon="6.982244"><ele>1790.0</ele></trkpt>
      <trkpt lat="45.806441" lon="6.982567"><ele>1790.0</ele></trkpt>
      <trkpt lat="45.806613" lon="6.982883"><ele>1790.0</ele></trkpt>
      <trkpt lat="45.806762" lon="6.983132"><ele>1790.0</ele></trkpt>
      <trkpt lat="45.806807" lon="6.983494"><ele>1739.0</ele></trkpt>
      <trkpt lat="45.806603" lon="6.983343"><ele>1739.0</ele></trkpt>
      <trkpt lat="45.806634" lon="6.983691"><ele>1739.0</ele></trkpt>
      <trkpt lat="45.806475" lon="6.983944"><ele>1739.0</ele></trkpt>
      <trkpt lat="45.806205" lon="6.983882"><ele>1614.0</ele></trkpt>
      <trkpt lat="45.805961" lon="6.984061"><ele>1614.0</ele></trkpt>
      <trkpt lat="45.805898" lon="6.984450"><ele>1614.0</ele></trkpt>
      <trkpt lat="45.805861" lon="6.984773"><ele>1614.0</ele></trkpt>
      <trkpt lat="45.805643" lon="6.984609"><ele>1614.0</ele></trkpt>
      <trkpt lat="45.805484" lon="6.984354"><ele>1614.0</ele></trkpt>
      <trkpt lat="45.805341" lon="6.984021"><ele>1614.0</ele></trkpt>
      <trkpt lat="45.805217" lon="6.983719"><ele>1614.0</ele></trkpt>
      <trkpt lat="45.805091" lon="6.984006"><ele>1614.0</ele></trkpt>
      <trkpt lat="45.804942" lon="6.984318"><ele>1614.0</ele></trkpt>
      <trkpt lat="45.804863" lon="6.984697"><ele>1614.0</ele></trkpt>
      <trkpt lat="45.804754" lon="6.985036"><ele>1614.0</ele></trkpt>
      <trkpt lat="45.804779" lon="6.985384"><ele>1614.0</ele></trkpt>
      <trkpt lat="45.804808" lon="6.985725"><ele>1585.0</ele></trkpt>
      <trkpt lat="45.804884" lon="6.986054"><ele>1585.0</ele></trkpt>
      <trkpt lat="45.804823" lon="6.986390"><ele>1585.0</ele></trkpt>
      <trkpt lat="45.804565" lon="6.986311"><ele>1585.0</ele></trkpt>
      <trkpt lat="45.804346" lon="6.986446"><ele>1585.0</ele></trkpt>
      <trkpt lat="45.804131" lon="6.986215"><ele>1467.0</ele></trkpt>
      <trkpt lat="45.803918" lon="6.986023"><ele>1467.0</ele></trkpt>
      <trkpt lat="45.803799" lon="6.986297"><ele>1467.0</ele></trkpt>
      <trkpt lat="45.803587" lon="6.986096"><ele>1467.0</ele></trkpt>
      <trkpt lat="45.803397" lon="6.986402"><ele>1467.0</ele></trkpt>
      <trkpt lat="45.803202" lon="6.986639"><ele>1467.0</ele></trkpt>
      <trkpt lat="45.802971" lon="6.986529"><ele>1467.0</ele></trkpt>
      <trkpt lat="45.802943" lon="6.986145"><ele>1467.0</ele></trkpt>
      <trkpt lat="45.802960" lon="6.985798"><ele>1467.0</ele></trkpt>
      <trkpt lat="45.802809" lon="6.985510"><ele>1467.0</ele></trkpt>
      <trkpt lat="45.802636" lon="6.985778"><ele>1467.0</ele></trkpt>
      <trkpt lat="45.802403" lon="6.985616"><ele>1467.0</ele></trkpt>
      <trkpt lat="45.802327" lon="6.985267"><ele>1470.0</ele></trkpt>
      <trkpt lat="45.802172" lon="6.984950"><ele>1470.0</ele></trkpt>
      <trkpt lat="45.802074" lon="6.984575"><ele>1405.0</ele></trkpt>
      <trkpt lat="45.801797" lon="6.984524"><ele>1405.0</ele></trkpt>
      <trkpt lat="45.801756" lon="6.984186"><ele>1405.0</ele></trkpt>
      <trkpt lat="45.801504" lon="6.984157"><ele>1405.0</ele></trkpt>
      <trkpt lat="45.801480" lon="6.984519"><ele>1405.0</ele></trkpt>
      <trkpt lat="45.801217" lon="6.984581"><ele>1405.0</ele></trkpt>
      <trkpt lat="45.801068" lon="6.984324"><ele>1405.0</ele></trkpt>
      <trkpt lat="45.800981" lon="6.983966"><ele>1405.0</ele></trkpt>
      <trkpt lat="45.800898" lon="6.983554"><ele>1405.0</ele></trkpt>
      <trkpt lat="45.800796" lon="6.982930"><ele>1366.0</ele></trkpt>
      <trkpt lat="45.801012" lon="6.982184"><ele>1366.0</ele></trkpt>
      <trkpt lat="45.801090" lon="6.981747"><ele>1366.0</ele></trkpt>
      <trkpt lat="45.801018" lon="6.981390"><ele>1366.0</ele></trkpt>
      <trkpt lat="45.800958" lon="6.980945"><ele>1348.0</ele></trkpt>
      <trkpt lat="45.800915" lon="6.980608"><ele>1348.0</ele></trkpt>
      <trkpt lat="45.800680" lon="6.980376"><ele>1348.0</ele></trkpt>
      <trkpt lat="45.800484" lon="6.980124"><ele>1348.0</ele></trkpt>
      <trkpt lat="45.800174" lon="6.979765"><ele>1348.0</ele></trkpt>
      <trkpt lat="45.800004" lon="6.979492"><ele>1348.0</ele></trkpt>
      <trkpt lat="45.799852" lon="6.979243"><ele>1373.0</ele></trkpt>
      <trkpt lat="45.799622" lon="6.978848"><ele>1305.0</ele></trkpt>
      <trkpt lat="45.799425" lon="6.978631"><ele>1305.0</ele></trkpt>
      <trkpt lat="45.799298" lon="6.978333"><ele>1305.0</ele></trkpt>
      <trkpt lat="45.798994" lon="6.977917"><ele>1305.0</ele></trkpt>
      <trkpt lat="45.798730" lon="6.977622"><ele>1305.0</ele></trkpt>
      <trkpt lat="45.798369" lon="6.977192"><ele>1305.0</ele></trkpt>
      <trkpt lat="45.798156" lon="6.976936"><ele>1293.0</ele></trkpt>
      <trkpt lat="45.797985" lon="6.976666"><ele>1293.0</ele></trkpt>
      <trkpt lat="45.797834" lon="6.976383"><ele>1278.0</ele></trkpt>
      <trkpt lat="45.797667" lon="6.976104"><ele>1278.0</ele></trkpt>
      <trkpt lat="45.797455" lon="6.975836"><ele>1278.0</ele></trkpt>
      <trkpt lat="45.797133" lon="6.975637"><ele>1278.0</ele></trkpt>
      <trkpt lat="45.796750" lon="6.975398"><ele>1278.0</ele></trkpt>
      <trkpt lat="45.796402" lon="6.975251"><ele>1278.0</ele></trkpt>
      <trkpt lat="45.796009" lon="6.974958"><ele>1265.0</ele></trkpt>
      <trkpt lat="45.795705" lon="6.974815"><ele>1259.0</ele></trkpt>
      <trkpt lat="45.795441" lon="6.974696"><ele>1259.0</ele></trkpt>
      <trkpt lat="45.795198" lon="6.974536"><ele>1259.0</ele></trkpt>
      <trkpt lat="45.794806" lon="6.974233"><ele>1259.0</ele></trkpt>
      <trkpt lat="45.794523" lon="6.974130"><ele>1259.0</ele></trkpt>
      <trkpt lat="45.794308" lon="6.974025"><ele>1259.0</ele></trkpt>
      <trkpt lat="45.793796" lon="6.973753"><ele>1259.0</ele></trkpt>
      <trkpt lat="45.793575" lon="6.973582"><ele>1265.0</ele></trkpt>
      <trkpt lat="45.793267" lon="6.973356"><ele>1265.0</ele></trkpt>
      <trkpt lat="45.792928" lon="6.973107"><ele>1265.0</ele></trkpt>
      <trkpt lat="45.792635" lon="6.972863"><ele>1225.0</ele></trkpt>
      <trkpt lat="45.792357" lon="6.972679"><ele>1225.0</ele></trkpt>
      <trkpt lat="45.792016" lon="6.972659"><ele>1225.0</ele></trkpt>
      <trkpt lat="45.791737" lon="6.972685"><ele>1225.0</ele></trkpt>
      <trkpt lat="45.791649" lon="6.972519"><ele>1209.0</ele></trkpt>
    </trkseg>
  </trk>
</gpx>
