<?xml version="1.0" encoding="UTF-8"?>
<gpx version="1.1" creator="TrailShare content prep" xmlns="http://www.topografix.com/GPX/1/1">
  <metadata>
    <name>TMB Tappa 4: Rifugio Elisabetta → Courmayeur</name>
    <desc>Tour du Mont Blanc, tappa 4/7 (IT). Geometria: OpenStreetMap contributors (ODbL), relation OSM tappa CCW. Elevazione: Open-Elevation (SRTM).</desc>
  </metadata>
  <trk>
    <name>TMB Tappa 4: Rifugio Elisabetta → Courmayeur</name>
    <trkseg>
      <trkpt lat="45.792699" lon="6.967044"><ele>1176.0</ele></trkpt>
      <trkpt lat="45.792410" lon="6.966594"><ele>1181.0</ele></trkpt>
      <trkpt lat="45.792330" lon="6.966268"><ele>1181.0</ele></trkpt>
      <trkpt lat="45.792192" lon="6.965530"><ele>1181.0</ele></trkpt>
      <trkpt lat="45.792074" lon="6.965249"><ele>1181.0</ele></trkpt>
      <trkpt lat="45.791695" lon="6.965388"><ele>1181.0</ele></trkpt>
      <trkpt lat="45.791429" lon="6.965623"><ele>1202.0</ele></trkpt>
      <trkpt lat="45.791173" lon="6.965789"><ele>1202.0</ele></trkpt>
      <trkpt lat="45.790779" lon="6.965827"><ele>1202.0</ele></trkpt>
      <trkpt lat="45.790438" lon="6.965743"><ele>1202.0</ele></trkpt>
      <trkpt lat="45.790570" lon="6.965435"><ele>1202.0</ele></trkpt>
      <trkpt lat="45.790703" lon="6.965167"><ele>1202.0</ele></trkpt>
      <trkpt lat="45.790823" lon="6.964848"><ele>1202.0</ele></trkpt>
      <trkpt lat="45.790816" lon="6.964403"><ele>1215.0</ele></trkpt>
      <trkpt lat="45.790579" lon="6.964372"><ele>1215.0</ele></trkpt>
      <trkpt lat="45.790250" lon="6.964412"><ele>1215.0</ele></trkpt>
      <trkpt lat="45.790010" lon="6.964326"><ele>1215.0</ele></trkpt>
      <trkpt lat="45.789791" lon="6.963984"><ele>1215.0</ele></trkpt>
      <trkpt lat="45.789665" lon="6.963706"><ele>1215.0</ele></trkpt>
      <trkpt lat="45.789538" lon="6.963310"><ele>1221.0</ele></trkpt>
      <trkpt lat="45.789447" lon="6.962990"><ele>1221.0</ele></trkpt>
      <trkpt lat="45.789252" lon="6.962760"><ele>1221.0</ele></trkpt>
      <trkpt lat="45.789100" lon="6.962421"><ele>1237.0</ele></trkpt>
      <trkpt lat="45.788961" lon="6.962062"><ele>1237.0</ele></trkpt>
      <trkpt lat="45.788886" lon="6.961753"><ele>1237.0</ele></trkpt>
      <trkpt lat="45.788826" lon="6.961396"><ele>1237.0</ele></trkpt>
      <trkpt lat="45.788752" lon="6.961075"><ele>1237.0</ele></trkpt>
      <trkpt lat="45.788640" lon="6.960748"><ele>1237.0</ele></trkpt>
      <trkpt lat="45.788662" lon="6.960383"><ele>1249.0</ele></trkpt>
      <trkpt lat="45.788700" lon="6.960012"><ele>1249.0</ele></trkpt>
      <trkpt lat="45.788670" lon="6.959651"><ele>1249.0</ele></trkpt>
      <trkpt lat="45.788731" lon="6.959333"><ele>1249.0</ele></trkpt>
      <trkpt lat="45.788752" lon="6.958956"><ele>1249.0</ele></trkpt>
      <trkpt lat="45.789050" lon="6.958939"><ele>1249.0</ele></trkpt>
      <trkpt lat="45.789295" lon="6.958951"><ele>1249.0</ele></trkpt>
      <trkpt lat="45.789598" lon="6.959015"><ele>1260.0</ele></trkpt>
      <trkpt lat="45.789857" lon="6.958979"><ele>1260.0</ele></trkpt>
      <trkpt lat="45.790127" lon="6.958747"><ele>1260.0</ele></trkpt>
      <trkpt lat="45.790403" lon="6.958523"><ele>1260.0</ele></trkpt>
      <trkpt lat="45.790628" lon="6.958291"><ele>1337.0</ele></trkpt>
      <trkpt lat="45.790841" lon="6.957999"><ele>1337.0</ele></trkpt>
      <trkpt lat="45.791077" lon="6.957772"><ele>1337.0</ele></trkpt>
      <trkpt lat="45.790921" lon="6.957475"><ele>1337.0</ele></trkpt>
      <trkpt lat="45.791125" lon="6.957268"><ele>1337.0</ele></trkpt>
      <trkpt lat="45.790951" lon="6.957014"><ele>1337.0</ele></trkpt>
      <trkpt lat="45.790758" lon="6.956832"><ele>1337.0</ele></trkpt>
      <trkpt lat="45.790949" lon="6.956532"><ele>1337.0</ele></trkpt>
      <trkpt lat="45.791248" lon="6.956396"><ele>1337.0</ele></trkpt>
      <trkpt lat="45.791503" lon="6.956301"><ele>1337.0</ele></trkpt>
      <trkpt lat="45.791446" lon="6.955979"><ele>1444.0</ele></trkpt>
      <trkpt lat="45.791583" lon="6.955657"><ele>1444.0</ele></trkpt>
      <trkpt lat="45.791400" lon="6.955463"><ele>1444.0</ele></trkpt>
      <trkpt lat="45.791139" lon="6.955353"><ele>1444.0</ele></trkpt>
      <trkpt lat="45.790878" lon="6.955290"><ele>1444.0</ele></trkpt>
      <trkpt lat="45.790649" lon="6.955090"><ele>1444.0</ele></trkpt>
      <trkpt lat="45.790439" lon="6.954928"><ele>1444.0</ele></trkpt>
      <trkpt lat="45.790464" lon="6.954538"><ele>1444.0</ele></trkpt>
      <trkpt lat="45.790601" lon="6.954163"><ele>1505.0</ele></trkpt>
      <trkpt lat="45.790544" lon="6.953384"><ele>1505.0</ele></trkpt>
      <trkpt lat="45.790574" lon="6.952660"><ele>1505.0</ele></trkpt>
      <trkpt lat="45.790625" lon="6.952298"><ele>1505.0</ele></trkpt>
      <trkpt lat="45.790670" lon="6.951976"><ele>1536.0</ele></trkpt>
      <trkpt lat="45.790691" lon="6.951595"><ele>1536.0</ele></trkpt>
      <trkpt lat="45.790632" lon="6.951250"><ele>1536.0</ele></trkpt>
      <trkpt lat="45.790482" lon="6.951008"><ele>1536.0</ele></trkpt>
      <trkpt lat="45.790224" lon="6.950764"><ele>1536.0</ele></trkpt>
      <trkpt lat="45.790145" lon="6.950403"><ele>1536.0</ele></trkpt>
      <trkpt lat="45.790166" lon="6.950035"><ele>1536.0</ele></trkpt>
      <trkpt lat="45.790118" lon="6.949631"><ele>1598.0</ele></trkpt>
      <trkpt lat="45.789990" lon="6.949315"><ele>1598.0</ele></trkpt>
      <trkpt lat="45.790253" lon="6.949399"><ele>1598.0</ele></trkpt>
      <trkpt lat="45.790469" lon="6.949593"><ele>1598.0</ele></trkpt>
      <trkpt lat="45.790830" lon="6.950071"><ele>1536.0</ele></trkpt>
      <trkpt lat="45.790884" lon="6.949700"><ele>1598.0</ele></trkpt>
      <trkpt lat="45.790710" lon="6.949107"><ele>1598.0</ele></trkpt>
      <trkpt lat="45.790515" lon="6.948829"><ele>1598.0</ele></trkpt>
      <trkpt lat="45.790298" lon="6.948645"><ele>1598.0</ele></trkpt>
      <trkpt lat="45.790211" lon="6.947510"><ele>1657.0</ele></trkpt>
      <trkpt lat="45.790227" lon="6.947065"><ele>1657.0</ele></trkpt>
      <trkpt lat="45.790094" lon="6.946459"><ele>1657.0</ele></trkpt>
      <trkpt lat="45.789966" lon="6.945871"><ele>1657.0</ele></trkpt>
      <trkpt lat="45.789775" lon="6.945546"><ele>1691.0</ele></trkpt>
      <trkpt lat="45.789488" lon="6.945479"><ele>1688.0</ele></trkpt>
      <trkpt lat="45.789314" lon="6.945707"><ele>1688.0</ele></trkpt>
      <trkpt lat="45.789332" lon="6.945222"><ele>1688.0</ele></trkpt>
      <trkpt lat="45.789862" lon="6.944980"><ele>1691.0</ele></trkpt>
      <trkpt lat="45.790133" lon="6.945091"><ele>1691.0</ele></trkpt>
      <trkpt lat="45.790299" lon="6.945408"><ele>1691.0</ele></trkpt>
      <trkpt lat="45.790527" lon="6.945740"><ele>1691.0</ele></trkpt>
      <trkpt lat="45.790798" lon="6.945888"><ele>1657.0</ele></trkpt>
      <trkpt lat="45.790874" lon="6.945527"><ele>1691.0</ele></trkpt>
      <trkpt lat="45.791015" lon="6.945259"><ele>1691.0</ele></trkpt>
      <trkpt lat="45.791227" lon="6.945609"><ele>1691.0</ele></trkpt>
      <trkpt lat="45.791369" lon="6.945324"><ele>1691.0</ele></trkpt>
      <trkpt lat="45.791356" lon="6.944784"><ele>1691.0</ele></trkpt>
      <trkpt lat="45.791386" lon="6.944416"><ele>1691.0</ele></trkpt>
      <trkpt lat="45.791444" lon="6.944020"><ele>1691.0</ele></trkpt>
      <trkpt lat="45.791514" lon="6.943677"><ele>1720.0</ele></trkpt>
      <trkpt lat="45.791492" lon="6.943354"><ele>1720.0</ele></trkpt>
      <trkpt lat="45.791322" lon="6.943075"><ele>1720.0</ele></trkpt>
      <trkpt lat="45.791119" lon="6.942854"><ele>1720.0</ele></trkpt>
      <trkpt lat="45.790946" lon="6.942504"><ele>1720.0</ele></trkpt>
      <trkpt lat="45.790820" lon="6.942091"><ele>1720.0</ele></trkpt>
      <trkpt lat="45.790727" lon="6.941720"><ele>1720.0</ele></trkpt>
      <trkpt lat="45.790618" lon="6.941425"><ele>1764.0</ele></trkpt>
      <trkpt lat="45.790476" lon="6.941105"><ele>1764.0</ele></trkpt>
      <trkpt lat="45.790491" lon="6.940774"><ele>1764.0</ele></trkpt>
      <trkpt lat="45.790549" lon="6.940375"><ele>1764.0</ele></trkpt>
      <trkpt lat="45.790590" lon="6.940040"><ele>1764.0</ele></trkpt>
      <trkpt lat="45.790501" lon="6.939742"><ele>1764.0</ele></trkpt>
      <trkpt lat="45.790493" lon="6.939397"><ele>1802.0</ele></trkpt>
      <trkpt lat="45.790740" lon="6.939544"><ele>1802.0</ele></trkpt>
      <trkpt lat="45.791022" lon="6.940042"><ele>1764.0</ele></trkpt>
      <trkpt lat="45.791246" lon="6.940231"><ele>1764.0</ele></trkpt>
      <trkpt lat="45.791527" lon="6.940192"><ele>1764.0</ele></trkpt>
      <trkpt lat="45.791782" lon="6.940391"><ele>1854.0</ele></trkpt>
      <trkpt lat="45.792009" lon="6.940271"><ele>1854.0</ele></trkpt>
      <trkpt lat="45.792133" lon="6.939882"><ele>1854.0</ele></trkpt>
      <trkpt lat="45.792252" lon="6.939604"><ele>1854.0</ele></trkpt>
      <trkpt lat="45.792351" lon="6.939282"><ele>1861.0</ele></trkpt>
      <trkpt lat="45.792318" lon="6.938923"><ele>1861.0</ele></trkpt>
      <trkpt lat="45.792321" lon="6.938574"><ele>1861.0</ele></trkpt>
      <trkpt lat="45.792482" lon="6.938285"><ele>1861.0</ele></trkpt>
      <trkpt lat="45.792652" lon="6.938053"><ele>1861.0</ele></trkpt>
      <trkpt lat="45.792818" lon="6.938312"><ele>1861.0</ele></trkpt>
      <trkpt lat="45.792823" lon="6.938661"><ele>1861.0</ele></trkpt>
      <trkpt lat="45.793043" lon="6.938788"><ele>1861.0</ele></trkpt>
      <trkpt lat="45.793260" lon="6.938616"><ele>1861.0</ele></trkpt>
      <trkpt lat="45.793474" lon="6.938438"><ele>1861.0</ele></trkpt>
      <trkpt lat="45.793717" lon="6.938334"><ele>1861.0</ele></trkpt>
      <trkpt lat="45.793829" lon="6.938009"><ele>1913.0</ele></trkpt>
      <trkpt lat="45.793740" lon="6.937569"><ele>1861.0</ele></trkpt>
      <trkpt lat="45.793617" lon="6.937261"><ele>1905.0</ele></trkpt>
      <trkpt lat="45.793448" lon="6.936939"><ele>1905.0</ele></trkpt>
      <trkpt lat="45.793290" lon="6.936701"><ele>1905.0</ele></trkpt>
      <trkpt lat="45.793008" lon="6.936451"><ele>1905.0</ele></trkpt>
      <trkpt lat="45.792790" lon="6.936276"><ele>1905.0</ele></trkpt>
      <trkpt lat="45.792567" lon="6.936086"><ele>1905.0</ele></trkpt>
      <trkpt lat="45.792357" lon="6.935958"><ele>1905.0</ele></trkpt>
      <trkpt lat="45.792115" lon="6.935769"><ele>1905.0</ele></trkpt>
      <trkpt lat="45.791936" lon="6.935533"><ele>1905.0</ele></trkpt>
      <trkpt lat="45.791681" lon="6.935364"><ele>1972.0</ele></trkpt>
      <trkpt lat="45.791500" lon="6.935121"><ele>1929.0</ele></trkpt>
      <trkpt lat="45.791397" lon="6.934678"><ele>1929.0</ele></trkpt>
      <trkpt lat="45.791311" lon="6.934095"><ele>1929.0</ele></trkpt>
      <trkpt lat="45.791264" lon="6.933733"><ele>1929.0</ele></trkpt>
      <trkpt lat="45.791214" lon="6.933369"><ele>1929.0</ele></trkpt>
      <trkpt lat="45.791161" lon="6.932999"><ele>1946.0</ele></trkpt>
      <trkpt lat="45.791067" lon="6.932623"><ele>1946.0</ele></trkpt>
      <trkpt lat="45.791022" lon="6.932208"><ele>1946.0</ele></trkpt>
      <trkpt lat="45.790986" lon="6.931755"><ele>1946.0</ele></trkpt>
      <trkpt lat="45.790909" lon="6.931441"><ele>1946.0</ele></trkpt>
      <trkpt lat="45.790739" lon="6.931188"><ele>1961.0</ele></trkpt>
      <trkpt lat="45.790550" lon="6.930891"><ele>1961.0</ele></trkpt>
      <trkpt lat="45.790322" lon="6.930669"><ele>1961.0</ele></trkpt>
      <trkpt lat="45.790157" lon="6.930333"><ele>1961.0</ele></trkpt>
      <trkpt lat="45.790078" lon="6.930013"><ele>1961.0</ele></trkpt>
      <trkpt lat="45.789988" lon="6.929671"><ele>1961.0</ele></trkpt>
      <trkpt lat="45.789847" lon="6.929183"><ele>1961.0</ele></trkpt>
      <trkpt lat="45.789603" lon="6.928512"><ele>1955.0</ele></trkpt>
      <trkpt lat="45.789382" lon="6.928109"><ele>2036.0</ele></trkpt>
      <trkpt lat="45.789182" lon="6.927818"><ele>2036.0</ele></trkpt>
      <trkpt lat="45.788944" lon="6.927362"><ele>2036.0</ele></trkpt>
      <trkpt lat="45.788759" lon="6.927023"><ele>2011.0</ele></trkpt>
      <trkpt lat="45.788627" lon="6.926683"><ele>2011.0</ele></trkpt>
      <trkpt lat="45.788371" lon="6.926306"><ele>2011.0</ele></trkpt>
      <trkpt lat="45.788052" lon="6.925905"><ele>2011.0</ele></trkpt>
      <trkpt lat="45.787866" lon="6.925499"><ele>2011.0</ele></trkpt>
      <trkpt lat="45.787639" lon="6.925262"><ele>2011.0</ele></trkpt>
      <trkpt lat="45.787319" lon="6.924477"><ele>2108.0</ele></trkpt>
      <trkpt lat="45.786991" lon="6.923981"><ele>2108.0</ele></trkpt>
      <trkpt lat="45.786737" lon="6.923380"><ele>2108.0</ele></trkpt>
      <trkpt lat="45.786416" lon="6.922884"><ele>2093.0</ele></trkpt>
      <trkpt lat="45.786292" lon="6.922598"><ele>2093.0</ele></trkpt>
      <trkpt lat="45.786164" lon="6.922316"><ele>2093.0</ele></trkpt>
      <trkpt lat="45.786077" lon="6.921827"><ele>2093.0</ele></trkpt>
      <trkpt lat="45.785952" lon="6.921499"><ele>2093.0</ele></trkpt>
      <trkpt lat="45.785858" lon="6.921183"><ele>2093.0</ele></trkpt>
      <trkpt lat="45.785694" lon="6.920945"><ele>2093.0</ele></trkpt>
      <trkpt lat="45.785442" lon="6.920742"><ele>2089.0</ele></trkpt>
      <trkpt lat="45.785134" lon="6.920217"><ele>2157.0</ele></trkpt>
      <trkpt lat="45.784950" lon="6.919848"><ele>2157.0</ele></trkpt>
      <trkpt lat="45.784750" lon="6.919537"><ele>2157.0</ele></trkpt>
      <trkpt lat="45.784519" lon="6.919222"><ele>2157.0</ele></trkpt>
      <trkpt lat="45.784347" lon="6.918959"><ele>2157.0</ele></trkpt>
      <trkpt lat="45.784112" lon="6.918698"><ele>2153.0</ele></trkpt>
      <trkpt lat="45.783999" lon="6.918401"><ele>2153.0</ele></trkpt>
      <trkpt lat="45.783944" lon="6.918080"><ele>2153.0</ele></trkpt>
      <trkpt lat="45.783789" lon="6.917662"><ele>2153.0</ele></trkpt>
      <trkpt lat="45.783698" lon="6.917354"><ele>2153.0</ele></trkpt>
      <trkpt lat="45.783597" lon="6.917035"><ele>2153.0</ele></trkpt>
      <trkpt lat="45.783487" lon="6.916751"><ele>2153.0</ele></trkpt>
      <trkpt lat="45.783345" lon="6.916501"><ele>2122.0</ele></trkpt>
      <trkpt lat="45.783198" lon="6.916218"><ele>2184.0</ele></trkpt>
      <trkpt lat="45.783028" lon="6.915926"><ele>2184.0</ele></trkpt>
      <trkpt lat="45.782846" lon="6.915655"><ele>2184.0</ele></trkpt>
      <trkpt lat="45.782674" lon="6.915416"><ele>2184.0</ele></trkpt>
      <trkpt lat="45.782440" lon="6.915290"><ele>2184.0</ele></trkpt>
      <trkpt lat="45.782230" lon="6.915133"><ele>2184.0</ele></trkpt>
      <trkpt lat="45.782006" lon="6.914965"><ele>2184.0</ele></trkpt>
      <trkpt lat="45.781794" lon="6.914752"><ele>2184.0</ele></trkpt>
      <trkpt lat="45.781588" lon="6.914475"><ele>2161.0</ele></trkpt>
      <trkpt lat="45.781425" lon="6.914220"><ele>2161.0</ele></trkpt>
      <trkpt lat="45.781261" lon="6.913899"><ele>2161.0</ele></trkpt>
      <trkpt lat="45.781147" lon="6.913602"><ele>2207.0</ele></trkpt>
      <trkpt lat="45.781010" lon="6.913226"><ele>2207.0</ele></trkpt>
      <trkpt lat="45.780913" lon="6.912912"><ele>2207.0</ele></trkpt>
      <trkpt lat="45.780897" lon="6.912529"><ele>2207.0</ele></trkpt>
      <trkpt lat="45.780954" lon="6.912202"><ele>2204.0</ele></trkpt>
      <trkpt lat="45.780978" lon="6.911868"><ele>2204.0</ele></trkpt>
      <trkpt lat="45.780737" lon="6.911728"><ele>2204.0</ele></trkpt>
      <trkpt lat="45.780470" lon="6.911693"><ele>2204.0</ele></trkpt>
      <trkpt lat="45.780293" lon="6.911471"><ele>2204.0</ele></trkpt>
      <trkpt lat="45.780152" lon="6.911143"><ele>2204.0</ele></trkpt>
      <trkpt lat="45.779946" lon="6.910995"><ele>2204.0</ele></trkpt>
      <trkpt lat="45.779957" lon="6.910612"><ele>2204.0</ele></trkpt>
      <trkpt lat="45.780060" lon="6.910308"><ele>2214.0</ele></trkpt>
      <trkpt lat="45.780025" lon="6.909899"><ele>2214.0</ele></trkpt>
      <trkpt lat="45.779940" lon="6.909503"><ele>2214.0</ele></trkpt>
      <trkpt lat="45.779847" lon="6.909082"><ele>2214.0</ele></trkpt>
      <trkpt lat="45.779450" lon="6.908441"><ele>2214.0</ele></trkpt>
      <trkpt lat="45.779248" lon="6.908060"><ele>2186.0</ele></trkpt>
      <trkpt lat="45.779129" lon="6.907767"><ele>2284.0</ele></trkpt>
      <trkpt lat="45.778964" lon="6.907417"><ele>2284.0</ele></trkpt>
      <trkpt lat="45.778792" lon="6.907178"><ele>2284.0</ele></trkpt>
      <trkpt lat="45.778589" lon="6.906920"><ele>2284.0</ele></trkpt>
      <trkpt lat="45.778442" lon="6.906670"><ele>2284.0</ele></trkpt>
      <trkpt lat="45.777766" lon="6.906143"><ele>2238.0</ele></trkpt>
      <trkpt lat="45.777363" lon="6.906068"><ele>2238.0</ele></trkpt>
      <trkpt lat="45.776867" lon="6.906036"><ele>2285.0</ele></trkpt>
      <trkpt lat="45.776480" lon="6.905748"><ele>2285.0</ele></trkpt>
      <trkpt lat="45.776291" lon="6.905489"><ele>2285.0</ele></trkpt>
      <trkpt lat="45.776059" lon="6.905331"><ele>2285.0</ele></trkpt>
      <trkpt lat="45.775760" lon="6.905240"><ele>2285.0</ele></trkpt>
      <trkpt lat="45.775511" lon="6.905170"><ele>2285.0</ele></trkpt>
      <trkpt lat="45.775250" lon="6.905165"><ele>2285.0</ele></trkpt>
      <trkpt lat="45.775160" lon="6.904789"><ele>2285.0</ele></trkpt>
      <trkpt lat="45.775054" lon="6.904449"><ele>2285.0</ele></trkpt>
      <trkpt lat="45.774993" lon="6.903991"><ele>2325.0</ele></trkpt>
      <trkpt lat="45.774830" lon="6.903683"><ele>2325.0</ele></trkpt>
      <trkpt lat="45.774612" lon="6.903540"><ele>2325.0</ele></trkpt>
      <trkpt lat="45.774169" lon="6.903219"><ele>2325.0</ele></trkpt>
      <trkpt lat="45.773867" lon="6.903113"><ele>2325.0</ele></trkpt>
      <trkpt lat="45.773585" lon="6.903187"><ele>2325.0</ele></trkpt>
      <trkpt lat="45.773366" lon="6.902926"><ele>2325.0</ele></trkpt>
      <trkpt lat="45.772893" lon="6.902371"><ele>2361.0</ele></trkpt>
      <trkpt lat="45.772767" lon="6.902053"><ele>2349.0</ele></trkpt>
      <trkpt lat="45.772683" lon="6.901691"><ele>2349.0</ele></trkpt>
      <trkpt lat="45.772523" lon="6.901318"><ele>2349.0</ele></trkpt>
      <trkpt lat="45.772280" lon="6.901060"><ele>2349.0</ele></trkpt>
      <trkpt lat="45.772147" lon="6.900765"><ele>2349.0</ele></trkpt>
      <trkpt lat="45.771695" lon="6.900439"><ele>2349.0</ele></trkpt>
      <trkpt lat="45.771553" lon="6.900111"><ele>2349.0</ele></trkpt>
      <trkpt lat="45.771371" lon="6.899779"><ele>2319.0</ele></trkpt>
      <trkpt lat="45.771229" lon="6.899465"><ele>2319.0</ele></trkpt>
      <trkpt lat="45.771140" lon="6.899113"><ele>2319.0</ele></trkpt>
      <trkpt lat="45.771095" lon="6.898666"><ele>2319.0</ele></trkpt>
      <trkpt lat="45.770981" lon="6.898188"><ele>2319.0</ele></trkpt>
      <trkpt lat="45.770719" lon="6.897557"><ele>2355.0</ele></trkpt>
      <trkpt lat="45.770545" lon="6.897099"><ele>2355.0</ele></trkpt>
      <trkpt lat="45.770375" lon="6.896749"><ele>2355.0</ele></trkpt>
      <trkpt lat="45.770303" lon="6.896419"><ele>2355.0</ele></trkpt>
      <trkpt lat="45.770252" lon="6.896010"><ele>2355.0</ele></trkpt>
      <trkpt lat="45.770295" lon="6.895558"><ele>2381.0</ele></trkpt>
      <trkpt lat="45.770358" lon="6.895243"><ele>2381.0</ele></trkpt>
      <trkpt lat="45.770423" lon="6.894862"><ele>2381.0</ele></trkpt>
      <trkpt lat="45.770438" lon="6.894519"><ele>2381.0</ele></trkpt>
      <trkpt lat="45.770502" lon="6.894103"><ele>2381.0</ele></trkpt>
      <trkpt lat="45.770611" lon="6.893805"><ele>2381.0</ele></trkpt>
      <trkpt lat="45.770674" lon="6.893373"><ele>2438.0</ele></trkpt>
      <trkpt lat="45.770764" lon="6.893077"><ele>2438.0</ele></trkpt>
      <trkpt lat="45.770900" lon="6.892783"><ele>2325.0</ele></trkpt>
      <trkpt lat="45.771019" lon="6.892494"><ele>2325.0</ele></trkpt>
      <trkpt lat="45.771205" lon="6.892212"><ele>2325.0</ele></trkpt>
      <trkpt lat="45.771380" lon="6.891992"><ele>2325.0</ele></trkpt>
      <trkpt lat="45.771600" lon="6.891811"><ele>2325.0</ele></trkpt>
      <trkpt lat="45.771805" lon="6.891609"><ele>2425.0</ele></trkpt>
      <trkpt lat="45.772008" lon="6.891386"><ele>2425.0</ele></trkpt>
      <trkpt lat="45.772158" lon="6.891121"><ele>2425.0</ele></trkpt>
      <trkpt lat="45.772392" lon="6.891025"><ele>2425.0</ele></trkpt>
      <trkpt lat="45.772214" lon="6.890742"><ele>2425.0</ele></trkpt>
      <trkpt lat="45.771970" lon="6.890769"><ele>2425.0</ele></trkpt>
      <trkpt lat="45.772127" lon="6.890477"><ele>2425.0</ele></trkpt>
      <trkpt lat="45.772237" lon="6.890071"><ele>2425.0</ele></trkpt>
      <trkpt lat="45.772080" lon="6.889710"><ele>2425.0</ele></trkpt>
      <trkpt lat="45.771893" lon="6.889502"><ele>2399.0</ele></trkpt>
      <trkpt lat="45.771622" lon="6.889401"><ele>2399.0</ele></trkpt>
      <trkpt lat="45.771397" lon="6.889301"><ele>2399.0</ele></trkpt>
      <trkpt lat="45.771084" lon="6.889233"><ele>2399.0</ele></trkpt>
      <trkpt lat="45.770843" lon="6.889180"><ele>2399.0</ele></trkpt>
      <trkpt lat="45.770662" lon="6.888915"><ele>2401.0</ele></trkpt>
      <trkpt lat="45.770496" lon="6.888635"><ele>2401.0</ele></trkpt>
      <trkpt lat="45.770306" lon="6.888375"><ele>2401.0</ele></trkpt>
      <trkpt lat="45.770095" lon="6.888188"><ele>2401.0</ele></trkpt>
      <trkpt lat="45.769881" lon="6.887963"><ele>2401.0</ele></trkpt>
      <trkpt lat="45.769715" lon="6.887744"><ele>2401.0</ele></trkpt>
      <trkpt lat="45.769587" lon="6.887422"><ele>2341.0</ele></trkpt>
      <trkpt lat="45.769396" lon="6.886972"><ele>2341.0</ele></trkpt>
      <trkpt lat="45.769299" lon="6.886679"><ele>2341.0</ele></trkpt>
      <trkpt lat="45.769038" lon="6.886672"><ele>2341.0</ele></trkpt>
      <trkpt lat="45.768761" lon="6.886713"><ele>2341.0</ele></trkpt>
      <trkpt lat="45.768533" lon="6.886840"><ele>2338.0</ele></trkpt>
      <trkpt lat="45.768272" lon="6.886826"><ele>2338.0</ele></trkpt>
      <trkpt lat="45.768017" lon="6.886694"><ele>2338.0</ele></trkpt>
      <trkpt lat="45.767771" lon="6.886749"><ele>2338.0</ele></trkpt>
      <trkpt lat="45.767887" lon="6.886110"><ele>2338.0</ele></trkpt>
      <trkpt lat="45.768029" lon="6.885858"><ele>2338.0</ele></trkpt>
      <trkpt lat="45.768182" lon="6.885603"><ele>2338.0</ele></trkpt>
      <trkpt lat="45.768329" lon="6.885339"><ele>2306.0</ele></trkpt>
      <trkpt lat="45.768389" lon="6.885008"><ele>2306.0</ele></trkpt>
      <trkpt lat="45.768490" lon="6.884626"><ele>2306.0</ele></trkpt>
      <trkpt lat="45.768594" lon="6.884309"><ele>2306.0</ele></trkpt>
      <trkpt lat="45.768765" lon="6.883969"><ele>2287.0</ele></trkpt>
      <trkpt lat="45.768892" lon="6.883658"><ele>2287.0</ele></trkpt>
      <trkpt lat="45.769017" lon="6.883323"><ele>2253.0</ele></trkpt>
      <trkpt lat="45.769218" lon="6.883159"><ele>2253.0</ele></trkpt>
      <trkpt lat="45.769446" lon="6.883216"><ele>2253.0</ele></trkpt>
      <trkpt lat="45.769698" lon="6.883036"><ele>2253.0</ele></trkpt>
      <trkpt lat="45.769894" lon="6.882834"><ele>2253.0</ele></trkpt>
      <trkpt lat="45.770089" lon="6.882534"><ele>2253.0</ele></trkpt>
      <trkpt lat="45.770358" lon="6.882308"><ele>2253.0</ele></trkpt>
      <trkpt lat="45.770583" lon="6.882162"><ele>2253.0</ele></trkpt>
      <trkpt lat="45.770845" lon="6.882089"><ele>2239.0</ele></trkpt>
      <trkpt lat="45.771067" lon="6.881884"><ele>2239.0</ele></trkpt>
      <trkpt lat="45.771310" lon="6.881753"><ele>2239.0</ele></trkpt>
      <trkpt lat="45.771464" lon="6.881453"><ele>2239.0</ele></trkpt>
      <trkpt lat="45.771607" lon="6.881149"><ele>2200.0</ele></trkpt>
      <trkpt lat="45.771808" lon="6.880934"><ele>2200.0</ele></trkpt>
      <trkpt lat="45.772038" lon="6.880894"><ele>2200.0</ele></trkpt>
      <trkpt lat="45.772226" lon="6.880637"><ele>2200.0</ele></trkpt>
      <trkpt lat="45.772397" lon="6.880321"><ele>2200.0</ele></trkpt>
      <trkpt lat="45.772596" lon="6.880107"><ele>2200.0</ele></trkpt>
      <trkpt lat="45.772786" lon="6.879876"><ele>2200.0</ele></trkpt>
      <trkpt lat="45.772976" lon="6.879703"><ele>2153.0</ele></trkpt>
      <trkpt lat="45.772870" lon="6.879414"><ele>2200.0</ele></trkpt>
      <trkpt lat="45.773062" lon="6.879223"><ele>2153.0</ele></trkpt>
      <trkpt lat="45.773156" lon="6.878863"><ele>2124.0</ele></trkpt>
      <trkpt lat="45.773223" lon="6.878532"><ele>2124.0</ele></trkpt>
      <trkpt lat="45.773352" lon="6.878234"><ele>2124.0</ele></trkpt>
      <trkpt lat="45.773551" lon="6.877993"><ele>2124.0</ele></trkpt>
      <trkpt lat="45.773772" lon="6.877755"><ele>2124.0</ele></trkpt>
      <trkpt lat="45.773796" lon="6.877434"><ele>2124.0</ele></trkpt>
      <trkpt lat="45.774024" lon="6.877322"><ele>2124.0</ele></trkpt>
      <trkpt lat="45.774260" lon="6.877272"><ele>2124.0</ele></trkpt>
      <trkpt lat="45.774321" lon="6.876833"><ele>2104.0</ele></trkpt>
      <trkpt lat="45.774608" lon="6.876721"><ele>2104.0</ele></trkpt>
      <trkpt lat="45.774819" lon="6.876954"><ele>2104.0</ele></trkpt>
      <trkpt lat="45.775037" lon="6.876850"><ele>1986.0</ele></trkpt>
      <trkpt lat="45.775002" lon="6.876486"><ele>1986.0</ele></trkpt>
      <trkpt lat="45.774894" lon="6.875989"><ele>2104.0</ele></trkpt>
      <trkpt lat="45.774717" lon="6.875699"><ele>2104.0</ele></trkpt>
      <trkpt lat="45.774559" lon="6.875369"><ele>2104.0</ele></trkpt>
      <trkpt lat="45.774525" lon="6.874972"><ele>2091.0</ele></trkpt>
      <trkpt lat="45.774576" lon="6.874625"><ele>2091.0</ele></trkpt>
      <trkpt lat="45.774706" lon="6.874237"><ele>2091.0</ele></trkpt>
      <trkpt lat="45.774785" lon="6.873904"><ele>2091.0</ele></trkpt>
      <trkpt lat="45.774886" lon="6.873558"><ele>2091.0</ele></trkpt>
      <trkpt lat="45.774898" lon="6.873103"><ele>2091.0</ele></trkpt>
      <trkpt lat="45.774944" lon="6.872696"><ele>2094.0</ele></trkpt>
      <trkpt lat="45.775084" lon="6.872331"><ele>1964.0</ele></trkpt>
      <trkpt lat="45.775220" lon="6.872039"><ele>1964.0</ele></trkpt>
      <trkpt lat="45.775435" lon="6.871867"><ele>1964.0</ele></trkpt>
      <trkpt lat="45.775579" lon="6.871373"><ele>1964.0</ele></trkpt>
      <trkpt lat="45.775474" lon="6.870799"><ele>1963.0</ele></trkpt>
      <trkpt lat="45.775415" lon="6.870484"><ele>1963.0</ele></trkpt>
      <trkpt lat="45.775385" lon="6.870147"><ele>1963.0</ele></trkpt>
      <trkpt lat="45.775321" lon="6.869741"><ele>1963.0</ele></trkpt>
      <trkpt lat="45.775193" lon="6.869355"><ele>1963.0</ele></trkpt>
      <trkpt lat="45.775074" lon="6.869003"><ele>1963.0</ele></trkpt>
      <trkpt lat="45.774906" lon="6.868470"><ele>1999.0</ele></trkpt>
      <trkpt lat="45.774708" lon="6.868093"><ele>1999.0</ele></trkpt>
      <trkpt lat="45.774532" lon="6.867737"><ele>1999.0</ele></trkpt>
      <trkpt lat="45.774349" lon="6.867395"><ele>1999.0</ele></trkpt>
      <trkpt lat="45.774168" lon="6.867108"><ele>1999.0</ele></trkpt>
      <trkpt lat="45.774020" lon="6.866743"><ele>1999.0</ele></trkpt>
      <trkpt lat="45.773850" lon="6.866341"><ele>1954.0</ele></trkpt>
      <trkpt lat="45.773858" lon="6.865998"><ele>1954.0</ele></trkpt>
      <trkpt lat="45.773868" lon="6.865557"><ele>1954.0</ele></trkpt>
      <trkpt lat="45.773795" lon="6.865190"><ele>1954.0</ele></trkpt>
      <trkpt lat="45.773599" lon="6.864838"><ele>1954.0</ele></trkpt>
      <trkpt lat="45.773382" lon="6.864675"><ele>1954.0</ele></trkpt>
      <trkpt lat="45.773085" lon="6.864534"><ele>1951.0</ele></trkpt>
      <trkpt lat="45.772917" lon="6.864282"><ele>1951.0</ele></trkpt>
      <trkpt lat="45.772800" lon="6.864004"><ele>1986.0</ele></trkpt>
      <trkpt lat="45.772738" lon="6.863663"><ele>1986.0</ele></trkpt>
      <trkpt lat="45.772516" lon="6.863104"><ele>1986.0</ele></trkpt>
      <trkpt lat="45.772507" lon="6.862071"><ele>1969.0</ele></trkpt>
      <trkpt lat="45.772520" lon="6.861728"><ele>1969.0</ele></trkpt>
      <trkpt lat="45.772496" lon="6.861368"><ele>1969.0</ele></trkpt>
      <trkpt lat="45.772424" lon="6.861025"><ele>1969.0</ele></trkpt>
      <trkpt lat="45.772274" lon="6.860697"><ele>1969.0</ele></trkpt>
      <trkpt lat="45.772047" lon="6.860288"><ele>1958.0</ele></trkpt>
      <trkpt lat="45.771846" lon="6.859808"><ele>1958.0</ele></trkpt>
      <trkpt lat="45.771644" lon="6.859331"><ele>1958.0</ele></trkpt>
      <trkpt lat="45.771516" lon="6.859025"><ele>1958.0</ele></trkpt>
      <trkpt lat="45.771331" lon="6.858532"><ele>1958.0</ele></trkpt>
      <trkpt lat="45.771205" lon="6.858180"><ele>1960.0</ele></trkpt>
      <trkpt lat="45.770983" lon="6.857574"><ele>1960.0</ele></trkpt>
      <trkpt lat="45.770701" lon="6.856573"><ele>1982.0</ele></trkpt>
      <trkpt lat="45.770562" lon="6.856078"><ele>1963.0</ele></trkpt>
      <trkpt lat="45.770410" lon="6.855546"><ele>1963.0</ele></trkpt>
      <trkpt lat="45.770273" lon="6.855073"><ele>1963.0</ele></trkpt>
      <trkpt lat="45.769917" lon="6.853739"><ele>1967.0</ele></trkpt>
      <trkpt lat="45.769497" lon="6.852220"><ele>1967.0</ele></trkpt>
      <trkpt lat="45.768533" lon="6.848770"><ele>1982.0</ele></trkpt>
      <trkpt lat="45.768381" lon="6.848170"><ele>1982.0</ele></trkpt>
      <trkpt lat="45.768402" lon="6.847632"><ele>1992.0</ele></trkpt>
      <trkpt lat="45.768398" lon="6.847231"><ele>1992.0</ele></trkpt>
      <trkpt lat="45.767840" lon="6.846519"><ele>1992.0</ele></trkpt>
      <trkpt lat="45.767715" lon="6.846108"><ele>1992.0</ele></trkpt>
      <trkpt lat="45.767494" lon="6.845866"><ele>1992.0</ele></trkpt>
      <trkpt lat="45.767206" lon="6.845629"><ele>2023.0</ele></trkpt>
      <trkpt lat="45.767464" lon="6.845602"><ele>2023.0</ele></trkpt>
      <trkpt lat="45.767673" lon="6.845364"><ele>2023.0</ele></trkpt>
      <trkpt lat="45.767657" lon="6.845040"><ele>2023.0</ele></trkpt>
      <trkpt lat="45.767634" lon="6.844678"><ele>2023.0</ele></trkpt>
      <trkpt lat="45.767657" lon="6.844110"><ele>2023.0</ele></trkpt>
      <trkpt lat="45.767597" lon="6.843739"><ele>2032.0</ele></trkpt>
      <trkpt lat="45.767559" lon="6.843396"><ele>2032.0</ele></trkpt>
      <trkpt lat="45.767634" lon="6.842887"><ele>2032.0</ele></trkpt>
      <trkpt lat="45.767607" lon="6.842556"><ele>2032.0</ele></trkpt>
      <trkpt lat="45.767505" lon="6.842090"><ele>2032.0</ele></trkpt>
      <trkpt lat="45.767397" lon="6.841577"><ele>2071.0</ele></trkpt>
      <trkpt lat="45.767401" lon="6.841188"><ele>2071.0</ele></trkpt>
      <trkpt lat="45.767397" lon="6.840760"><ele>2071.0</ele></trkpt>
      <trkpt lat="45.767437" lon="6.840375"><ele>2071.0</ele></trkpt>
      <trkpt lat="45.767320" lon="6.840078"><ele>2071.0</ele></trkpt>
      <trkpt lat="45.767151" lon="6.839717"><ele>2071.0</ele></trkpt>
      <trkpt lat="45.766964" lon="6.839435"><ele>2129.0</ele></trkpt>
      <trkpt lat="45.766711" lon="6.839351"><ele>2129.0</ele></trkpt>
      <trkpt lat="45.766713" lon="6.838984"><ele>2129.0</ele></trkpt>
      <trkpt lat="45.766650" lon="6.838646"><ele>2149.0</ele></trkpt>
      <trkpt lat="45.766670" lon="6.838300"><ele>2129.0</ele></trkpt>
      <trkpt lat="45.766700" lon="6.837958"><ele>2129.0</ele></trkpt>
      <trkpt lat="45.766844" lon="6.837495"><ele>2193.0</ele></trkpt>
    </trkseg>
  </trk>
</gpx>
