<?xml version="1.0" encoding="UTF-8"?>
<gpx version="1.1" creator="TrailShare content prep" xmlns="http://www.topografix.com/GPX/1/1">
  <metadata>
    <name>TMB Tappa 1: Les Houches → Les Contamines-Montjoie</name>
    <desc>Tour du Mont Blanc, tappa 1/7 (FR). Geometria: OpenStreetMap contributors (ODbL), relation OSM tappa CCW. Elevazione: Open-Elevation (SRTM).</desc>
  </metadata>
  <trk>
    <name>TMB Tappa 1: Les Houches → Les Contamines-Montjoie</name>
    <trkseg>
      <trkpt lat="45.853687" lon="6.733850"><ele>1053.0</ele></trkpt>
      <trkpt lat="45.853971" lon="6.734043"><ele>1053.0</ele></trkpt>
      <trkpt lat="45.854249" lon="6.734150"><ele>1080.0</ele></trkpt>
      <trkpt lat="45.854507" lon="6.734263"><ele>1080.0</ele></trkpt>
      <trkpt lat="45.854594" lon="6.734600"><ele>1080.0</ele></trkpt>
      <trkpt lat="45.854726" lon="6.735073"><ele>1080.0</ele></trkpt>
      <trkpt lat="45.854862" lon="6.735404"><ele>1080.0</ele></trkpt>
      <trkpt lat="45.855067" lon="6.735592"><ele>1149.0</ele></trkpt>
      <trkpt lat="45.855312" lon="6.735656"><ele>1149.0</ele></trkpt>
      <trkpt lat="45.855608" lon="6.735687"><ele>1149.0</ele></trkpt>
      <trkpt lat="45.855836" lon="6.735770"><ele>1149.0</ele></trkpt>
      <trkpt lat="45.856225" lon="6.735780"><ele>1149.0</ele></trkpt>
      <trkpt lat="45.856456" lon="6.735764"><ele>1201.0</ele></trkpt>
      <trkpt lat="45.856782" lon="6.735767"><ele>1201.0</ele></trkpt>
      <trkpt lat="45.857045" lon="6.735704"><ele>1201.0</ele></trkpt>
      <trkpt lat="45.857281" lon="6.735625"><ele>1201.0</ele></trkpt>
      <trkpt lat="45.857593" lon="6.735605"><ele>1201.0</ele></trkpt>
      <trkpt lat="45.857875" lon="6.735544"><ele>1201.0</ele></trkpt>
      <trkpt lat="45.858103" lon="6.735575"><ele>1201.0</ele></trkpt>
      <trkpt lat="45.858368" lon="6.735575"><ele>1213.0</ele></trkpt>
      <trkpt lat="45.858676" lon="6.735511"><ele>1213.0</ele></trkpt>
      <trkpt lat="45.859151" lon="6.735426"><ele>1213.0</ele></trkpt>
      <trkpt lat="45.859385" lon="6.735409"><ele>1174.0</ele></trkpt>
      <trkpt lat="45.859607" lon="6.735277"><ele>1174.0</ele></trkpt>
      <trkpt lat="45.859835" lon="6.735179"><ele>1174.0</ele></trkpt>
      <trkpt lat="45.859816" lon="6.735521"><ele>1213.0</ele></trkpt>
      <trkpt lat="45.859648" lon="6.735816"><ele>1213.0</ele></trkpt>
      <trkpt lat="45.859524" lon="6.736150"><ele>1213.0</ele></trkpt>
      <trkpt lat="45.859503" lon="6.736547"><ele>1213.0</ele></trkpt>
      <trkpt lat="45.859435" lon="6.736944"><ele>1213.0</ele></trkpt>
      <trkpt lat="45.859251" lon="6.737231"><ele>1213.0</ele></trkpt>
      <trkpt lat="45.859212" lon="6.737894"><ele>1225.0</ele></trkpt>
      <trkpt lat="45.859234" lon="6.738303"><ele>1225.0</ele></trkpt>
      <trkpt lat="45.859396" lon="6.738792"><ele>1225.0</ele></trkpt>
      <trkpt lat="45.859502" lon="6.739152"><ele>1225.0</ele></trkpt>
      <trkpt lat="45.859675" lon="6.739548"><ele>1225.0</ele></trkpt>
      <trkpt lat="45.859780" lon="6.739984"><ele>1289.0</ele></trkpt>
      <trkpt lat="45.859829" lon="6.740299"><ele>1289.0</ele></trkpt>
      <trkpt lat="45.859862" lon="6.740651"><ele>1289.0</ele></trkpt>
      <trkpt lat="45.859981" lon="6.741079"><ele>1289.0</ele></trkpt>
      <trkpt lat="45.860129" lon="6.741514"><ele>1289.0</ele></trkpt>
      <trkpt lat="45.860284" lon="6.741995"><ele>1353.0</ele></trkpt>
      <trkpt lat="45.860406" lon="6.742279"><ele>1353.0</ele></trkpt>
      <trkpt lat="45.860662" lon="6.742609"><ele>1245.0</ele></trkpt>
      <trkpt lat="45.860893" lon="6.742962"><ele>1245.0</ele></trkpt>
      <trkpt lat="45.861097" lon="6.743410"><ele>1245.0</ele></trkpt>
      <trkpt lat="45.861269" lon="6.743732"><ele>1245.0</ele></trkpt>
      <trkpt lat="45.861478" lon="6.744191"><ele>1304.0</ele></trkpt>
      <trkpt lat="45.861672" lon="6.744419"><ele>1304.0</ele></trkpt>
      <trkpt lat="45.861725" lon="6.744785"><ele>1304.0</ele></trkpt>
      <trkpt lat="45.861574" lon="6.745158"><ele>1304.0</ele></trkpt>
      <trkpt lat="45.861420" lon="6.745421"><ele>1304.0</ele></trkpt>
      <trkpt lat="45.861355" lon="6.745731"><ele>1304.0</ele></trkpt>
      <trkpt lat="45.861331" lon="6.746105"><ele>1261.0</ele></trkpt>
      <trkpt lat="45.861235" lon="6.746692"><ele>1261.0</ele></trkpt>
      <trkpt lat="45.861077" lon="6.747060"><ele>1261.0</ele></trkpt>
      <trkpt lat="45.860955" lon="6.747428"><ele>1261.0</ele></trkpt>
      <trkpt lat="45.860898" lon="6.747913"><ele>1261.0</ele></trkpt>
      <trkpt lat="45.860851" lon="6.748254"><ele>1269.0</ele></trkpt>
      <trkpt lat="45.860920" lon="6.748583"><ele>1269.0</ele></trkpt>
      <trkpt lat="45.860962" lon="6.748925"><ele>1269.0</ele></trkpt>
      <trkpt lat="45.861223" lon="6.749154"><ele>1269.0</ele></trkpt>
      <trkpt lat="45.861339" lon="6.749513"><ele>1269.0</ele></trkpt>
      <trkpt lat="45.861404" lon="6.749969"><ele>1269.0</ele></trkpt>
      <trkpt lat="45.861437" lon="6.750319"><ele>1295.0</ele></trkpt>
      <trkpt lat="45.861486" lon="6.750711"><ele>1295.0</ele></trkpt>
      <trkpt lat="45.861558" lon="6.751150"><ele>1295.0</ele></trkpt>
      <trkpt lat="45.861552" lon="6.751638"><ele>1295.0</ele></trkpt>
      <trkpt lat="45.861508" lon="6.752099"><ele>1304.0</ele></trkpt>
      <trkpt lat="45.861403" lon="6.752418"><ele>1304.0</ele></trkpt>
      <trkpt lat="45.861299" lon="6.752749"><ele>1304.0</ele></trkpt>
      <trkpt lat="45.861504" lon="6.753020"><ele>1304.0</ele></trkpt>
      <trkpt lat="45.861592" lon="6.753415"><ele>1304.0</ele></trkpt>
      <trkpt lat="45.861602" lon="6.753770"><ele>1304.0</ele></trkpt>
      <trkpt lat="45.861549" lon="6.754191"><ele>1332.0</ele></trkpt>
      <trkpt lat="45.861517" lon="6.754551"><ele>1332.0</ele></trkpt>
      <trkpt lat="45.861578" lon="6.754968"><ele>1332.0</ele></trkpt>
      <trkpt lat="45.861665" lon="6.755443"><ele>1332.0</ele></trkpt>
      <trkpt lat="45.861751" lon="6.755921"><ele>1332.0</ele></trkpt>
      <trkpt lat="45.861808" lon="6.756257"><ele>1360.0</ele></trkpt>
      <trkpt lat="45.861907" lon="6.756682"><ele>1360.0</ele></trkpt>
      <trkpt lat="45.862033" lon="6.757105"><ele>1360.0</ele></trkpt>
      <trkpt lat="45.862088" lon="6.757508"><ele>1360.0</ele></trkpt>
      <trkpt lat="45.862133" lon="6.757850"><ele>1360.0</ele></trkpt>
      <trkpt lat="45.862283" lon="6.758283"><ele>1360.0</ele></trkpt>
      <trkpt lat="45.862318" lon="6.758650"><ele>1376.0</ele></trkpt>
      <trkpt lat="45.862153" lon="6.759139"><ele>1376.0</ele></trkpt>
      <trkpt lat="45.862399" lon="6.759057"><ele>1376.0</ele></trkpt>
      <trkpt lat="45.862657" lon="6.758814"><ele>1315.0</ele></trkpt>
      <trkpt lat="45.862801" lon="6.758554"><ele>1315.0</ele></trkpt>
      <trkpt lat="45.862939" lon="6.758292"><ele>1297.0</ele></trkpt>
      <trkpt lat="45.863175" lon="6.758249"><ele>1297.0</ele></trkpt>
      <trkpt lat="45.863436" lon="6.758231"><ele>1297.0</ele></trkpt>
      <trkpt lat="45.863592" lon="6.757902"><ele>1297.0</ele></trkpt>
      <trkpt lat="45.863642" lon="6.757555"><ele>1297.0</ele></trkpt>
      <trkpt lat="45.863691" lon="6.757167"><ele>1297.0</ele></trkpt>
      <trkpt lat="45.863738" lon="6.756839"><ele>1297.0</ele></trkpt>
      <trkpt lat="45.863753" lon="6.756472"><ele>1297.0</ele></trkpt>
      <trkpt lat="45.863853" lon="6.756122"><ele>1270.0</ele></trkpt>
      <trkpt lat="45.864015" lon="6.755874"><ele>1270.0</ele></trkpt>
      <trkpt lat="45.864143" lon="6.755595"><ele>1270.0</ele></trkpt>
      <trkpt lat="45.864391" lon="6.755513"><ele>1270.0</ele></trkpt>
      <trkpt lat="45.864653" lon="6.755538"><ele>1328.0</ele></trkpt>
      <trkpt lat="45.864871" lon="6.755701"><ele>1328.0</ele></trkpt>
      <trkpt lat="45.865066" lon="6.756047"><ele>1328.0</ele></trkpt>
      <trkpt lat="45.865167" lon="6.756357"><ele>1346.0</ele></trkpt>
      <trkpt lat="45.865387" lon="6.756541"><ele>1346.0</ele></trkpt>
      <trkpt lat="45.865644" lon="6.756815"><ele>1346.0</ele></trkpt>
      <trkpt lat="45.865758" lon="6.757114"><ele>1346.0</ele></trkpt>
      <trkpt lat="45.865790" lon="6.757500"><ele>1346.0</ele></trkpt>
      <trkpt lat="45.865711" lon="6.757946"><ele>1346.0</ele></trkpt>
      <trkpt lat="45.865685" lon="6.758270"><ele>1346.0</ele></trkpt>
      <trkpt lat="45.865872" lon="6.758538"><ele>1377.0</ele></trkpt>
      <trkpt lat="45.866124" lon="6.758591"><ele>1377.0</ele></trkpt>
      <trkpt lat="45.866272" lon="6.759287"><ele>1377.0</ele></trkpt>
      <trkpt lat="45.866449" lon="6.759641"><ele>1377.0</ele></trkpt>
      <trkpt lat="45.866591" lon="6.759973"><ele>1377.0</ele></trkpt>
      <trkpt lat="45.866679" lon="6.760424"><ele>1416.0</ele></trkpt>
      <trkpt lat="45.866914" lon="6.760499"><ele>1416.0</ele></trkpt>
      <trkpt lat="45.867167" lon="6.760479"><ele>1416.0</ele></trkpt>
      <trkpt lat="45.867388" lon="6.760321"><ele>1406.0</ele></trkpt>
      <trkpt lat="45.867658" lon="6.760211"><ele>1406.0</ele></trkpt>
      <trkpt lat="45.867953" lon="6.760300"><ele>1406.0</ele></trkpt>
      <trkpt lat="45.868147" lon="6.760510"><ele>1416.0</ele></trkpt>
      <trkpt lat="45.868368" lon="6.760718"><ele>1416.0</ele></trkpt>
      <trkpt lat="45.868634" lon="6.760901"><ele>1416.0</ele></trkpt>
      <trkpt lat="45.868906" lon="6.761025"><ele>1443.0</ele></trkpt>
      <trkpt lat="45.869169" lon="6.761214"><ele>1443.0</ele></trkpt>
      <trkpt lat="45.869453" lon="6.761612"><ele>1443.0</ele></trkpt>
      <trkpt lat="45.869525" lon="6.761990"><ele>1443.0</ele></trkpt>
      <trkpt lat="45.869654" lon="6.762290"><ele>1443.0</ele></trkpt>
      <trkpt lat="45.869813" lon="6.761792"><ele>1443.0</ele></trkpt>
      <trkpt lat="45.869881" lon="6.761421"><ele>1443.0</ele></trkpt>
      <trkpt lat="45.870091" lon="6.761234"><ele>1443.0</ele></trkpt>
      <trkpt lat="45.870362" lon="6.761500"><ele>1443.0</ele></trkpt>
      <trkpt lat="45.870533" lon="6.761775"><ele>1443.0</ele></trkpt>
      <trkpt lat="45.870777" lon="6.761905"><ele>1443.0</ele></trkpt>
      <trkpt lat="45.871032" lon="6.762021"><ele>1513.0</ele></trkpt>
      <trkpt lat="45.871331" lon="6.762106"><ele>1513.0</ele></trkpt>
      <trkpt lat="45.871455" lon="6.761805"><ele>1513.0</ele></trkpt>
      <trkpt lat="45.871633" lon="6.761581"><ele>1513.0</ele></trkpt>
      <trkpt lat="45.871870" lon="6.761502"><ele>1513.0</ele></trkpt>
      <trkpt lat="45.871973" lon="6.761213"><ele>1513.0</ele></trkpt>
      <trkpt lat="45.872030" lon="6.760863"><ele>1513.0</ele></trkpt>
      <trkpt lat="45.872246" lon="6.760640"><ele>1513.0</ele></trkpt>
      <trkpt lat="45.872428" lon="6.760374"><ele>1492.0</ele></trkpt>
      <trkpt lat="45.872620" lon="6.760175"><ele>1492.0</ele></trkpt>
      <trkpt lat="45.872853" lon="6.760064"><ele>1492.0</ele></trkpt>
      <trkpt lat="45.873078" lon="6.760162"><ele>1540.0</ele></trkpt>
      <trkpt lat="45.873179" lon="6.760463"><ele>1565.0</ele></trkpt>
      <trkpt lat="45.873340" lon="6.760720"><ele>1565.0</ele></trkpt>
      <trkpt lat="45.873528" lon="6.760983"><ele>1565.0</ele></trkpt>
      <trkpt lat="45.873730" lon="6.761176"><ele>1565.0</ele></trkpt>
      <trkpt lat="45.874061" lon="6.761325"><ele>1565.0</ele></trkpt>
      <trkpt lat="45.874186" lon="6.761640"><ele>1565.0</ele></trkpt>
      <trkpt lat="45.874220" lon="6.762086"><ele>1565.0</ele></trkpt>
      <trkpt lat="45.874444" lon="6.762367"><ele>1565.0</ele></trkpt>
      <trkpt lat="45.874696" lon="6.762471"><ele>1565.0</ele></trkpt>
      <trkpt lat="45.874925" lon="6.762298"><ele>1565.0</ele></trkpt>
      <trkpt lat="45.875054" lon="6.762018"><ele>1649.0</ele></trkpt>
      <trkpt lat="45.875320" lon="6.762149"><ele>1649.0</ele></trkpt>
      <trkpt lat="45.875616" lon="6.762050"><ele>1649.0</ele></trkpt>
      <trkpt lat="45.875810" lon="6.761874"><ele>1649.0</ele></trkpt>
      <trkpt lat="45.875752" lon="6.761352"><ele>1649.0</ele></trkpt>
      <trkpt lat="45.875782" lon="6.760918"><ele>1649.0</ele></trkpt>
      <trkpt lat="45.875882" lon="6.760548"><ele>1649.0</ele></trkpt>
      <trkpt lat="45.876126" lon="6.760357"><ele>1635.0</ele></trkpt>
      <trkpt lat="45.876294" lon="6.760662"><ele>1649.0</ele></trkpt>
      <trkpt lat="45.876443" lon="6.761036"><ele>1649.0</ele></trkpt>
      <trkpt lat="45.876637" lon="6.761352"><ele>1649.0</ele></trkpt>
      <trkpt lat="45.876860" lon="6.761397"><ele>1649.0</ele></trkpt>
      <trkpt lat="45.876965" lon="6.760879"><ele>1649.0</ele></trkpt>
      <trkpt lat="45.877112" lon="6.760474"><ele>1655.0</ele></trkpt>
      <trkpt lat="45.877290" lon="6.760238"><ele>1681.0</ele></trkpt>
      <trkpt lat="45.877758" lon="6.760102"><ele>1681.0</ele></trkpt>
      <trkpt lat="45.878043" lon="6.760028"><ele>1681.0</ele></trkpt>
      <trkpt lat="45.878479" lon="6.760019"><ele>1681.0</ele></trkpt>
      <trkpt lat="45.878946" lon="6.760076"><ele>1681.0</ele></trkpt>
      <trkpt lat="45.879181" lon="6.760100"><ele>1671.0</ele></trkpt>
      <trkpt lat="45.879433" lon="6.760169"><ele>1671.0</ele></trkpt>
      <trkpt lat="45.879564" lon="6.760473"><ele>1625.0</ele></trkpt>
      <trkpt lat="45.879359" lon="6.760693"><ele>1625.0</ele></trkpt>
      <trkpt lat="45.879576" lon="6.760856"><ele>1625.0</ele></trkpt>
      <trkpt lat="45.880033" lon="6.761000"><ele>1625.0</ele></trkpt>
      <trkpt lat="45.880296" lon="6.761062"><ele>1625.0</ele></trkpt>
      <trkpt lat="45.880549" lon="6.760902"><ele>1625.0</ele></trkpt>
      <trkpt lat="45.880880" lon="6.760827"><ele>1625.0</ele></trkpt>
      <trkpt lat="45.881112" lon="6.760661"><ele>1625.0</ele></trkpt>
      <trkpt lat="45.881211" lon="6.760323"><ele>1671.0</ele></trkpt>
      <trkpt lat="45.881363" lon="6.760039"><ele>1629.0</ele></trkpt>
      <trkpt lat="45.881694" lon="6.760049"><ele>1629.0</ele></trkpt>
      <trkpt lat="45.881915" lon="6.760245"><ele>1629.0</ele></trkpt>
      <trkpt lat="45.882269" lon="6.760619"><ele>1586.0</ele></trkpt>
      <trkpt lat="45.882468" lon="6.760797"><ele>1586.0</ele></trkpt>
      <trkpt lat="45.882778" lon="6.760900"><ele>1586.0</ele></trkpt>
      <trkpt lat="45.883059" lon="6.760934"><ele>1586.0</ele></trkpt>
      <trkpt lat="45.883360" lon="6.761013"><ele>1597.0</ele></trkpt>
      <trkpt lat="45.883581" lon="6.761144"><ele>1597.0</ele></trkpt>
      <trkpt lat="45.883765" lon="6.761341"><ele>1597.0</ele></trkpt>
      <trkpt lat="45.883909" lon="6.761592"><ele>1597.0</ele></trkpt>
      <trkpt lat="45.883989" lon="6.762007"><ele>1597.0</ele></trkpt>
      <trkpt lat="45.884015" lon="6.762401"><ele>1597.0</ele></trkpt>
      <trkpt lat="45.884113" lon="6.762750"><ele>1561.0</ele></trkpt>
      <trkpt lat="45.884048" lon="6.763106"><ele>1561.0</ele></trkpt>
      <trkpt lat="45.884150" lon="6.763463"><ele>1561.0</ele></trkpt>
      <trkpt lat="45.884302" lon="6.763719"><ele>1561.0</ele></trkpt>
      <trkpt lat="45.884534" lon="6.763768"><ele>1561.0</ele></trkpt>
      <trkpt lat="45.884855" lon="6.763915"><ele>1561.0</ele></trkpt>
      <trkpt lat="45.885130" lon="6.764048"><ele>1561.0</ele></trkpt>
      <trkpt lat="45.885280" lon="6.764321"><ele>1561.0</ele></trkpt>
      <trkpt lat="45.885606" lon="6.764668"><ele>1509.0</ele></trkpt>
      <trkpt lat="45.885802" lon="6.764929"><ele>1509.0</ele></trkpt>
      <trkpt lat="45.886020" lon="6.765235"><ele>1509.0</ele></trkpt>
      <trkpt lat="45.886212" lon="6.765442"><ele>1509.0</ele></trkpt>
      <trkpt lat="45.886394" lon="6.765705"><ele>1509.0</ele></trkpt>
      <trkpt lat="45.886578" lon="6.766020"><ele>1509.0</ele></trkpt>
      <trkpt lat="45.886666" lon="6.766323"><ele>1509.0</ele></trkpt>
      <trkpt lat="45.886665" lon="6.766710"><ele>1449.0</ele></trkpt>
      <trkpt lat="45.886708" lon="6.767035"><ele>1449.0</ele></trkpt>
      <trkpt lat="45.886478" lon="6.767170"><ele>1449.0</ele></trkpt>
      <trkpt lat="45.886562" lon="6.767593"><ele>1449.0</ele></trkpt>
      <trkpt lat="45.886612" lon="6.767929"><ele>1449.0</ele></trkpt>
      <trkpt lat="45.886594" lon="6.768498"><ele>1449.0</ele></trkpt>
      <trkpt lat="45.886600" lon="6.768898"><ele>1404.0</ele></trkpt>
      <trkpt lat="45.886803" lon="6.769141"><ele>1404.0</ele></trkpt>
      <trkpt lat="45.886766" lon="6.769628"><ele>1404.0</ele></trkpt>
      <trkpt lat="45.886629" lon="6.769889"><ele>1404.0</ele></trkpt>
      <trkpt lat="45.886835" lon="6.770054"><ele>1404.0</ele></trkpt>
      <trkpt lat="45.886726" lon="6.770354"><ele>1404.0</ele></trkpt>
      <trkpt lat="45.886769" lon="6.770715"><ele>1404.0</ele></trkpt>
      <trkpt lat="45.886756" lon="6.771042"><ele>1354.0</ele></trkpt>
      <trkpt lat="45.886492" lon="6.770978"><ele>1354.0</ele></trkpt>
      <trkpt lat="45.886271" lon="6.771047"><ele>1354.0</ele></trkpt>
      <trkpt lat="45.885884" lon="6.771086"><ele>1354.0</ele></trkpt>
      <trkpt lat="45.885865" lon="6.771435"><ele>1354.0</ele></trkpt>
      <trkpt lat="45.885984" lon="6.771711"><ele>1354.0</ele></trkpt>
      <trkpt lat="45.885980" lon="6.772106"><ele>1354.0</ele></trkpt>
      <trkpt lat="45.885973" lon="6.772453"><ele>1354.0</ele></trkpt>
      <trkpt lat="45.886180" lon="6.772662"><ele>1354.0</ele></trkpt>
      <trkpt lat="45.886291" lon="6.772988"><ele>1314.0</ele></trkpt>
      <trkpt lat="45.886627" lon="6.773287"><ele>1314.0</ele></trkpt>
      <trkpt lat="45.886907" lon="6.773465"><ele>1314.0</ele></trkpt>
      <trkpt lat="45.886813" lon="6.773785"><ele>1314.0</ele></trkpt>
      <trkpt lat="45.886595" lon="6.773913"><ele>1314.0</ele></trkpt>
      <trkpt lat="45.886529" lon="6.774250"><ele>1314.0</ele></trkpt>
      <trkpt lat="45.886789" lon="6.774274"><ele>1314.0</ele></trkpt>
      <trkpt lat="45.887032" lon="6.774262"><ele>1314.0</ele></trkpt>
      <trkpt lat="45.887264" lon="6.774187"><ele>1314.0</ele></trkpt>
      <trkpt lat="45.887523" lon="6.774181"><ele>1248.0</ele></trkpt>
      <trkpt lat="45.887756" lon="6.774186"><ele>1248.0</ele></trkpt>
      <trkpt lat="45.887993" lon="6.774178"><ele>1248.0</ele></trkpt>
      <trkpt lat="45.888032" lon="6.774514"><ele>1248.0</ele></trkpt>
      <trkpt lat="45.887908" lon="6.774834"><ele>1248.0</ele></trkpt>
      <trkpt lat="45.887829" lon="6.775172"><ele>1217.0</ele></trkpt>
      <trkpt lat="45.887879" lon="6.775632"><ele>1217.0</ele></trkpt>
      <trkpt lat="45.888069" lon="6.775935"><ele>1217.0</ele></trkpt>
      <trkpt lat="45.888153" lon="6.776302"><ele>1217.0</ele></trkpt>
      <trkpt lat="45.888092" lon="6.776616"><ele>1217.0</ele></trkpt>
      <trkpt lat="45.887787" lon="6.776837"><ele>1217.0</ele></trkpt>
      <trkpt lat="45.887741" lon="6.777173"><ele>1205.0</ele></trkpt>
      <trkpt lat="45.888077" lon="6.777098"><ele>1205.0</ele></trkpt>
      <trkpt lat="45.888330" lon="6.777017"><ele>1217.0</ele></trkpt>
      <trkpt lat="45.888531" lon="6.777222"><ele>1205.0</ele></trkpt>
      <trkpt lat="45.888404" lon="6.777618"><ele>1205.0</ele></trkpt>
      <trkpt lat="45.888550" lon="6.777888"><ele>1205.0</ele></trkpt>
      <trkpt lat="45.888836" lon="6.777927"><ele>1205.0</ele></trkpt>
      <trkpt lat="45.889083" lon="6.777942"><ele>1205.0</ele></trkpt>
      <trkpt lat="45.889075" lon="6.778270"><ele>1205.0</ele></trkpt>
      <trkpt lat="45.889149" lon="6.778737"><ele>1205.0</ele></trkpt>
      <trkpt lat="45.889434" lon="6.778662"><ele>1205.0</ele></trkpt>
      <trkpt lat="45.889645" lon="6.778417"><ele>1157.0</ele></trkpt>
      <trkpt lat="45.889878" lon="6.778356"><ele>1157.0</ele></trkpt>
      <trkpt lat="45.889782" lon="6.779067"><ele>1157.0</ele></trkpt>
      <trkpt lat="45.889682" lon="6.779574"><ele>1138.0</ele></trkpt>
      <trkpt lat="45.889389" lon="6.779844"><ele>1168.0</ele></trkpt>
      <trkpt lat="45.889158" lon="6.779908"><ele>1168.0</ele></trkpt>
      <trkpt lat="45.888904" lon="6.779920"><ele>1168.0</ele></trkpt>
      <trkpt lat="45.888959" lon="6.780263"><ele>1168.0</ele></trkpt>
      <trkpt lat="45.889216" lon="6.780287"><ele>1168.0</ele></trkpt>
      <trkpt lat="45.889494" lon="6.780367"><ele>1168.0</ele></trkpt>
      <trkpt lat="45.889780" lon="6.780389"><ele>1138.0</ele></trkpt>
      <trkpt lat="45.890048" lon="6.780400"><ele>1138.0</ele></trkpt>
      <trkpt lat="45.890398" lon="6.780276"><ele>1138.0</ele></trkpt>
      <trkpt lat="45.890647" lon="6.780485"><ele>1138.0</ele></trkpt>
      <trkpt lat="45.890854" lon="6.780312"><ele>1138.0</ele></trkpt>
      <trkpt lat="45.891035" lon="6.779775"><ele>1138.0</ele></trkpt>
      <trkpt lat="45.891270" lon="6.779593"><ele>1138.0</ele></trkpt>
      <trkpt lat="45.891545" lon="6.779322"><ele>1138.0</ele></trkpt>
      <trkpt lat="45.891672" lon="6.779035"><ele>1086.0</ele></trkpt>
      <trkpt lat="45.891781" lon="6.778744"><ele>1086.0</ele></trkpt>
      <trkpt lat="45.891888" lon="6.778432"><ele>1086.0</ele></trkpt>
      <trkpt lat="45.891936" lon="6.777992"><ele>1086.0</ele></trkpt>
      <trkpt lat="45.892044" lon="6.777703"><ele>1086.0</ele></trkpt>
      <trkpt lat="45.892230" lon="6.777401"><ele>1086.0</ele></trkpt>
      <trkpt lat="45.892130" lon="6.777719"><ele>1086.0</ele></trkpt>
      <trkpt lat="45.892083" lon="6.778095"><ele>1086.0</ele></trkpt>
      <trkpt lat="45.892127" lon="6.778417"><ele>1086.0</ele></trkpt>
      <trkpt lat="45.892260" lon="6.778733"><ele>1086.0</ele></trkpt>
      <trkpt lat="45.892396" lon="6.779013"><ele>1086.0</ele></trkpt>
      <trkpt lat="45.892464" lon="6.779361"><ele>1075.0</ele></trkpt>
      <trkpt lat="45.892490" lon="6.779733"><ele>1075.0</ele></trkpt>
      <trkpt lat="45.892514" lon="6.780150"><ele>1075.0</ele></trkpt>
      <trkpt lat="45.892499" lon="6.780518"><ele>1075.0</ele></trkpt>
      <trkpt lat="45.892409" lon="6.781000"><ele>1075.0</ele></trkpt>
      <trkpt lat="45.892330" lon="6.781405"><ele>1059.0</ele></trkpt>
      <trkpt lat="45.892227" lon="6.781770"><ele>1059.0</ele></trkpt>
      <trkpt lat="45.892117" lon="6.782090"><ele>1059.0</ele></trkpt>
      <trkpt lat="45.892082" lon="6.782586"><ele>1059.0</ele></trkpt>
      <trkpt lat="45.892073" lon="6.782968"><ele>1059.0</ele></trkpt>
      <trkpt lat="45.892048" lon="6.783323"><ele>1059.0</ele></trkpt>
      <trkpt lat="45.891968" lon="6.783630"><ele>1028.0</ele></trkpt>
      <trkpt lat="45.892193" lon="6.783674"><ele>1028.0</ele></trkpt>
      <trkpt lat="45.892194" lon="6.784027"><ele>1028.0</ele></trkpt>
      <trkpt lat="45.892128" lon="6.784385"><ele>1028.0</ele></trkpt>
      <trkpt lat="45.892284" lon="6.784719"><ele>1028.0</ele></trkpt>
      <trkpt lat="45.892527" lon="6.784919"><ele>1028.0</ele></trkpt>
      <trkpt lat="45.892650" lon="6.785198"><ele>1028.0</ele></trkpt>
      <trkpt lat="45.892259" lon="6.785860"><ele>991.0</ele></trkpt>
      <trkpt lat="45.892043" lon="6.785985"><ele>991.0</ele></trkpt>
      <trkpt lat="45.891773" lon="6.786048"><ele>991.0</ele></trkpt>
      <trkpt lat="45.891533" lon="6.786022"><ele>1010.0</ele></trkpt>
      <trkpt lat="45.891278" lon="6.785975"><ele>1010.0</ele></trkpt>
      <trkpt lat="45.891045" lon="6.786059"><ele>1010.0</ele></trkpt>
      <trkpt lat="45.890768" lon="6.786366"><ele>1010.0</ele></trkpt>
      <trkpt lat="45.890570" lon="6.786725"><ele>1010.0</ele></trkpt>
      <trkpt lat="45.890400" lon="6.787126"><ele>1010.0</ele></trkpt>
      <trkpt lat="45.890267" lon="6.787501"><ele>987.0</ele></trkpt>
      <trkpt lat="45.890116" lon="6.788012"><ele>987.0</ele></trkpt>
      <trkpt lat="45.890006" lon="6.788359"><ele>987.0</ele></trkpt>
      <trkpt lat="45.889874" lon="6.788756"><ele>987.0</ele></trkpt>
      <trkpt lat="45.889781" lon="6.789082"><ele>987.0</ele></trkpt>
      <trkpt lat="45.889697" lon="6.789394"><ele>987.0</ele></trkpt>
      <trkpt lat="45.889567" lon="6.789861"><ele>1036.0</ele></trkpt>
      <trkpt lat="45.889421" lon="6.790376"><ele>1036.0</ele></trkpt>
      <trkpt lat="45.889333" lon="6.790750"><ele>1036.0</ele></trkpt>
      <trkpt lat="45.889304" lon="6.791080"><ele>1036.0</ele></trkpt>
      <trkpt lat="45.889243" lon="6.791805"><ele>1032.0</ele></trkpt>
      <trkpt lat="45.889230" lon="6.792153"><ele>1032.0</ele></trkpt>
      <trkpt lat="45.889263" lon="6.792719"><ele>1032.0</ele></trkpt>
      <trkpt lat="45.889322" lon="6.793238"><ele>1032.0</ele></trkpt>
      <trkpt lat="45.889357" lon="6.793736"><ele>1032.0</ele></trkpt>
      <trkpt lat="45.889334" lon="6.794323"><ele>1039.0</ele></trkpt>
      <trkpt lat="45.889276" lon="6.794786"><ele>1039.0</ele></trkpt>
      <trkpt lat="45.889228" lon="6.795240"><ele>1039.0</ele></trkpt>
      <trkpt lat="45.889282" lon="6.795839"><ele>1024.0</ele></trkpt>
      <trkpt lat="45.889334" lon="6.796254"><ele>1024.0</ele></trkpt>
      <trkpt lat="45.889368" lon="6.796685"><ele>1024.0</ele></trkpt>
      <trkpt lat="45.889415" lon="6.797026"><ele>1024.0</ele></trkpt>
      <trkpt lat="45.889503" lon="6.797381"><ele>1024.0</ele></trkpt>
      <trkpt lat="45.889653" lon="6.797654"><ele>999.0</ele></trkpt>
      <trkpt lat="45.889820" lon="6.797877"><ele>999.0</ele></trkpt>
      <trkpt lat="45.889987" lon="6.798127"><ele>1012.0</ele></trkpt>
      <trkpt lat="45.890182" lon="6.798313"><ele>1012.0</ele></trkpt>
      <trkpt lat="45.890498" lon="6.798570"><ele>1012.0</ele></trkpt>
      <trkpt lat="45.890774" lon="6.798728"><ele>1012.0</ele></trkpt>
      <trkpt lat="45.891388" lon="6.798937"><ele>1012.0</ele></trkpt>
      <trkpt lat="45.891635" lon="6.799020"><ele>1012.0</ele></trkpt>
      <trkpt lat="45.891865" lon="6.799156"><ele>987.0</ele></trkpt>
      <trkpt lat="45.892075" lon="6.799469"><ele>987.0</ele></trkpt>
      <trkpt lat="45.892287" lon="6.799809"><ele>987.0</ele></trkpt>
      <trkpt lat="45.892497" lon="6.799655"><ele>987.0</ele></trkpt>
      <trkpt lat="45.892572" lon="6.799323"><ele>987.0</ele></trkpt>
      <trkpt lat="45.892936" lon="6.799454"><ele>987.0</ele></trkpt>
      <trkpt lat="45.893122" lon="6.799652"><ele>987.0</ele></trkpt>
      <trkpt lat="45.893575" lon="6.799231"><ele>987.0</ele></trkpt>
      <trkpt lat="45.893700" lon="6.798957"><ele>987.0</ele></trkpt>
      <trkpt lat="45.893768" lon="6.798618"><ele>984.0</ele></trkpt>
      <trkpt lat="45.893864" lon="6.798044"><ele>984.0</ele></trkpt>
      <trkpt lat="45.893901" lon="6.797911"><ele>1035.0</ele></trkpt>
    </trkseg>
  </trk>
</gpx>
