<?xml version="1.0" encoding="UTF-8"?>
<gpx version="1.1" creator="TrailShare content prep" xmlns="http://www.topografix.com/GPX/1/1">
  <metadata>
    <name>TMB Tappa 7: La Fouly → Champex-Lac</name>
    <desc>Tour du Mont Blanc, tappa 7/7 (CH). Geometria: OpenStreetMap contributors (ODbL), relation OSM tappa CCW. Elevazione: Open-Elevation (SRTM).</desc>
  </metadata>
  <trk>
    <name>TMB Tappa 7: La Fouly → Champex-Lac</name>
    <trkseg>
      <trkpt lat="46.031914" lon="7.108808"><ele>1491.0</ele></trkpt>
      <trkpt lat="46.031916" lon="7.108421"><ele>1491.0</ele></trkpt>
      <trkpt lat="46.031592" lon="7.108117"><ele>1509.0</ele></trkpt>
      <trkpt lat="46.031365" lon="7.107839"><ele>1509.0</ele></trkpt>
      <trkpt lat="46.031844" lon="7.109077"><ele>1491.0</ele></trkpt>
      <trkpt lat="46.031874" lon="7.109470"><ele>1491.0</ele></trkpt>
      <trkpt lat="46.031862" lon="7.109863"><ele>1491.0</ele></trkpt>
      <trkpt lat="46.031732" lon="7.110537"><ele>1503.0</ele></trkpt>
      <trkpt lat="46.031622" lon="7.111277"><ele>1503.0</ele></trkpt>
      <trkpt lat="46.031509" lon="7.111814"><ele>1503.0</ele></trkpt>
      <trkpt lat="46.031396" lon="7.112218"><ele>1503.0</ele></trkpt>
      <trkpt lat="46.031291" lon="7.112554"><ele>1512.0</ele></trkpt>
      <trkpt lat="46.031127" lon="7.113021"><ele>1473.0</ele></trkpt>
      <trkpt lat="46.030898" lon="7.113736"><ele>1473.0</ele></trkpt>
      <trkpt lat="46.030794" lon="7.114177"><ele>1473.0</ele></trkpt>
      <trkpt lat="46.030723" lon="7.114579"><ele>1473.0</ele></trkpt>
      <trkpt lat="46.030600" lon="7.115174"><ele>1472.0</ele></trkpt>
      <trkpt lat="46.030453" lon="7.115746"><ele>1472.0</ele></trkpt>
      <trkpt lat="46.030284" lon="7.116187"><ele>1472.0</ele></trkpt>
      <trkpt lat="46.030021" lon="7.116641"><ele>1472.0</ele></trkpt>
      <trkpt lat="46.029713" lon="7.117015"><ele>1492.0</ele></trkpt>
      <trkpt lat="46.029364" lon="7.117222"><ele>1492.0</ele></trkpt>
      <trkpt lat="46.029132" lon="7.117469"><ele>1469.0</ele></trkpt>
      <trkpt lat="46.028977" lon="7.117705"><ele>1469.0</ele></trkpt>
      <trkpt lat="46.028697" lon="7.117971"><ele>1469.0</ele></trkpt>
      <trkpt lat="46.028468" lon="7.118210"><ele>1469.0</ele></trkpt>
      <trkpt lat="46.028313" lon="7.118455"><ele>1469.0</ele></trkpt>
      <trkpt lat="46.028209" lon="7.118854"><ele>1472.0</ele></trkpt>
      <trkpt lat="46.028172" lon="7.119212"><ele>1472.0</ele></trkpt>
      <trkpt lat="46.028135" lon="7.119777"><ele>1472.0</ele></trkpt>
      <trkpt lat="46.027951" lon="7.120163"><ele>1472.0</ele></trkpt>
      <trkpt lat="46.027747" lon="7.120321"><ele>1472.0</ele></trkpt>
      <trkpt lat="46.027468" lon="7.120351"><ele>1472.0</ele></trkpt>
      <trkpt lat="46.027221" lon="7.120499"><ele>1472.0</ele></trkpt>
      <trkpt lat="46.027162" lon="7.120849"><ele>1540.0</ele></trkpt>
      <trkpt lat="46.026962" lon="7.121226"><ele>1474.0</ele></trkpt>
      <trkpt lat="46.026715" lon="7.121600"><ele>1474.0</ele></trkpt>
      <trkpt lat="46.026483" lon="7.122095"><ele>1474.0</ele></trkpt>
      <trkpt lat="46.026118" lon="7.122494"><ele>1474.0</ele></trkpt>
      <trkpt lat="46.025891" lon="7.122544"><ele>1474.0</ele></trkpt>
      <trkpt lat="46.025680" lon="7.122377"><ele>1474.0</ele></trkpt>
      <trkpt lat="46.025460" lon="7.122448"><ele>1474.0</ele></trkpt>
      <trkpt lat="46.025397" lon="7.122097"><ele>1474.0</ele></trkpt>
      <trkpt lat="46.025576" lon="7.121691"><ele>1474.0</ele></trkpt>
      <trkpt lat="46.025707" lon="7.121391"><ele>1474.0</ele></trkpt>
      <trkpt lat="46.025929" lon="7.121168"><ele>1474.0</ele></trkpt>
      <trkpt lat="46.025657" lon="7.121089"><ele>1474.0</ele></trkpt>
      <trkpt lat="46.025415" lon="7.121305"><ele>1474.0</ele></trkpt>
      <trkpt lat="46.025143" lon="7.121533"><ele>1474.0</ele></trkpt>
      <trkpt lat="46.024852" lon="7.121591"><ele>1436.0</ele></trkpt>
      <trkpt lat="46.024560" lon="7.121363"><ele>1436.0</ele></trkpt>
      <trkpt lat="46.024410" lon="7.121011"><ele>1436.0</ele></trkpt>
      <trkpt lat="46.024079" lon="7.120968"><ele>1436.0</ele></trkpt>
      <trkpt lat="46.023947" lon="7.120611"><ele>1441.0</ele></trkpt>
      <trkpt lat="46.023699" lon="7.120622"><ele>1441.0</ele></trkpt>
      <trkpt lat="46.023438" lon="7.120602"><ele>1441.0</ele></trkpt>
      <trkpt lat="46.023155" lon="7.120351"><ele>1441.0</ele></trkpt>
      <trkpt lat="46.022949" lon="7.120189"><ele>1441.0</ele></trkpt>
      <trkpt lat="46.022659" lon="7.120099"><ele>1400.0</ele></trkpt>
      <trkpt lat="46.022380" lon="7.119954"><ele>1400.0</ele></trkpt>
      <trkpt lat="46.022197" lon="7.119701"><ele>1400.0</ele></trkpt>
      <trkpt lat="46.021950" lon="7.119557"><ele>1400.0</ele></trkpt>
      <trkpt lat="46.021740" lon="7.119313"><ele>1400.0</ele></trkpt>
      <trkpt lat="46.021496" lon="7.119210"><ele>1400.0</ele></trkpt>
      <trkpt lat="46.021241" lon="7.119192"><ele>1400.0</ele></trkpt>
      <trkpt lat="46.021012" lon="7.119031"><ele>1400.0</ele></trkpt>
      <trkpt lat="46.020712" lon="7.118845"><ele>1376.0</ele></trkpt>
      <trkpt lat="46.020485" lon="7.118953"><ele>1376.0</ele></trkpt>
      <trkpt lat="46.020233" lon="7.119013"><ele>1376.0</ele></trkpt>
      <trkpt lat="46.019911" lon="7.118898"><ele>1376.0</ele></trkpt>
      <trkpt lat="46.019621" lon="7.118773"><ele>1376.0</ele></trkpt>
      <trkpt lat="46.019429" lon="7.118594"><ele>1434.0</ele></trkpt>
      <trkpt lat="46.019264" lon="7.118371"><ele>1434.0</ele></trkpt>
      <trkpt lat="46.018995" lon="7.118274"><ele>1434.0</ele></trkpt>
      <trkpt lat="46.018810" lon="7.118079"><ele>1434.0</ele></trkpt>
      <trkpt lat="46.018580" lon="7.117975"><ele>1375.0</ele></trkpt>
      <trkpt lat="46.018502" lon="7.118312"><ele>1375.0</ele></trkpt>
      <trkpt lat="46.018314" lon="7.118562"><ele>1375.0</ele></trkpt>
      <trkpt lat="46.018254" lon="7.118990"><ele>1310.0</ele></trkpt>
      <trkpt lat="46.018389" lon="7.119374"><ele>1310.0</ele></trkpt>
      <trkpt lat="46.018516" lon="7.119646"><ele>1310.0</ele></trkpt>
      <trkpt lat="46.018697" lon="7.119877"><ele>1310.0</ele></trkpt>
      <trkpt lat="46.018425" lon="7.119833"><ele>1310.0</ele></trkpt>
      <trkpt lat="46.018201" lon="7.119580"><ele>1310.0</ele></trkpt>
      <trkpt lat="46.018012" lon="7.119291"><ele>1310.0</ele></trkpt>
      <trkpt lat="46.017828" lon="7.119028"><ele>1310.0</ele></trkpt>
      <trkpt lat="46.017564" lon="7.118906"><ele>1310.0</ele></trkpt>
      <trkpt lat="46.017339" lon="7.118961"><ele>1310.0</ele></trkpt>
      <trkpt lat="46.017046" lon="7.119020"><ele>1310.0</ele></trkpt>
      <trkpt lat="46.016824" lon="7.119139"><ele>1310.0</ele></trkpt>
      <trkpt lat="46.016603" lon="7.119259"><ele>1332.0</ele></trkpt>
      <trkpt lat="46.016360" lon="7.119259"><ele>1332.0</ele></trkpt>
      <trkpt lat="46.016172" lon="7.119517"><ele>1332.0</ele></trkpt>
      <trkpt lat="46.015931" lon="7.119777"><ele>1332.0</ele></trkpt>
      <trkpt lat="46.015641" lon="7.119795"><ele>1332.0</ele></trkpt>
      <trkpt lat="46.015393" lon="7.119813"><ele>1332.0</ele></trkpt>
      <trkpt lat="46.015087" lon="7.119756"><ele>1332.0</ele></trkpt>
      <trkpt lat="46.014783" lon="7.119670"><ele>1332.0</ele></trkpt>
      <trkpt lat="46.014395" lon="7.119687"><ele>1300.0</ele></trkpt>
      <trkpt lat="46.014238" lon="7.119963"><ele>1300.0</ele></trkpt>
      <trkpt lat="46.014048" lon="7.120135"><ele>1300.0</ele></trkpt>
      <trkpt lat="46.013889" lon="7.120419"><ele>1300.0</ele></trkpt>
      <trkpt lat="46.013937" lon="7.120791"><ele>1300.0</ele></trkpt>
      <trkpt lat="46.013653" lon="7.120792"><ele>1300.0</ele></trkpt>
      <trkpt lat="46.013483" lon="7.120540"><ele>1300.0</ele></trkpt>
      <trkpt lat="46.013276" lon="7.120224"><ele>1300.0</ele></trkpt>
      <trkpt lat="46.013053" lon="7.119934"><ele>1300.0</ele></trkpt>
      <trkpt lat="46.012728" lon="7.119724"><ele>1300.0</ele></trkpt>
      <trkpt lat="46.012492" lon="7.119651"><ele>1209.0</ele></trkpt>
      <trkpt lat="46.012257" lon="7.119644"><ele>1209.0</ele></trkpt>
      <trkpt lat="46.011911" lon="7.119550"><ele>1209.0</ele></trkpt>
      <trkpt lat="46.011762" lon="7.119203"><ele>1209.0</ele></trkpt>
      <trkpt lat="46.011657" lon="7.118866"><ele>1209.0</ele></trkpt>
      <trkpt lat="46.011611" lon="7.118432"><ele>1251.0</ele></trkpt>
      <trkpt lat="46.011504" lon="7.118097"><ele>1251.0</ele></trkpt>
      <trkpt lat="46.011218" lon="7.118391"><ele>1251.0</ele></trkpt>
      <trkpt lat="46.011059" lon="7.118728"><ele>1251.0</ele></trkpt>
      <trkpt lat="46.010938" lon="7.119061"><ele>1209.0</ele></trkpt>
      <trkpt lat="46.011083" lon="7.119440"><ele>1209.0</ele></trkpt>
      <trkpt lat="46.010908" lon="7.119955"><ele>1209.0</ele></trkpt>
      <trkpt lat="46.010675" lon="7.120107"><ele>1209.0</ele></trkpt>
      <trkpt lat="46.010463" lon="7.120291"><ele>1209.0</ele></trkpt>
      <trkpt lat="46.010263" lon="7.120523"><ele>1270.0</ele></trkpt>
      <trkpt lat="46.010124" lon="7.120945"><ele>1188.0</ele></trkpt>
      <trkpt lat="46.009999" lon="7.121217"><ele>1188.0</ele></trkpt>
      <trkpt lat="46.009827" lon="7.121537"><ele>1188.0</ele></trkpt>
      <trkpt lat="46.009672" lon="7.121828"><ele>1188.0</ele></trkpt>
      <trkpt lat="46.009624" lon="7.122289"><ele>1188.0</ele></trkpt>
      <trkpt lat="46.009630" lon="7.122678"><ele>1188.0</ele></trkpt>
      <trkpt lat="46.009426" lon="7.122856"><ele>1188.0</ele></trkpt>
      <trkpt lat="46.009406" lon="7.123202"><ele>1117.0</ele></trkpt>
      <trkpt lat="46.009530" lon="7.123516"><ele>1117.0</ele></trkpt>
      <trkpt lat="46.009272" lon="7.123473"><ele>1117.0</ele></trkpt>
      <trkpt lat="46.008966" lon="7.123348"><ele>1117.0</ele></trkpt>
      <trkpt lat="46.008645" lon="7.123266"><ele>1117.0</ele></trkpt>
      <trkpt lat="46.008322" lon="7.123084"><ele>1080.0</ele></trkpt>
      <trkpt lat="46.007892" lon="7.123018"><ele>1080.0</ele></trkpt>
      <trkpt lat="46.007606" lon="7.123094"><ele>1080.0</ele></trkpt>
      <trkpt lat="46.007383" lon="7.123350"><ele>1080.0</ele></trkpt>
      <trkpt lat="46.007174" lon="7.123218"><ele>1080.0</ele></trkpt>
      <trkpt lat="46.006980" lon="7.123437"><ele>1080.0</ele></trkpt>
      <trkpt lat="46.006607" lon="7.123622"><ele>1080.0</ele></trkpt>
      <trkpt lat="46.006361" lon="7.123503"><ele>1080.0</ele></trkpt>
      <trkpt lat="46.006267" lon="7.123184"><ele>1080.0</ele></trkpt>
      <trkpt lat="46.006075" lon="7.123368"><ele>1074.0</ele></trkpt>
      <trkpt lat="46.006008" lon="7.123755"><ele>1074.0</ele></trkpt>
      <trkpt lat="46.005773" lon="7.124018"><ele>1074.0</ele></trkpt>
      <trkpt lat="46.005482" lon="7.124263"><ele>1074.0</ele></trkpt>
      <trkpt lat="46.005259" lon="7.124327"><ele>1074.0</ele></trkpt>
      <trkpt lat="46.005034" lon="7.124385"><ele>1074.0</ele></trkpt>
      <trkpt lat="46.004591" lon="7.124744"><ele>1074.0</ele></trkpt>
      <trkpt lat="46.004047" lon="7.125127"><ele>1055.0</ele></trkpt>
      <trkpt lat="46.003576" lon="7.125413"><ele>1055.0</ele></trkpt>
      <trkpt lat="46.003268" lon="7.125580"><ele>1055.0</ele></trkpt>
      <trkpt lat="46.003043" lon="7.125681"><ele>1055.0</ele></trkpt>
      <trkpt lat="46.002710" lon="7.125749"><ele>1055.0</ele></trkpt>
      <trkpt lat="46.002633" lon="7.126085"><ele>1055.0</ele></trkpt>
      <trkpt lat="46.002633" lon="7.126429"><ele>1055.0</ele></trkpt>
      <trkpt lat="46.002539" lon="7.126753"><ele>1055.0</ele></trkpt>
      <trkpt lat="46.002274" lon="7.126953"><ele>1055.0</ele></trkpt>
      <trkpt lat="46.002047" lon="7.127096"><ele>1110.0</ele></trkpt>
      <trkpt lat="46.001829" lon="7.127292"><ele>1110.0</ele></trkpt>
      <trkpt lat="46.001526" lon="7.127392"><ele>1110.0</ele></trkpt>
      <trkpt lat="46.001201" lon="7.127674"><ele>1110.0</ele></trkpt>
      <trkpt lat="46.000926" lon="7.127847"><ele>1110.0</ele></trkpt>
      <trkpt lat="46.000723" lon="7.128000"><ele>1110.0</ele></trkpt>
      <trkpt lat="46.000470" lon="7.128187"><ele>1110.0</ele></trkpt>
      <trkpt lat="46.000227" lon="7.128187"><ele>1110.0</ele></trkpt>
      <trkpt lat="46.000000" lon="7.128268"><ele>1110.0</ele></trkpt>
      <trkpt lat="45.999679" lon="7.128269"><ele>1111.0</ele></trkpt>
      <trkpt lat="45.999422" lon="7.128118"><ele>1111.0</ele></trkpt>
      <trkpt lat="45.999134" lon="7.127952"><ele>1111.0</ele></trkpt>
      <trkpt lat="45.998864" lon="7.127926"><ele>1111.0</ele></trkpt>
      <trkpt lat="45.998628" lon="7.127936"><ele>1111.0</ele></trkpt>
      <trkpt lat="45.998377" lon="7.127930"><ele>1111.0</ele></trkpt>
      <trkpt lat="45.998243" lon="7.128210"><ele>1111.0</ele></trkpt>
      <trkpt lat="45.998006" lon="7.128125"><ele>1111.0</ele></trkpt>
      <trkpt lat="45.997700" lon="7.128154"><ele>1122.0</ele></trkpt>
      <trkpt lat="45.997421" lon="7.128276"><ele>1122.0</ele></trkpt>
      <trkpt lat="45.997079" lon="7.128271"><ele>1122.0</ele></trkpt>
      <trkpt lat="45.996846" lon="7.128245"><ele>1122.0</ele></trkpt>
      <trkpt lat="45.996613" lon="7.128235"><ele>1122.0</ele></trkpt>
      <trkpt lat="45.996187" lon="7.128173"><ele>1122.0</ele></trkpt>
      <trkpt lat="45.995893" lon="7.128136"><ele>1122.0</ele></trkpt>
      <trkpt lat="45.995614" lon="7.128117"><ele>1131.0</ele></trkpt>
      <trkpt lat="45.995293" lon="7.128025"><ele>1131.0</ele></trkpt>
      <trkpt lat="45.995080" lon="7.127798"><ele>1131.0</ele></trkpt>
      <trkpt lat="45.994837" lon="7.127726"><ele>1131.0</ele></trkpt>
      <trkpt lat="45.994492" lon="7.127550"><ele>1131.0</ele></trkpt>
      <trkpt lat="45.994261" lon="7.127354"><ele>1131.0</ele></trkpt>
      <trkpt lat="45.993968" lon="7.127182"><ele>1131.0</ele></trkpt>
      <trkpt lat="45.993690" lon="7.127150"><ele>1166.0</ele></trkpt>
      <trkpt lat="45.993221" lon="7.126856"><ele>1119.0</ele></trkpt>
      <trkpt lat="45.992963" lon="7.126744"><ele>1119.0</ele></trkpt>
      <trkpt lat="45.992533" lon="7.126756"><ele>1119.0</ele></trkpt>
      <trkpt lat="45.992179" lon="7.126806"><ele>1119.0</ele></trkpt>
      <trkpt lat="45.991910" lon="7.126819"><ele>1119.0</ele></trkpt>
      <trkpt lat="45.991629" lon="7.126854"><ele>1141.0</ele></trkpt>
      <trkpt lat="45.991276" lon="7.126847"><ele>1141.0</ele></trkpt>
      <trkpt lat="45.991026" lon="7.126787"><ele>1141.0</ele></trkpt>
      <trkpt lat="45.990721" lon="7.126724"><ele>1141.0</ele></trkpt>
      <trkpt lat="45.990494" lon="7.126725"><ele>1141.0</ele></trkpt>
      <trkpt lat="45.990047" lon="7.126812"><ele>1141.0</ele></trkpt>
      <trkpt lat="45.989722" lon="7.126696"><ele>1141.0</ele></trkpt>
      <trkpt lat="45.989340" lon="7.126515"><ele>1161.0</ele></trkpt>
      <trkpt lat="45.989112" lon="7.126399"><ele>1161.0</ele></trkpt>
      <trkpt lat="45.988897" lon="7.126152"><ele>1161.0</ele></trkpt>
      <trkpt lat="45.988864" lon="7.125723"><ele>1161.0</ele></trkpt>
      <trkpt lat="45.989056" lon="7.125452"><ele>1161.0</ele></trkpt>
      <trkpt lat="45.989282" lon="7.125129"><ele>1161.0</ele></trkpt>
      <trkpt lat="45.989461" lon="7.124810"><ele>1165.0</ele></trkpt>
      <trkpt lat="45.989398" lon="7.124466"><ele>1165.0</ele></trkpt>
      <trkpt lat="45.989280" lon="7.124160"><ele>1165.0</ele></trkpt>
      <trkpt lat="45.989102" lon="7.123951"><ele>1165.0</ele></trkpt>
      <trkpt lat="45.988847" lon="7.123867"><ele>1165.0</ele></trkpt>
      <trkpt lat="45.988536" lon="7.123745"><ele>1165.0</ele></trkpt>
      <trkpt lat="45.988345" lon="7.123529"><ele>1165.0</ele></trkpt>
      <trkpt lat="45.988191" lon="7.123187"><ele>1165.0</ele></trkpt>
      <trkpt lat="45.987828" lon="7.122819"><ele>1194.0</ele></trkpt>
      <trkpt lat="45.987609" lon="7.122579"><ele>1194.0</ele></trkpt>
      <trkpt lat="45.987437" lon="7.122195"><ele>1190.0</ele></trkpt>
      <trkpt lat="45.987212" lon="7.121843"><ele>1190.0</ele></trkpt>
      <trkpt lat="45.986953" lon="7.121575"><ele>1190.0</ele></trkpt>
      <trkpt lat="45.986709" lon="7.121463"><ele>1190.0</ele></trkpt>
      <trkpt lat="45.986467" lon="7.121534"><ele>1190.0</ele></trkpt>
      <trkpt lat="45.986212" lon="7.121731"><ele>1190.0</ele></trkpt>
      <trkpt lat="45.985963" lon="7.121684"><ele>1190.0</ele></trkpt>
      <trkpt lat="45.985553" lon="7.121398"><ele>1190.0</ele></trkpt>
      <trkpt lat="45.985229" lon="7.121338"><ele>1204.0</ele></trkpt>
      <trkpt lat="45.984883" lon="7.121528"><ele>1204.0</ele></trkpt>
      <trkpt lat="45.984556" lon="7.121697"><ele>1204.0</ele></trkpt>
      <trkpt lat="45.984312" lon="7.121896"><ele>1204.0</ele></trkpt>
      <trkpt lat="45.984085" lon="7.122188"><ele>1204.0</ele></trkpt>
      <trkpt lat="45.983884" lon="7.122418"><ele>1204.0</ele></trkpt>
      <trkpt lat="45.983473" lon="7.122576"><ele>1204.0</ele></trkpt>
      <trkpt lat="45.983101" lon="7.122695"><ele>1211.0</ele></trkpt>
      <trkpt lat="45.982645" lon="7.122835"><ele>1211.0</ele></trkpt>
      <trkpt lat="45.982353" lon="7.123041"><ele>1209.0</ele></trkpt>
      <trkpt lat="45.981976" lon="7.123344"><ele>1209.0</ele></trkpt>
      <trkpt lat="45.981706" lon="7.123488"><ele>1209.0</ele></trkpt>
      <trkpt lat="45.981507" lon="7.123702"><ele>1209.0</ele></trkpt>
      <trkpt lat="45.981340" lon="7.123973"><ele>1209.0</ele></trkpt>
      <trkpt lat="45.981197" lon="7.124291"><ele>1220.0</ele></trkpt>
      <trkpt lat="45.981043" lon="7.123995"><ele>1220.0</ele></trkpt>
      <trkpt lat="45.980903" lon="7.123662"><ele>1220.0</ele></trkpt>
      <trkpt lat="45.980723" lon="7.123393"><ele>1220.0</ele></trkpt>
      <trkpt lat="45.980513" lon="7.123038"><ele>1220.0</ele></trkpt>
      <trkpt lat="45.980316" lon="7.122611"><ele>1272.0</ele></trkpt>
      <trkpt lat="45.980219" lon="7.122315"><ele>1272.0</ele></trkpt>
      <trkpt lat="45.980085" lon="7.121979"><ele>1272.0</ele></trkpt>
      <trkpt lat="45.979948" lon="7.121695"><ele>1272.0</ele></trkpt>
      <trkpt lat="45.979811" lon="7.121344"><ele>1272.0</ele></trkpt>
      <trkpt lat="45.979641" lon="7.120910"><ele>1272.0</ele></trkpt>
      <trkpt lat="45.979430" lon="7.120538"><ele>1263.0</ele></trkpt>
      <trkpt lat="45.979259" lon="7.120208"><ele>1263.0</ele></trkpt>
      <trkpt lat="45.979159" lon="7.119713"><ele>1255.0</ele></trkpt>
      <trkpt lat="45.979062" lon="7.119163"><ele>1255.0</ele></trkpt>
      <trkpt lat="45.978955" lon="7.118591"><ele>1269.0</ele></trkpt>
      <trkpt lat="45.978890" lon="7.118008"><ele>1269.0</ele></trkpt>
      <trkpt lat="45.978935" lon="7.117613"><ele>1269.0</ele></trkpt>
      <trkpt lat="45.979061" lon="7.117152"><ele>1269.0</ele></trkpt>
      <trkpt lat="45.979236" lon="7.116522"><ele>1277.0</ele></trkpt>
      <trkpt lat="45.979368" lon="7.116086"><ele>1277.0</ele></trkpt>
      <trkpt lat="45.979407" lon="7.115674"><ele>1277.0</ele></trkpt>
      <trkpt lat="45.979513" lon="7.115283"><ele>1277.0</ele></trkpt>
      <trkpt lat="45.979618" lon="7.114874"><ele>1277.0</ele></trkpt>
      <trkpt lat="45.979666" lon="7.114434"><ele>1290.0</ele></trkpt>
      <trkpt lat="45.979687" lon="7.113907"><ele>1290.0</ele></trkpt>
      <trkpt lat="45.979715" lon="7.113445"><ele>1290.0</ele></trkpt>
      <trkpt lat="45.979760" lon="7.112915"><ele>1290.0</ele></trkpt>
      <trkpt lat="45.979468" lon="7.112756"><ele>1290.0</ele></trkpt>
      <trkpt lat="45.979250" lon="7.112858"><ele>1290.0</ele></trkpt>
      <trkpt lat="45.978939" lon="7.113015"><ele>1304.0</ele></trkpt>
      <trkpt lat="45.978677" lon="7.113037"><ele>1304.0</ele></trkpt>
      <trkpt lat="45.978406" lon="7.113116"><ele>1304.0</ele></trkpt>
      <trkpt lat="45.978054" lon="7.113115"><ele>1304.0</ele></trkpt>
      <trkpt lat="45.977731" lon="7.113119"><ele>1304.0</ele></trkpt>
      <trkpt lat="45.977316" lon="7.113289"><ele>1304.0</ele></trkpt>
      <trkpt lat="45.977036" lon="7.113412"><ele>1291.0</ele></trkpt>
      <trkpt lat="45.976771" lon="7.113357"><ele>1291.0</ele></trkpt>
      <trkpt lat="45.976510" lon="7.113173"><ele>1291.0</ele></trkpt>
      <trkpt lat="45.976219" lon="7.112838"><ele>1291.0</ele></trkpt>
      <trkpt lat="45.975982" lon="7.112814"><ele>1291.0</ele></trkpt>
      <trkpt lat="45.975707" lon="7.112631"><ele>1291.0</ele></trkpt>
      <trkpt lat="45.975449" lon="7.112582"><ele>1291.0</ele></trkpt>
      <trkpt lat="45.975180" lon="7.112358"><ele>1404.0</ele></trkpt>
      <trkpt lat="45.974919" lon="7.112180"><ele>1362.0</ele></trkpt>
      <trkpt lat="45.974637" lon="7.112085"><ele>1362.0</ele></trkpt>
      <trkpt lat="45.974345" lon="7.111962"><ele>1362.0</ele></trkpt>
      <trkpt lat="45.974072" lon="7.111952"><ele>1362.0</ele></trkpt>
      <trkpt lat="45.973848" lon="7.112027"><ele>1362.0</ele></trkpt>
      <trkpt lat="45.973417" lon="7.112026"><ele>1362.0</ele></trkpt>
      <trkpt lat="45.973156" lon="7.111948"><ele>1362.0</ele></trkpt>
      <trkpt lat="45.972932" lon="7.111865"><ele>1362.0</ele></trkpt>
      <trkpt lat="45.972744" lon="7.111668"><ele>1346.0</ele></trkpt>
      <trkpt lat="45.972496" lon="7.111596"><ele>1346.0</ele></trkpt>
      <trkpt lat="45.972214" lon="7.111569"><ele>1346.0</ele></trkpt>
      <trkpt lat="45.971904" lon="7.111494"><ele>1346.0</ele></trkpt>
      <trkpt lat="45.971671" lon="7.111439"><ele>1346.0</ele></trkpt>
      <trkpt lat="45.971461" lon="7.111058"><ele>1346.0</ele></trkpt>
      <trkpt lat="45.971151" lon="7.110771"><ele>1346.0</ele></trkpt>
      <trkpt lat="45.971073" lon="7.110465"><ele>1346.0</ele></trkpt>
      <trkpt lat="45.970821" lon="7.110223"><ele>1411.0</ele></trkpt>
      <trkpt lat="45.971083" lon="7.110207"><ele>1461.0</ele></trkpt>
      <trkpt lat="45.970838" lon="7.109990"><ele>1461.0</ele></trkpt>
      <trkpt lat="45.970812" lon="7.109643"><ele>1411.0</ele></trkpt>
      <trkpt lat="45.970650" lon="7.109413"><ele>1411.0</ele></trkpt>
      <trkpt lat="45.970424" lon="7.109612"><ele>1411.0</ele></trkpt>
      <trkpt lat="45.970192" lon="7.109575"><ele>1411.0</ele></trkpt>
      <trkpt lat="45.969956" lon="7.109532"><ele>1411.0</ele></trkpt>
      <trkpt lat="45.969679" lon="7.109422"><ele>1411.0</ele></trkpt>
      <trkpt lat="45.969432" lon="7.109279"><ele>1411.0</ele></trkpt>
      <trkpt lat="45.969184" lon="7.109234"><ele>1411.0</ele></trkpt>
      <trkpt lat="45.968939" lon="7.109279"><ele>1411.0</ele></trkpt>
      <trkpt lat="45.968665" lon="7.109281"><ele>1390.0</ele></trkpt>
      <trkpt lat="45.968375" lon="7.109246"><ele>1390.0</ele></trkpt>
      <trkpt lat="45.968036" lon="7.109296"><ele>1390.0</ele></trkpt>
      <trkpt lat="45.967705" lon="7.109325"><ele>1390.0</ele></trkpt>
      <trkpt lat="45.967482" lon="7.109204"><ele>1390.0</ele></trkpt>
      <trkpt lat="45.967252" lon="7.109116"><ele>1390.0</ele></trkpt>
      <trkpt lat="45.966980" lon="7.108966"><ele>1390.0</ele></trkpt>
      <trkpt lat="45.966696" lon="7.108884"><ele>1390.0</ele></trkpt>
      <trkpt lat="45.966467" lon="7.108758"><ele>1344.0</ele></trkpt>
      <trkpt lat="45.966304" lon="7.108395"><ele>1344.0</ele></trkpt>
      <trkpt lat="45.966084" lon="7.108196"><ele>1423.0</ele></trkpt>
      <trkpt lat="45.965803" lon="7.108111"><ele>1423.0</ele></trkpt>
      <trkpt lat="45.965425" lon="7.108055"><ele>1423.0</ele></trkpt>
      <trkpt lat="45.965208" lon="7.108318"><ele>1423.0</ele></trkpt>
      <trkpt lat="45.964941" lon="7.108342"><ele>1344.0</ele></trkpt>
      <trkpt lat="45.964674" lon="7.108429"><ele>1344.0</ele></trkpt>
      <trkpt lat="45.964412" lon="7.108368"><ele>1362.0</ele></trkpt>
      <trkpt lat="45.964145" lon="7.108364"><ele>1362.0</ele></trkpt>
      <trkpt lat="45.963923" lon="7.108275"><ele>1395.0</ele></trkpt>
      <trkpt lat="45.963525" lon="7.108195"><ele>1395.0</ele></trkpt>
      <trkpt lat="45.963270" lon="7.108265"><ele>1395.0</ele></trkpt>
      <trkpt lat="45.963004" lon="7.108337"><ele>1362.0</ele></trkpt>
      <trkpt lat="45.962724" lon="7.108390"><ele>1362.0</ele></trkpt>
      <trkpt lat="45.962348" lon="7.108495"><ele>1374.0</ele></trkpt>
      <trkpt lat="45.962058" lon="7.108621"><ele>1374.0</ele></trkpt>
      <trkpt lat="45.961590" lon="7.108584"><ele>1374.0</ele></trkpt>
      <trkpt lat="45.961195" lon="7.108616"><ele>1374.0</ele></trkpt>
      <trkpt lat="45.960638" lon="7.108737"><ele>1374.0</ele></trkpt>
      <trkpt lat="45.960351" lon="7.108669"><ele>1416.0</ele></trkpt>
      <trkpt lat="45.960127" lon="7.108615"><ele>1416.0</ele></trkpt>
      <trkpt lat="45.959869" lon="7.108466"><ele>1416.0</ele></trkpt>
      <trkpt lat="45.959667" lon="7.108196"><ele>1405.0</ele></trkpt>
      <trkpt lat="45.959566" lon="7.107810"><ele>1405.0</ele></trkpt>
      <trkpt lat="45.959358" lon="7.107416"><ele>1405.0</ele></trkpt>
      <trkpt lat="45.959131" lon="7.106959"><ele>1405.0</ele></trkpt>
      <trkpt lat="45.959014" lon="7.106620"><ele>1405.0</ele></trkpt>
      <trkpt lat="45.958904" lon="7.106328"><ele>1405.0</ele></trkpt>
      <trkpt lat="45.958700" lon="7.106116"><ele>1451.0</ele></trkpt>
      <trkpt lat="45.958423" lon="7.106031"><ele>1451.0</ele></trkpt>
      <trkpt lat="45.958219" lon="7.105888"><ele>1436.0</ele></trkpt>
      <trkpt lat="45.957959" lon="7.105694"><ele>1436.0</ele></trkpt>
      <trkpt lat="45.957736" lon="7.105542"><ele>1436.0</ele></trkpt>
      <trkpt lat="45.957463" lon="7.105247"><ele>1436.0</ele></trkpt>
      <trkpt lat="45.957216" lon="7.105144"><ele>1436.0</ele></trkpt>
      <trkpt lat="45.956946" lon="7.105200"><ele>1436.0</ele></trkpt>
      <trkpt lat="45.956650" lon="7.105234"><ele>1436.0</ele></trkpt>
      <trkpt lat="45.956381" lon="7.105158"><ele>1436.0</ele></trkpt>
      <trkpt lat="45.956159" lon="7.104964"><ele>1446.0</ele></trkpt>
      <trkpt lat="45.955866" lon="7.104547"><ele>1446.0</ele></trkpt>
      <trkpt lat="45.955513" lon="7.104179"><ele>1446.0</ele></trkpt>
      <trkpt lat="45.955284" lon="7.103887"><ele>1463.0</ele></trkpt>
      <trkpt lat="45.955123" lon="7.103652"><ele>1463.0</ele></trkpt>
      <trkpt lat="45.954810" lon="7.103415"><ele>1463.0</ele></trkpt>
      <trkpt lat="45.954391" lon="7.103024"><ele>1463.0</ele></trkpt>
      <trkpt lat="45.954145" lon="7.102877"><ele>1456.0</ele></trkpt>
      <trkpt lat="45.953825" lon="7.102801"><ele>1456.0</ele></trkpt>
      <trkpt lat="45.953596" lon="7.102740"><ele>1456.0</ele></trkpt>
      <trkpt lat="45.953359" lon="7.102560"><ele>1456.0</ele></trkpt>
      <trkpt lat="45.953105" lon="7.102422"><ele>1456.0</ele></trkpt>
      <trkpt lat="45.952738" lon="7.102432"><ele>1456.0</ele></trkpt>
      <trkpt lat="45.952509" lon="7.102590"><ele>1456.0</ele></trkpt>
      <trkpt lat="45.952256" lon="7.102648"><ele>1456.0</ele></trkpt>
      <trkpt lat="45.952024" lon="7.102529"><ele>1470.0</ele></trkpt>
      <trkpt lat="45.951695" lon="7.102297"><ele>1470.0</ele></trkpt>
      <trkpt lat="45.951451" lon="7.102033"><ele>1520.0</ele></trkpt>
      <trkpt lat="45.951187" lon="7.101890"><ele>1520.0</ele></trkpt>
      <trkpt lat="45.950917" lon="7.101918"><ele>1520.0</ele></trkpt>
      <trkpt lat="45.950631" lon="7.102077"><ele>1520.0</ele></trkpt>
      <trkpt lat="45.950443" lon="7.101808"><ele>1520.0</ele></trkpt>
      <trkpt lat="45.950185" lon="7.101736"><ele>1520.0</ele></trkpt>
      <trkpt lat="45.949925" lon="7.101524"><ele>1491.0</ele></trkpt>
      <trkpt lat="45.949632" lon="7.101180"><ele>1491.0</ele></trkpt>
      <trkpt lat="45.949427" lon="7.100909"><ele>1491.0</ele></trkpt>
      <trkpt lat="45.949257" lon="7.100662"><ele>1491.0</ele></trkpt>
      <trkpt lat="45.948946" lon="7.100375"><ele>1491.0</ele></trkpt>
      <trkpt lat="45.948748" lon="7.100170"><ele>1491.0</ele></trkpt>
      <trkpt lat="45.948544" lon="7.100004"><ele>1491.0</ele></trkpt>
      <trkpt lat="45.948309" lon="7.099852"><ele>1534.0</ele></trkpt>
      <trkpt lat="45.947991" lon="7.099835"><ele>1534.0</ele></trkpt>
      <trkpt lat="45.947749" lon="7.099668"><ele>1524.0</ele></trkpt>
      <trkpt lat="45.947491" lon="7.099631"><ele>1524.0</ele></trkpt>
      <trkpt lat="45.947264" lon="7.099539"><ele>1524.0</ele></trkpt>
      <trkpt lat="45.946953" lon="7.099419"><ele>1524.0</ele></trkpt>
      <trkpt lat="45.946730" lon="7.099279"><ele>1524.0</ele></trkpt>
      <trkpt lat="45.946499" lon="7.099120"><ele>1524.0</ele></trkpt>
      <trkpt lat="45.946281" lon="7.099012"><ele>1524.0</ele></trkpt>
      <trkpt lat="45.946068" lon="7.098843"><ele>1524.0</ele></trkpt>
      <trkpt lat="45.945813" lon="7.098714"><ele>1520.0</ele></trkpt>
      <trkpt lat="45.945607" lon="7.098424"><ele>1520.0</ele></trkpt>
      <trkpt lat="45.945516" lon="7.098119"><ele>1520.0</ele></trkpt>
      <trkpt lat="45.945319" lon="7.097817"><ele>1529.0</ele></trkpt>
      <trkpt lat="45.945081" lon="7.097517"><ele>1529.0</ele></trkpt>
      <trkpt lat="45.944879" lon="7.097266"><ele>1529.0</ele></trkpt>
      <trkpt lat="45.944734" lon="7.096949"><ele>1529.0</ele></trkpt>
      <trkpt lat="45.944536" lon="7.096515"><ele>1529.0</ele></trkpt>
      <trkpt lat="45.943958" lon="7.096232"><ele>1529.0</ele></trkpt>
      <trkpt lat="45.943662" lon="7.096150"><ele>1533.0</ele></trkpt>
      <trkpt lat="45.943250" lon="7.095931"><ele>1533.0</ele></trkpt>
      <trkpt lat="45.942986" lon="7.095916"><ele>1533.0</ele></trkpt>
      <trkpt lat="45.942726" lon="7.095916"><ele>1533.0</ele></trkpt>
      <trkpt lat="45.942499" lon="7.095864"><ele>1533.0</ele></trkpt>
      <trkpt lat="45.942259" lon="7.096111"><ele>1533.0</ele></trkpt>
      <trkpt lat="45.942031" lon="7.096125"><ele>1533.0</ele></trkpt>
      <trkpt lat="45.941806" lon="7.096179"><ele>1533.0</ele></trkpt>
      <trkpt lat="45.941533" lon="7.096221"><ele>1560.0</ele></trkpt>
      <trkpt lat="45.941157" lon="7.096128"><ele>1560.0</ele></trkpt>
      <trkpt lat="45.940892" lon="7.095958"><ele>1560.0</ele></trkpt>
      <trkpt lat="45.940695" lon="7.095710"><ele>1562.0</ele></trkpt>
      <trkpt lat="45.940446" lon="7.095589"><ele>1562.0</ele></trkpt>
      <trkpt lat="45.940174" lon="7.095620"><ele>1562.0</ele></trkpt>
      <trkpt lat="45.939924" lon="7.095492"><ele>1562.0</ele></trkpt>
      <trkpt lat="45.939672" lon="7.095413"><ele>1562.0</ele></trkpt>
      <trkpt lat="45.939391" lon="7.095387"><ele>1579.0</ele></trkpt>
      <trkpt lat="45.939163" lon="7.095516"><ele>1579.0</ele></trkpt>
      <trkpt lat="45.938950" lon="7.095657"><ele>1579.0</ele></trkpt>
      <trkpt lat="45.938719" lon="7.095560"><ele>1579.0</ele></trkpt>
      <trkpt lat="45.938477" lon="7.095554"><ele>1579.0</ele></trkpt>
      <trkpt lat="45.938244" lon="7.095421"><ele>1579.0</ele></trkpt>
      <trkpt lat="45.937935" lon="7.095593"><ele>1579.0</ele></trkpt>
      <trkpt lat="45.937708" lon="7.095617"><ele>1579.0</ele></trkpt>
      <trkpt lat="45.937456" lon="7.095453"><ele>1590.0</ele></trkpt>
      <trkpt lat="45.937187" lon="7.095315"><ele>1590.0</ele></trkpt>
      <trkpt lat="45.936910" lon="7.095534"><ele>1590.0</ele></trkpt>
      <trkpt lat="45.936601" lon="7.095645"><ele>1590.0</ele></trkpt>
      <trkpt lat="45.936330" lon="7.095834"><ele>1586.0</ele></trkpt>
      <trkpt lat="45.936362" lon="7.096221"><ele>1586.0</ele></trkpt>
      <trkpt lat="45.936324" lon="7.096597"><ele>1586.0</ele></trkpt>
      <trkpt lat="45.936364" lon="7.096937"><ele>1586.0</ele></trkpt>
      <trkpt lat="45.936262" lon="7.097428"><ele>1586.0</ele></trkpt>
      <trkpt lat="45.936133" lon="7.097728"><ele>1586.0</ele></trkpt>
      <trkpt lat="45.935927" lon="7.098234"><ele>1605.0</ele></trkpt>
      <trkpt lat="45.935677" lon="7.098467"><ele>1605.0</ele></trkpt>
      <trkpt lat="45.935374" lon="7.098458"><ele>1605.0</ele></trkpt>
      <trkpt lat="45.934989" lon="7.098431"><ele>1605.0</ele></trkpt>
      <trkpt lat="45.934629" lon="7.098440"><ele>1605.0</ele></trkpt>
      <trkpt lat="45.933981" lon="7.098513"><ele>1605.0</ele></trkpt>
      <trkpt lat="45.933518" lon="7.098603"><ele>1605.0</ele></trkpt>
      <trkpt lat="45.933228" lon="7.098634"><ele>1605.0</ele></trkpt>
      <trkpt lat="45.932752" lon="7.098666"><ele>1605.0</ele></trkpt>
      <trkpt lat="45.932456" lon="7.098681"><ele>1605.0</ele></trkpt>
      <trkpt lat="45.932156" lon="7.098701"><ele>1605.0</ele></trkpt>
      <trkpt lat="45.931863" lon="7.098685"><ele>1605.0</ele></trkpt>
      <trkpt lat="45.931748" lon="7.098612"><ele>1605.0</ele></trkpt>
    </trkseg>
  </trk>
</gpx>
