<?xml version="1.0" encoding="UTF-8"?>
<gpx version="1.1" creator="TrailShare content prep" xmlns="http://www.topografix.com/GPX/1/1">
  <metadata>
    <name>TMB Tappa 6: Rifugio Walter Bonatti → La Fouly</name>
    <desc>Tour du Mont Blanc, tappa 6/7 (IT→CH). Geometria: OpenStreetMap contributors (ODbL), relation OSM tappa CCW. Elevazione: Open-Elevation (SRTM).</desc>
  </metadata>
  <trk>
    <name>TMB Tappa 6: Rifugio Walter Bonatti → La Fouly</name>
    <trkseg>
      <trkpt lat="45.872548" lon="7.054748"><ele>1801.0</ele></trkpt>
      <trkpt lat="45.872645" lon="7.055101"><ele>1801.0</ele></trkpt>
      <trkpt lat="45.872839" lon="7.055458"><ele>1801.0</ele></trkpt>
      <trkpt lat="45.872957" lon="7.055805"><ele>1786.0</ele></trkpt>
      <trkpt lat="45.873015" lon="7.056185"><ele>1786.0</ele></trkpt>
      <trkpt lat="45.873142" lon="7.056545"><ele>1851.0</ele></trkpt>
      <trkpt lat="45.873361" lon="7.056734"><ele>1851.0</ele></trkpt>
      <trkpt lat="45.873560" lon="7.057008"><ele>1851.0</ele></trkpt>
      <trkpt lat="45.873783" lon="7.057105"><ele>1851.0</ele></trkpt>
      <trkpt lat="45.874036" lon="7.057152"><ele>1851.0</ele></trkpt>
      <trkpt lat="45.874267" lon="7.057259"><ele>1851.0</ele></trkpt>
      <trkpt lat="45.874508" lon="7.057461"><ele>1851.0</ele></trkpt>
      <trkpt lat="45.874758" lon="7.057725"><ele>1851.0</ele></trkpt>
      <trkpt lat="45.874898" lon="7.058213"><ele>1851.0</ele></trkpt>
      <trkpt lat="45.875064" lon="7.058525"><ele>1929.0</ele></trkpt>
      <trkpt lat="45.875275" lon="7.058670"><ele>1929.0</ele></trkpt>
      <trkpt lat="45.875543" lon="7.058708"><ele>1929.0</ele></trkpt>
      <trkpt lat="45.875761" lon="7.058889"><ele>1929.0</ele></trkpt>
      <trkpt lat="45.875904" lon="7.059155"><ele>1929.0</ele></trkpt>
      <trkpt lat="45.876047" lon="7.059412"><ele>1929.0</ele></trkpt>
      <trkpt lat="45.876282" lon="7.059569"><ele>1929.0</ele></trkpt>
      <trkpt lat="45.876496" lon="7.059810"><ele>1929.0</ele></trkpt>
      <trkpt lat="45.876660" lon="7.060054"><ele>1929.0</ele></trkpt>
      <trkpt lat="45.876909" lon="7.060253"><ele>1929.0</ele></trkpt>
      <trkpt lat="45.877131" lon="7.060448"><ele>1950.0</ele></trkpt>
      <trkpt lat="45.877217" lon="7.060770"><ele>1950.0</ele></trkpt>
      <trkpt lat="45.877486" lon="7.060955"><ele>1950.0</ele></trkpt>
      <trkpt lat="45.877732" lon="7.061115"><ele>1950.0</ele></trkpt>
      <trkpt lat="45.877962" lon="7.061325"><ele>1950.0</ele></trkpt>
      <trkpt lat="45.878065" lon="7.061816"><ele>1950.0</ele></trkpt>
      <trkpt lat="45.878349" lon="7.061821"><ele>1950.0</ele></trkpt>
      <trkpt lat="45.878630" lon="7.062110"><ele>1950.0</ele></trkpt>
      <trkpt lat="45.878911" lon="7.062242"><ele>1950.0</ele></trkpt>
      <trkpt lat="45.879114" lon="7.062487"><ele>1950.0</ele></trkpt>
      <trkpt lat="45.879325" lon="7.062780"><ele>1977.0</ele></trkpt>
      <trkpt lat="45.879557" lon="7.062785"><ele>1977.0</ele></trkpt>
      <trkpt lat="45.879750" lon="7.062970"><ele>1977.0</ele></trkpt>
      <trkpt lat="45.879960" lon="7.063209"><ele>1977.0</ele></trkpt>
      <trkpt lat="45.880220" lon="7.063467"><ele>1977.0</ele></trkpt>
      <trkpt lat="45.880413" lon="7.063644"><ele>1977.0</ele></trkpt>
      <trkpt lat="45.880647" lon="7.063780"><ele>1977.0</ele></trkpt>
      <trkpt lat="45.880907" lon="7.063883"><ele>1977.0</ele></trkpt>
      <trkpt lat="45.881123" lon="7.063989"><ele>1977.0</ele></trkpt>
      <trkpt lat="45.881344" lon="7.064163"><ele>1994.0</ele></trkpt>
      <trkpt lat="45.881618" lon="7.064406"><ele>1994.0</ele></trkpt>
      <trkpt lat="45.881934" lon="7.064500"><ele>1994.0</ele></trkpt>
      <trkpt lat="45.882277" lon="7.064758"><ele>2025.0</ele></trkpt>
      <trkpt lat="45.882472" lon="7.064971"><ele>2025.0</ele></trkpt>
      <trkpt lat="45.882662" lon="7.064755"><ele>2025.0</ele></trkpt>
      <trkpt lat="45.882904" lon="7.064895"><ele>2025.0</ele></trkpt>
      <trkpt lat="45.883119" lon="7.065110"><ele>2025.0</ele></trkpt>
      <trkpt lat="45.883392" lon="7.065357"><ele>2053.0</ele></trkpt>
      <trkpt lat="45.883667" lon="7.065449"><ele>2053.0</ele></trkpt>
      <trkpt lat="45.883905" lon="7.065402"><ele>2053.0</ele></trkpt>
      <trkpt lat="45.884137" lon="7.065490"><ele>2053.0</ele></trkpt>
      <trkpt lat="45.884367" lon="7.065599"><ele>2053.0</ele></trkpt>
      <trkpt lat="45.884603" lon="7.065770"><ele>2053.0</ele></trkpt>
      <trkpt lat="45.884665" lon="7.066111"><ele>2053.0</ele></trkpt>
      <trkpt lat="45.884805" lon="7.066373"><ele>2053.0</ele></trkpt>
      <trkpt lat="45.885108" lon="7.066334"><ele>2053.0</ele></trkpt>
      <trkpt lat="45.885379" lon="7.066544"><ele>2053.0</ele></trkpt>
      <trkpt lat="45.885396" lon="7.066892"><ele>2089.0</ele></trkpt>
      <trkpt lat="45.885194" lon="7.067357"><ele>2089.0</ele></trkpt>
      <trkpt lat="45.884976" lon="7.067725"><ele>2089.0</ele></trkpt>
      <trkpt lat="45.884721" lon="7.067879"><ele>2089.0</ele></trkpt>
      <trkpt lat="45.884468" lon="7.068042"><ele>2089.0</ele></trkpt>
      <trkpt lat="45.884182" lon="7.068101"><ele>2089.0</ele></trkpt>
      <trkpt lat="45.883957" lon="7.068130"><ele>2089.0</ele></trkpt>
      <trkpt lat="45.883706" lon="7.068112"><ele>2089.0</ele></trkpt>
      <trkpt lat="45.883437" lon="7.068131"><ele>2089.0</ele></trkpt>
      <trkpt lat="45.883212" lon="7.068112"><ele>2131.0</ele></trkpt>
      <trkpt lat="45.883410" lon="7.068386"><ele>2089.0</ele></trkpt>
      <trkpt lat="45.883628" lon="7.068597"><ele>2089.0</ele></trkpt>
      <trkpt lat="45.883360" lon="7.068617"><ele>2089.0</ele></trkpt>
      <trkpt lat="45.883125" lon="7.068624"><ele>2131.0</ele></trkpt>
      <trkpt lat="45.883403" lon="7.069102"><ele>2186.0</ele></trkpt>
      <trkpt lat="45.883619" lon="7.069220"><ele>2186.0</ele></trkpt>
      <trkpt lat="45.883836" lon="7.069446"><ele>2186.0</ele></trkpt>
      <trkpt lat="45.884048" lon="7.069627"><ele>2186.0</ele></trkpt>
      <trkpt lat="45.884258" lon="7.069814"><ele>2186.0</ele></trkpt>
      <trkpt lat="45.884059" lon="7.070031"><ele>2186.0</ele></trkpt>
      <trkpt lat="45.883820" lon="7.070158"><ele>2186.0</ele></trkpt>
      <trkpt lat="45.883519" lon="7.070330"><ele>2186.0</ele></trkpt>
      <trkpt lat="45.883265" lon="7.070497"><ele>2187.0</ele></trkpt>
      <trkpt lat="45.883339" lon="7.070821"><ele>2186.0</ele></trkpt>
      <trkpt lat="45.883565" lon="7.070926"><ele>2277.0</ele></trkpt>
      <trkpt lat="45.883531" lon="7.071270"><ele>2277.0</ele></trkpt>
      <trkpt lat="45.883538" lon="7.071664"><ele>2277.0</ele></trkpt>
      <trkpt lat="45.883449" lon="7.072051"><ele>2277.0</ele></trkpt>
      <trkpt lat="45.883275" lon="7.072269"><ele>2222.0</ele></trkpt>
      <trkpt lat="45.883153" lon="7.072591"><ele>2222.0</ele></trkpt>
      <trkpt lat="45.883012" lon="7.072879"><ele>2222.0</ele></trkpt>
      <trkpt lat="45.882920" lon="7.073364"><ele>2254.0</ele></trkpt>
      <trkpt lat="45.882838" lon="7.073746"><ele>2254.0</ele></trkpt>
      <trkpt lat="45.882719" lon="7.074095"><ele>2254.0</ele></trkpt>
      <trkpt lat="45.882551" lon="7.074539"><ele>2254.0</ele></trkpt>
      <trkpt lat="45.882525" lon="7.075020"><ele>2303.0</ele></trkpt>
      <trkpt lat="45.882404" lon="7.075406"><ele>2303.0</ele></trkpt>
      <trkpt lat="45.882582" lon="7.075609"><ele>2303.0</ele></trkpt>
      <trkpt lat="45.882813" lon="7.075688"><ele>2303.0</ele></trkpt>
      <trkpt lat="45.882990" lon="7.075458"><ele>2303.0</ele></trkpt>
      <trkpt lat="45.883190" lon="7.075281"><ele>2303.0</ele></trkpt>
      <trkpt lat="45.883423" lon="7.075382"><ele>2430.0</ele></trkpt>
      <trkpt lat="45.883352" lon="7.075696"><ele>2430.0</ele></trkpt>
      <trkpt lat="45.883387" lon="7.076077"><ele>2430.0</ele></trkpt>
      <trkpt lat="45.883601" lon="7.076181"><ele>2430.0</ele></trkpt>
      <trkpt lat="45.883836" lon="7.076153"><ele>2430.0</ele></trkpt>
      <trkpt lat="45.884052" lon="7.075931"><ele>2430.0</ele></trkpt>
      <trkpt lat="45.884278" lon="7.075865"><ele>2430.0</ele></trkpt>
      <trkpt lat="45.884516" lon="7.075729"><ele>2430.0</ele></trkpt>
      <trkpt lat="45.884740" lon="7.075589"><ele>2430.0</ele></trkpt>
      <trkpt lat="45.884946" lon="7.075444"><ele>2430.0</ele></trkpt>
      <trkpt lat="45.885151" lon="7.075218"><ele>2430.0</ele></trkpt>
      <trkpt lat="45.885362" lon="7.075094"><ele>2430.0</ele></trkpt>
      <trkpt lat="45.885549" lon="7.075322"><ele>2452.0</ele></trkpt>
      <trkpt lat="45.885567" lon="7.075689"><ele>2452.0</ele></trkpt>
      <trkpt lat="45.885621" lon="7.076115"><ele>2452.0</ele></trkpt>
      <trkpt lat="45.885751" lon="7.076402"><ele>2452.0</ele></trkpt>
      <trkpt lat="45.885891" lon="7.076694"><ele>2452.0</ele></trkpt>
      <trkpt lat="45.886016" lon="7.077043"><ele>2452.0</ele></trkpt>
      <trkpt lat="45.886228" lon="7.077199"><ele>2527.0</ele></trkpt>
      <trkpt lat="45.886474" lon="7.077273"><ele>2527.0</ele></trkpt>
      <trkpt lat="45.886712" lon="7.077389"><ele>2527.0</ele></trkpt>
      <trkpt lat="45.887032" lon="7.077493"><ele>2527.0</ele></trkpt>
      <trkpt lat="45.887349" lon="7.077608"><ele>2527.0</ele></trkpt>
      <trkpt lat="45.887614" lon="7.077688"><ele>2532.0</ele></trkpt>
      <trkpt lat="45.887883" lon="7.077788"><ele>2532.0</ele></trkpt>
      <trkpt lat="45.888188" lon="7.077773"><ele>2532.0</ele></trkpt>
      <trkpt lat="45.888512" lon="7.077799"><ele>2532.0</ele></trkpt>
      <trkpt lat="45.888796" lon="7.077819"><ele>2532.0</ele></trkpt>
      <trkpt lat="45.889029" lon="7.077862"><ele>2532.0</ele></trkpt>
      <trkpt lat="45.889290" lon="7.077881"><ele>2532.0</ele></trkpt>
      <trkpt lat="45.889696" lon="7.078057"><ele>2515.0</ele></trkpt>
      <trkpt lat="45.890522" lon="7.078011"><ele>2515.0</ele></trkpt>
      <trkpt lat="45.891054" lon="7.078561"><ele>2515.0</ele></trkpt>
      <trkpt lat="45.891288" lon="7.078651"><ele>2515.0</ele></trkpt>
      <trkpt lat="45.891320" lon="7.079152"><ele>2515.0</ele></trkpt>
      <trkpt lat="45.891539" lon="7.079701"><ele>2473.0</ele></trkpt>
      <trkpt lat="45.891630" lon="7.080170"><ele>2473.0</ele></trkpt>
      <trkpt lat="45.891950" lon="7.081011"><ele>2521.0</ele></trkpt>
      <trkpt lat="45.892049" lon="7.081393"><ele>2497.0</ele></trkpt>
      <trkpt lat="45.891941" lon="7.082103"><ele>2497.0</ele></trkpt>
      <trkpt lat="45.892140" lon="7.082578"><ele>2497.0</ele></trkpt>
      <trkpt lat="45.892137" lon="7.082925"><ele>2497.0</ele></trkpt>
      <trkpt lat="45.892228" lon="7.084125"><ele>2478.0</ele></trkpt>
      <trkpt lat="45.891773" lon="7.084425"><ele>2478.0</ele></trkpt>
      <trkpt lat="45.891503" lon="7.084937"><ele>2401.0</ele></trkpt>
      <trkpt lat="45.891391" lon="7.085274"><ele>2401.0</ele></trkpt>
      <trkpt lat="45.891602" lon="7.085695"><ele>2385.0</ele></trkpt>
      <trkpt lat="45.891662" lon="7.086027"><ele>2385.0</ele></trkpt>
      <trkpt lat="45.891942" lon="7.086790"><ele>2450.0</ele></trkpt>
      <trkpt lat="45.891957" lon="7.087241"><ele>2450.0</ele></trkpt>
      <trkpt lat="45.892000" lon="7.088129"><ele>2427.0</ele></trkpt>
      <trkpt lat="45.892124" lon="7.089849"><ele>2422.0</ele></trkpt>
      <trkpt lat="45.892031" lon="7.090899"><ele>2422.0</ele></trkpt>
      <trkpt lat="45.892127" lon="7.091802"><ele>2393.0</ele></trkpt>
      <trkpt lat="45.892033" lon="7.092535"><ele>2393.0</ele></trkpt>
      <trkpt lat="45.892046" lon="7.093223"><ele>2393.0</ele></trkpt>
      <trkpt lat="45.892175" lon="7.093845"><ele>2341.0</ele></trkpt>
      <trkpt lat="45.892285" lon="7.094201"><ele>2341.0</ele></trkpt>
      <trkpt lat="45.892453" lon="7.094470"><ele>2341.0</ele></trkpt>
      <trkpt lat="45.892729" lon="7.095083"><ele>2341.0</ele></trkpt>
      <trkpt lat="45.892797" lon="7.095808"><ele>2341.0</ele></trkpt>
      <trkpt lat="45.893245" lon="7.097169"><ele>2285.0</ele></trkpt>
      <trkpt lat="45.893501" lon="7.097805"><ele>2285.0</ele></trkpt>
      <trkpt lat="45.893581" lon="7.098453"><ele>2228.0</ele></trkpt>
      <trkpt lat="45.893783" lon="7.098829"><ele>2340.0</ele></trkpt>
      <trkpt lat="45.893912" lon="7.099129"><ele>2340.0</ele></trkpt>
      <trkpt lat="45.894188" lon="7.099427"><ele>2340.0</ele></trkpt>
      <trkpt lat="45.894256" lon="7.099850"><ele>2340.0</ele></trkpt>
      <trkpt lat="45.894506" lon="7.100131"><ele>2255.0</ele></trkpt>
      <trkpt lat="45.895011" lon="7.100957"><ele>2255.0</ele></trkpt>
      <trkpt lat="45.895293" lon="7.101870"><ele>2255.0</ele></trkpt>
      <trkpt lat="45.895456" lon="7.102145"><ele>2198.0</ele></trkpt>
      <trkpt lat="45.895545" lon="7.102535"><ele>2198.0</ele></trkpt>
      <trkpt lat="45.895977" lon="7.103712"><ele>2332.0</ele></trkpt>
      <trkpt lat="45.896158" lon="7.104500"><ele>2280.0</ele></trkpt>
      <trkpt lat="45.896158" lon="7.104830"><ele>2280.0</ele></trkpt>
      <trkpt lat="45.896289" lon="7.105580"><ele>2280.0</ele></trkpt>
      <trkpt lat="45.896415" lon="7.105964"><ele>2280.0</ele></trkpt>
      <trkpt lat="45.896698" lon="7.107034"><ele>2231.0</ele></trkpt>
      <trkpt lat="45.896709" lon="7.107602"><ele>2231.0</ele></trkpt>
      <trkpt lat="45.897075" lon="7.108663"><ele>2163.0</ele></trkpt>
      <trkpt lat="45.897893" lon="7.109875"><ele>2163.0</ele></trkpt>
      <trkpt lat="45.897574" lon="7.109935"><ele>2163.0</ele></trkpt>
      <trkpt lat="45.897350" lon="7.110034"><ele>2163.0</ele></trkpt>
      <trkpt lat="45.897669" lon="7.110445"><ele>2096.0</ele></trkpt>
      <trkpt lat="45.897831" lon="7.110752"><ele>2096.0</ele></trkpt>
      <trkpt lat="45.898290" lon="7.111116"><ele>2128.0</ele></trkpt>
      <trkpt lat="45.898828" lon="7.111698"><ele>2128.0</ele></trkpt>
      <trkpt lat="45.899213" lon="7.111925"><ele>2128.0</ele></trkpt>
      <trkpt lat="45.899570" lon="7.112049"><ele>2128.0</ele></trkpt>
      <trkpt lat="45.899916" lon="7.112343"><ele>2128.0</ele></trkpt>
      <trkpt lat="45.899475" lon="7.112555"><ele>2051.0</ele></trkpt>
      <trkpt lat="45.899064" lon="7.112542"><ele>2051.0</ele></trkpt>
      <trkpt lat="45.898861" lon="7.112710"><ele>2051.0</ele></trkpt>
      <trkpt lat="45.899254" lon="7.112911"><ele>2051.0</ele></trkpt>
      <trkpt lat="45.899588" lon="7.113165"><ele>2051.0</ele></trkpt>
      <trkpt lat="45.900240" lon="7.113387"><ele>2040.0</ele></trkpt>
      <trkpt lat="45.900577" lon="7.113422"><ele>2040.0</ele></trkpt>
      <trkpt lat="45.901005" lon="7.113251"><ele>2040.0</ele></trkpt>
      <trkpt lat="45.901344" lon="7.113091"><ele>2040.0</ele></trkpt>
      <trkpt lat="45.901696" lon="7.113007"><ele>2040.0</ele></trkpt>
      <trkpt lat="45.901933" lon="7.113039"><ele>2040.0</ele></trkpt>
      <trkpt lat="45.902186" lon="7.113061"><ele>1969.0</ele></trkpt>
      <trkpt lat="45.902620" lon="7.112899"><ele>1969.0</ele></trkpt>
      <trkpt lat="45.902724" lon="7.112548"><ele>1969.0</ele></trkpt>
      <trkpt lat="45.902915" lon="7.112263"><ele>2054.0</ele></trkpt>
      <trkpt lat="45.903243" lon="7.111976"><ele>2054.0</ele></trkpt>
      <trkpt lat="45.903465" lon="7.111807"><ele>2054.0</ele></trkpt>
      <trkpt lat="45.903588" lon="7.111426"><ele>2054.0</ele></trkpt>
      <trkpt lat="45.903554" lon="7.111050"><ele>2054.0</ele></trkpt>
      <trkpt lat="45.903662" lon="7.110690"><ele>2054.0</ele></trkpt>
      <trkpt lat="45.903932" lon="7.110814"><ele>2054.0</ele></trkpt>
      <trkpt lat="45.904184" lon="7.110767"><ele>1933.0</ele></trkpt>
      <trkpt lat="45.904462" lon="7.110619"><ele>1933.0</ele></trkpt>
      <trkpt lat="45.904695" lon="7.110448"><ele>1933.0</ele></trkpt>
      <trkpt lat="45.904987" lon="7.110335"><ele>1990.0</ele></trkpt>
      <trkpt lat="45.905152" lon="7.109921"><ele>1990.0</ele></trkpt>
      <trkpt lat="45.905419" lon="7.109608"><ele>1990.0</ele></trkpt>
      <trkpt lat="45.905549" lon="7.109245"><ele>1990.0</ele></trkpt>
      <trkpt lat="45.905761" lon="7.108927"><ele>1990.0</ele></trkpt>
      <trkpt lat="45.905953" lon="7.108637"><ele>1990.0</ele></trkpt>
      <trkpt lat="45.906139" lon="7.108443"><ele>1990.0</ele></trkpt>
      <trkpt lat="45.906096" lon="7.107858"><ele>2034.0</ele></trkpt>
      <trkpt lat="45.906216" lon="7.107562"><ele>2034.0</ele></trkpt>
      <trkpt lat="45.906489" lon="7.107485"><ele>1950.0</ele></trkpt>
      <trkpt lat="45.906660" lon="7.107138"><ele>1950.0</ele></trkpt>
      <trkpt lat="45.906926" lon="7.107006"><ele>1950.0</ele></trkpt>
      <trkpt lat="45.907317" lon="7.106833"><ele>1950.0</ele></trkpt>
      <trkpt lat="45.907747" lon="7.105975"><ele>2027.0</ele></trkpt>
      <trkpt lat="45.907892" lon="7.105597"><ele>2027.0</ele></trkpt>
      <trkpt lat="45.908055" lon="7.105320"><ele>2027.0</ele></trkpt>
      <trkpt lat="45.908163" lon="7.104928"><ele>2027.0</ele></trkpt>
      <trkpt lat="45.908347" lon="7.104492"><ele>1903.0</ele></trkpt>
      <trkpt lat="45.908293" lon="7.104159"><ele>2066.0</ele></trkpt>
      <trkpt lat="45.908204" lon="7.103660"><ele>2066.0</ele></trkpt>
      <trkpt lat="45.908154" lon="7.103180"><ele>2066.0</ele></trkpt>
      <trkpt lat="45.908293" lon="7.102805"><ele>2066.0</ele></trkpt>
      <trkpt lat="45.908384" lon="7.102491"><ele>1930.0</ele></trkpt>
      <trkpt lat="45.908490" lon="7.102188"><ele>1930.0</ele></trkpt>
      <trkpt lat="45.908697" lon="7.101907"><ele>1974.0</ele></trkpt>
      <trkpt lat="45.908950" lon="7.101621"><ele>1974.0</ele></trkpt>
      <trkpt lat="45.909057" lon="7.101273"><ele>1974.0</ele></trkpt>
      <trkpt lat="45.909094" lon="7.100774"><ele>1974.0</ele></trkpt>
      <trkpt lat="45.909191" lon="7.100383"><ele>1974.0</ele></trkpt>
      <trkpt lat="45.909400" lon="7.100176"><ele>1974.0</ele></trkpt>
      <trkpt lat="45.909616" lon="7.099937"><ele>2026.0</ele></trkpt>
      <trkpt lat="45.910223" lon="7.099682"><ele>2026.0</ele></trkpt>
      <trkpt lat="45.910497" lon="7.099703"><ele>1953.0</ele></trkpt>
      <trkpt lat="45.911240" lon="7.099901"><ele>1953.0</ele></trkpt>
      <trkpt lat="45.911488" lon="7.099869"><ele>1953.0</ele></trkpt>
      <trkpt lat="45.911448" lon="7.099551"><ele>1953.0</ele></trkpt>
      <trkpt lat="45.911409" lon="7.099166"><ele>1953.0</ele></trkpt>
      <trkpt lat="45.911315" lon="7.098811"><ele>1953.0</ele></trkpt>
      <trkpt lat="45.911150" lon="7.098467"><ele>1953.0</ele></trkpt>
      <trkpt lat="45.911049" lon="7.097646"><ele>1916.0</ele></trkpt>
      <trkpt lat="45.910969" lon="7.097337"><ele>1916.0</ele></trkpt>
      <trkpt lat="45.911195" lon="7.097016"><ele>1916.0</ele></trkpt>
      <trkpt lat="45.911141" lon="7.096630"><ele>1916.0</ele></trkpt>
      <trkpt lat="45.911134" lon="7.096284"><ele>1916.0</ele></trkpt>
      <trkpt lat="45.911352" lon="7.096150"><ele>1916.0</ele></trkpt>
      <trkpt lat="45.911643" lon="7.096300"><ele>1916.0</ele></trkpt>
      <trkpt lat="45.911886" lon="7.096868"><ele>1916.0</ele></trkpt>
      <trkpt lat="45.912067" lon="7.097101"><ele>1916.0</ele></trkpt>
      <trkpt lat="45.912245" lon="7.097417"><ele>1916.0</ele></trkpt>
      <trkpt lat="45.912419" lon="7.097887"><ele>1916.0</ele></trkpt>
      <trkpt lat="45.912582" lon="7.098179"><ele>1842.0</ele></trkpt>
      <trkpt lat="45.912825" lon="7.098677"><ele>1842.0</ele></trkpt>
      <trkpt lat="45.913238" lon="7.099720"><ele>1842.0</ele></trkpt>
      <trkpt lat="45.913431" lon="7.099994"><ele>1842.0</ele></trkpt>
      <trkpt lat="45.913638" lon="7.100318"><ele>1844.0</ele></trkpt>
      <trkpt lat="45.914038" lon="7.100272"><ele>1844.0</ele></trkpt>
      <trkpt lat="45.914272" lon="7.100376"><ele>1844.0</ele></trkpt>
      <trkpt lat="45.914565" lon="7.100480"><ele>1844.0</ele></trkpt>
      <trkpt lat="45.914933" lon="7.100702"><ele>1765.0</ele></trkpt>
      <trkpt lat="45.915227" lon="7.100727"><ele>1765.0</ele></trkpt>
      <trkpt lat="45.915459" lon="7.100933"><ele>1765.0</ele></trkpt>
      <trkpt lat="45.915672" lon="7.100801"><ele>1765.0</ele></trkpt>
      <trkpt lat="45.916015" lon="7.100690"><ele>1765.0</ele></trkpt>
      <trkpt lat="45.916196" lon="7.100480"><ele>1765.0</ele></trkpt>
      <trkpt lat="45.916537" lon="7.100606"><ele>1765.0</ele></trkpt>
      <trkpt lat="45.916762" lon="7.100580"><ele>1685.0</ele></trkpt>
      <trkpt lat="45.917047" lon="7.100664"><ele>1685.0</ele></trkpt>
      <trkpt lat="45.917324" lon="7.100790"><ele>1685.0</ele></trkpt>
      <trkpt lat="45.917573" lon="7.100973"><ele>1685.0</ele></trkpt>
      <trkpt lat="45.917803" lon="7.101186"><ele>1685.0</ele></trkpt>
      <trkpt lat="45.918021" lon="7.100723"><ele>1685.0</ele></trkpt>
      <trkpt lat="45.918267" lon="7.100617"><ele>1685.0</ele></trkpt>
      <trkpt lat="45.918554" lon="7.100541"><ele>1685.0</ele></trkpt>
      <trkpt lat="45.918820" lon="7.100629"><ele>1655.0</ele></trkpt>
      <trkpt lat="45.919232" lon="7.100579"><ele>1655.0</ele></trkpt>
      <trkpt lat="45.919420" lon="7.100397"><ele>1655.0</ele></trkpt>
      <trkpt lat="45.919770" lon="7.099959"><ele>1720.0</ele></trkpt>
      <trkpt lat="45.919993" lon="7.099701"><ele>1720.0</ele></trkpt>
      <trkpt lat="45.920301" lon="7.099599"><ele>1720.0</ele></trkpt>
      <trkpt lat="45.920556" lon="7.099452"><ele>1720.0</ele></trkpt>
      <trkpt lat="45.920884" lon="7.099169"><ele>1666.0</ele></trkpt>
      <trkpt lat="45.921141" lon="7.098933"><ele>1666.0</ele></trkpt>
      <trkpt lat="45.921295" lon="7.098654"><ele>1666.0</ele></trkpt>
      <trkpt lat="45.921454" lon="7.098303"><ele>1666.0</ele></trkpt>
      <trkpt lat="45.921632" lon="7.098046"><ele>1666.0</ele></trkpt>
      <trkpt lat="45.921767" lon="7.097683"><ele>1700.0</ele></trkpt>
      <trkpt lat="45.921970" lon="7.097461"><ele>1700.0</ele></trkpt>
      <trkpt lat="45.922124" lon="7.097054"><ele>1700.0</ele></trkpt>
      <trkpt lat="45.922340" lon="7.096796"><ele>1700.0</ele></trkpt>
      <trkpt lat="45.922544" lon="7.096392"><ele>1700.0</ele></trkpt>
      <trkpt lat="45.922789" lon="7.096167"><ele>1700.0</ele></trkpt>
      <trkpt lat="45.923019" lon="7.095977"><ele>1655.0</ele></trkpt>
      <trkpt lat="45.923257" lon="7.096067"><ele>1655.0</ele></trkpt>
      <trkpt lat="45.923507" lon="7.096064"><ele>1655.0</ele></trkpt>
      <trkpt lat="45.923758" lon="7.095879"><ele>1655.0</ele></trkpt>
      <trkpt lat="45.923957" lon="7.095570"><ele>1695.0</ele></trkpt>
      <trkpt lat="45.924084" lon="7.095267"><ele>1695.0</ele></trkpt>
      <trkpt lat="45.924324" lon="7.095630"><ele>1695.0</ele></trkpt>
      <trkpt lat="45.924541" lon="7.095827"><ele>1695.0</ele></trkpt>
      <trkpt lat="45.924786" lon="7.096108"><ele>1655.0</ele></trkpt>
      <trkpt lat="45.924619" lon="7.096519"><ele>1655.0</ele></trkpt>
      <trkpt lat="45.924822" lon="7.096699"><ele>1655.0</ele></trkpt>
      <trkpt lat="45.925293" lon="7.096529"><ele>1625.0</ele></trkpt>
      <trkpt lat="45.925564" lon="7.096428"><ele>1625.0</ele></trkpt>
      <trkpt lat="45.925831" lon="7.096430"><ele>1625.0</ele></trkpt>
      <trkpt lat="45.926047" lon="7.096611"><ele>1625.0</ele></trkpt>
      <trkpt lat="45.926300" lon="7.096571"><ele>1625.0</ele></trkpt>
      <trkpt lat="45.926539" lon="7.096655"><ele>1625.0</ele></trkpt>
      <trkpt lat="45.926816" lon="7.096685"><ele>1625.0</ele></trkpt>
      <trkpt lat="45.927216" lon="7.096630"><ele>1659.0</ele></trkpt>
      <trkpt lat="45.927571" lon="7.096511"><ele>1659.0</ele></trkpt>
      <trkpt lat="45.927854" lon="7.096322"><ele>1659.0</ele></trkpt>
      <trkpt lat="45.928132" lon="7.096035"><ele>1659.0</ele></trkpt>
      <trkpt lat="45.928349" lon="7.095768"><ele>1615.0</ele></trkpt>
      <trkpt lat="45.928618" lon="7.095534"><ele>1615.0</ele></trkpt>
      <trkpt lat="45.928989" lon="7.095476"><ele>1615.0</ele></trkpt>
      <trkpt lat="45.929254" lon="7.095549"><ele>1603.0</ele></trkpt>
      <trkpt lat="45.929521" lon="7.095779"><ele>1603.0</ele></trkpt>
      <trkpt lat="45.929854" lon="7.096235"><ele>1624.0</ele></trkpt>
      <trkpt lat="45.930025" lon="7.096498"><ele>1624.0</ele></trkpt>
      <trkpt lat="45.930284" lon="7.096759"><ele>1624.0</ele></trkpt>
      <trkpt lat="45.930615" lon="7.097075"><ele>1624.0</ele></trkpt>
      <trkpt lat="45.931101" lon="7.097616"><ele>1624.0</ele></trkpt>
      <trkpt lat="45.931416" lon="7.098029"><ele>1605.0</ele></trkpt>
      <trkpt lat="45.931748" lon="7.098612"><ele>1605.0</ele></trkpt>
    </trkseg>
  </trk>
</gpx>
