<?xml version="1.0" encoding="UTF-8"?>
<gpx version="1.1" creator="TrailShare content prep" xmlns="http://www.topografix.com/GPX/1/1">
  <metadata>
    <name>TMB Tappa 2: Les Contamines-Montjoie → Les Chapieux</name>
    <desc>Tour du Mont Blanc, tappa 2/7 (FR). Geometria: OpenStreetMap contributors (ODbL), relation OSM tappa CCW. Elevazione: Open-Elevation (SRTM).</desc>
  </metadata>
  <trk>
    <name>TMB Tappa 2: Les Contamines-Montjoie → Les Chapieux</name>
    <trkseg>
      <trkpt lat="45.802494" lon="6.724601"><ele>1176.0</ele></trkpt>
      <trkpt lat="45.802137" lon="6.724548"><ele>1176.0</ele></trkpt>
      <trkpt lat="45.801857" lon="6.724515"><ele>1184.0</ele></trkpt>
      <trkpt lat="45.801584" lon="6.724465"><ele>1184.0</ele></trkpt>
      <trkpt lat="45.801080" lon="6.724321"><ele>1184.0</ele></trkpt>
      <trkpt lat="45.800824" lon="6.724234"><ele>1184.0</ele></trkpt>
      <trkpt lat="45.800583" lon="6.724151"><ele>1184.0</ele></trkpt>
      <trkpt lat="45.800306" lon="6.724132"><ele>1184.0</ele></trkpt>
      <trkpt lat="45.800063" lon="6.724084"><ele>1184.0</ele></trkpt>
      <trkpt lat="45.799820" lon="6.723951"><ele>1205.0</ele></trkpt>
      <trkpt lat="45.799628" lon="6.723765"><ele>1205.0</ele></trkpt>
      <trkpt lat="45.799510" lon="6.723458"><ele>1205.0</ele></trkpt>
      <trkpt lat="45.799390" lon="6.723153"><ele>1205.0</ele></trkpt>
      <trkpt lat="45.799215" lon="6.722915"><ele>1194.0</ele></trkpt>
      <trkpt lat="45.798736" lon="6.722453"><ele>1194.0</ele></trkpt>
      <trkpt lat="45.798301" lon="6.721978"><ele>1194.0</ele></trkpt>
      <trkpt lat="45.798105" lon="6.721758"><ele>1194.0</ele></trkpt>
      <trkpt lat="45.797751" lon="6.721392"><ele>1185.0</ele></trkpt>
      <trkpt lat="45.797502" lon="6.721128"><ele>1185.0</ele></trkpt>
      <trkpt lat="45.797211" lon="6.720859"><ele>1185.0</ele></trkpt>
      <trkpt lat="45.797004" lon="6.720732"><ele>1192.0</ele></trkpt>
      <trkpt lat="45.796755" lon="6.720548"><ele>1192.0</ele></trkpt>
      <trkpt lat="45.796482" lon="6.720350"><ele>1192.0</ele></trkpt>
      <trkpt lat="45.796212" lon="6.720090"><ele>1192.0</ele></trkpt>
      <trkpt lat="45.796019" lon="6.719895"><ele>1192.0</ele></trkpt>
      <trkpt lat="45.795760" lon="6.719678"><ele>1231.0</ele></trkpt>
      <trkpt lat="45.795533" lon="6.719509"><ele>1231.0</ele></trkpt>
      <trkpt lat="45.795336" lon="6.719329"><ele>1231.0</ele></trkpt>
      <trkpt lat="45.795163" lon="6.719082"><ele>1231.0</ele></trkpt>
      <trkpt lat="45.794914" lon="6.718717"><ele>1197.0</ele></trkpt>
      <trkpt lat="45.794740" lon="6.718510"><ele>1197.0</ele></trkpt>
      <trkpt lat="45.794518" lon="6.718431"><ele>1197.0</ele></trkpt>
      <trkpt lat="45.794313" lon="6.718285"><ele>1197.0</ele></trkpt>
      <trkpt lat="45.794080" lon="6.718239"><ele>1197.0</ele></trkpt>
      <trkpt lat="45.793870" lon="6.718447"><ele>1197.0</ele></trkpt>
      <trkpt lat="45.793634" lon="6.718478"><ele>1235.0</ele></trkpt>
      <trkpt lat="45.793341" lon="6.718224"><ele>1235.0</ele></trkpt>
      <trkpt lat="45.793145" lon="6.718020"><ele>1235.0</ele></trkpt>
      <trkpt lat="45.792914" lon="6.717719"><ele>1235.0</ele></trkpt>
      <trkpt lat="45.792755" lon="6.717441"><ele>1235.0</ele></trkpt>
      <trkpt lat="45.792569" lon="6.717237"><ele>1235.0</ele></trkpt>
      <trkpt lat="45.792266" lon="6.716933"><ele>1235.0</ele></trkpt>
      <trkpt lat="45.792047" lon="6.716713"><ele>1235.0</ele></trkpt>
      <trkpt lat="45.791822" lon="6.716431"><ele>1213.0</ele></trkpt>
      <trkpt lat="45.791641" lon="6.716147"><ele>1246.0</ele></trkpt>
      <trkpt lat="45.791348" lon="6.715829"><ele>1246.0</ele></trkpt>
      <trkpt lat="45.790909" lon="6.715504"><ele>1246.0</ele></trkpt>
      <trkpt lat="45.790650" lon="6.715338"><ele>1246.0</ele></trkpt>
      <trkpt lat="45.789997" lon="6.714863"><ele>1246.0</ele></trkpt>
      <trkpt lat="45.789748" lon="6.714640"><ele>1246.0</ele></trkpt>
      <trkpt lat="45.789510" lon="6.714532"><ele>1256.0</ele></trkpt>
      <trkpt lat="45.789274" lon="6.714416"><ele>1256.0</ele></trkpt>
      <trkpt lat="45.788897" lon="6.714245"><ele>1256.0</ele></trkpt>
      <trkpt lat="45.788435" lon="6.714035"><ele>1256.0</ele></trkpt>
      <trkpt lat="45.788131" lon="6.713835"><ele>1256.0</ele></trkpt>
      <trkpt lat="45.787756" lon="6.713602"><ele>1256.0</ele></trkpt>
      <trkpt lat="45.787485" lon="6.713425"><ele>1359.0</ele></trkpt>
      <trkpt lat="45.787102" lon="6.713231"><ele>1359.0</ele></trkpt>
      <trkpt lat="45.786766" lon="6.713011"><ele>1359.0</ele></trkpt>
      <trkpt lat="45.786474" lon="6.712887"><ele>1359.0</ele></trkpt>
      <trkpt lat="45.786176" lon="6.712875"><ele>1359.0</ele></trkpt>
      <trkpt lat="45.785943" lon="6.712872"><ele>1359.0</ele></trkpt>
      <trkpt lat="45.785731" lon="6.712759"><ele>1359.0</ele></trkpt>
      <trkpt lat="45.785406" lon="6.712714"><ele>1382.0</ele></trkpt>
      <trkpt lat="45.785082" lon="6.712609"><ele>1382.0</ele></trkpt>
      <trkpt lat="45.784772" lon="6.712641"><ele>1382.0</ele></trkpt>
      <trkpt lat="45.784518" lon="6.712734"><ele>1382.0</ele></trkpt>
      <trkpt lat="45.784216" lon="6.713066"><ele>1382.0</ele></trkpt>
      <trkpt lat="45.783893" lon="6.713137"><ele>1382.0</ele></trkpt>
      <trkpt lat="45.783555" lon="6.713563"><ele>1382.0</ele></trkpt>
      <trkpt lat="45.783371" lon="6.713962"><ele>1382.0</ele></trkpt>
      <trkpt lat="45.783157" lon="6.714371"><ele>1415.0</ele></trkpt>
      <trkpt lat="45.782968" lon="6.714659"><ele>1399.0</ele></trkpt>
      <trkpt lat="45.782770" lon="6.714983"><ele>1399.0</ele></trkpt>
      <trkpt lat="45.782491" lon="6.715071"><ele>1399.0</ele></trkpt>
      <trkpt lat="45.782211" lon="6.715107"><ele>1399.0</ele></trkpt>
      <trkpt lat="45.781954" lon="6.715226"><ele>1399.0</ele></trkpt>
      <trkpt lat="45.781744" lon="6.715386"><ele>1399.0</ele></trkpt>
      <trkpt lat="45.781438" lon="6.715453"><ele>1399.0</ele></trkpt>
      <trkpt lat="45.781115" lon="6.715226"><ele>1417.0</ele></trkpt>
      <trkpt lat="45.780547" lon="6.715059"><ele>1417.0</ele></trkpt>
      <trkpt lat="45.780169" lon="6.714987"><ele>1417.0</ele></trkpt>
      <trkpt lat="45.779894" lon="6.714884"><ele>1417.0</ele></trkpt>
      <trkpt lat="45.779611" lon="6.714676"><ele>1417.0</ele></trkpt>
      <trkpt lat="45.779266" lon="6.714913"><ele>1417.0</ele></trkpt>
      <trkpt lat="45.778714" lon="6.714884"><ele>1451.0</ele></trkpt>
      <trkpt lat="45.778464" lon="6.714819"><ele>1451.0</ele></trkpt>
      <trkpt lat="45.778212" lon="6.714532"><ele>1486.0</ele></trkpt>
      <trkpt lat="45.778006" lon="6.714278"><ele>1486.0</ele></trkpt>
      <trkpt lat="45.777194" lon="6.714532"><ele>1486.0</ele></trkpt>
      <trkpt lat="45.776883" lon="6.714841"><ele>1505.0</ele></trkpt>
      <trkpt lat="45.776504" lon="6.714882"><ele>1505.0</ele></trkpt>
      <trkpt lat="45.776218" lon="6.714984"><ele>1505.0</ele></trkpt>
      <trkpt lat="45.775970" lon="6.715094"><ele>1505.0</ele></trkpt>
      <trkpt lat="45.775739" lon="6.715232"><ele>1505.0</ele></trkpt>
      <trkpt lat="45.775579" lon="6.715495"><ele>1505.0</ele></trkpt>
      <trkpt lat="45.775305" lon="6.715730"><ele>1505.0</ele></trkpt>
      <trkpt lat="45.775088" lon="6.715827"><ele>1505.0</ele></trkpt>
      <trkpt lat="45.774666" lon="6.715836"><ele>1557.0</ele></trkpt>
      <trkpt lat="45.774377" lon="6.715864"><ele>1557.0</ele></trkpt>
      <trkpt lat="45.774049" lon="6.715942"><ele>1557.0</ele></trkpt>
      <trkpt lat="45.773789" lon="6.715937"><ele>1557.0</ele></trkpt>
      <trkpt lat="45.773500" lon="6.715956"><ele>1557.0</ele></trkpt>
      <trkpt lat="45.773118" lon="6.715806"><ele>1557.0</ele></trkpt>
      <trkpt lat="45.772866" lon="6.715733"><ele>1558.0</ele></trkpt>
      <trkpt lat="45.772528" lon="6.715712"><ele>1558.0</ele></trkpt>
      <trkpt lat="45.772151" lon="6.715765"><ele>1558.0</ele></trkpt>
      <trkpt lat="45.771682" lon="6.715736"><ele>1558.0</ele></trkpt>
      <trkpt lat="45.771467" lon="6.715577"><ele>1558.0</ele></trkpt>
      <trkpt lat="45.770863" lon="6.715367"><ele>1558.0</ele></trkpt>
      <trkpt lat="45.770501" lon="6.715184"><ele>1542.0</ele></trkpt>
      <trkpt lat="45.770116" lon="6.714887"><ele>1542.0</ele></trkpt>
      <trkpt lat="45.769606" lon="6.714769"><ele>1542.0</ele></trkpt>
      <trkpt lat="45.769242" lon="6.714702"><ele>1542.0</ele></trkpt>
      <trkpt lat="45.768639" lon="6.714472"><ele>1565.0</ele></trkpt>
      <trkpt lat="45.768246" lon="6.714232"><ele>1565.0</ele></trkpt>
      <trkpt lat="45.767827" lon="6.714046"><ele>1565.0</ele></trkpt>
      <trkpt lat="45.767597" lon="6.713862"><ele>1565.0</ele></trkpt>
      <trkpt lat="45.766855" lon="6.713206"><ele>1565.0</ele></trkpt>
      <trkpt lat="45.766258" lon="6.712998"><ele>1569.0</ele></trkpt>
      <trkpt lat="45.765559" lon="6.712777"><ele>1569.0</ele></trkpt>
      <trkpt lat="45.765335" lon="6.712684"><ele>1569.0</ele></trkpt>
      <trkpt lat="45.764878" lon="6.712551"><ele>1569.0</ele></trkpt>
      <trkpt lat="45.764659" lon="6.712408"><ele>1613.0</ele></trkpt>
      <trkpt lat="45.764326" lon="6.712349"><ele>1596.0</ele></trkpt>
      <trkpt lat="45.763968" lon="6.712204"><ele>1596.0</ele></trkpt>
      <trkpt lat="45.763561" lon="6.711981"><ele>1596.0</ele></trkpt>
      <trkpt lat="45.763336" lon="6.711927"><ele>1596.0</ele></trkpt>
      <trkpt lat="45.762934" lon="6.711776"><ele>1596.0</ele></trkpt>
      <trkpt lat="45.762502" lon="6.711525"><ele>1596.0</ele></trkpt>
      <trkpt lat="45.762121" lon="6.711354"><ele>1628.0</ele></trkpt>
      <trkpt lat="45.761858" lon="6.711340"><ele>1628.0</ele></trkpt>
      <trkpt lat="45.761556" lon="6.711287"><ele>1628.0</ele></trkpt>
      <trkpt lat="45.761204" lon="6.711059"><ele>1628.0</ele></trkpt>
      <trkpt lat="45.760970" lon="6.710955"><ele>1628.0</ele></trkpt>
      <trkpt lat="45.760270" lon="6.711228"><ele>1666.0</ele></trkpt>
      <trkpt lat="45.759885" lon="6.711099"><ele>1666.0</ele></trkpt>
      <trkpt lat="45.759489" lon="6.710822"><ele>1666.0</ele></trkpt>
      <trkpt lat="45.759230" lon="6.710581"><ele>1666.0</ele></trkpt>
      <trkpt lat="45.758980" lon="6.710440"><ele>1666.0</ele></trkpt>
      <trkpt lat="45.758783" lon="6.710646"><ele>1666.0</ele></trkpt>
      <trkpt lat="45.758550" lon="6.710772"><ele>1666.0</ele></trkpt>
      <trkpt lat="45.758289" lon="6.710727"><ele>1698.0</ele></trkpt>
      <trkpt lat="45.758050" lon="6.710778"><ele>1698.0</ele></trkpt>
      <trkpt lat="45.757938" lon="6.711091"><ele>1698.0</ele></trkpt>
      <trkpt lat="45.757707" lon="6.710981"><ele>1698.0</ele></trkpt>
      <trkpt lat="45.757433" lon="6.710701"><ele>1698.0</ele></trkpt>
      <trkpt lat="45.757223" lon="6.710584"><ele>1698.0</ele></trkpt>
      <trkpt lat="45.757020" lon="6.710352"><ele>1723.0</ele></trkpt>
      <trkpt lat="45.756848" lon="6.710131"><ele>1723.0</ele></trkpt>
      <trkpt lat="45.756727" lon="6.709858"><ele>1723.0</ele></trkpt>
      <trkpt lat="45.756594" lon="6.709521"><ele>1723.0</ele></trkpt>
      <trkpt lat="45.756451" lon="6.709123"><ele>1723.0</ele></trkpt>
      <trkpt lat="45.756301" lon="6.708823"><ele>1723.0</ele></trkpt>
      <trkpt lat="45.756132" lon="6.708604"><ele>1731.0</ele></trkpt>
      <trkpt lat="45.755959" lon="6.708395"><ele>1731.0</ele></trkpt>
      <trkpt lat="45.755751" lon="6.708193"><ele>1791.0</ele></trkpt>
      <trkpt lat="45.755525" lon="6.708114"><ele>1791.0</ele></trkpt>
      <trkpt lat="45.755270" lon="6.708148"><ele>1791.0</ele></trkpt>
      <trkpt lat="45.755042" lon="6.708032"><ele>1791.0</ele></trkpt>
      <trkpt lat="45.754809" lon="6.707891"><ele>1791.0</ele></trkpt>
      <trkpt lat="45.754515" lon="6.707867"><ele>1791.0</ele></trkpt>
      <trkpt lat="45.754214" lon="6.708137"><ele>1791.0</ele></trkpt>
      <trkpt lat="45.753999" lon="6.708340"><ele>1838.0</ele></trkpt>
      <trkpt lat="45.753831" lon="6.708630"><ele>1838.0</ele></trkpt>
      <trkpt lat="45.753598" lon="6.708776"><ele>1838.0</ele></trkpt>
      <trkpt lat="45.753433" lon="6.709008"><ele>1838.0</ele></trkpt>
      <trkpt lat="45.753237" lon="6.709225"><ele>1838.0</ele></trkpt>
      <trkpt lat="45.753020" lon="6.709361"><ele>1838.0</ele></trkpt>
      <trkpt lat="45.752799" lon="6.709433"><ele>1838.0</ele></trkpt>
      <trkpt lat="45.752571" lon="6.709367"><ele>1838.0</ele></trkpt>
      <trkpt lat="45.752324" lon="6.709385"><ele>1838.0</ele></trkpt>
      <trkpt lat="45.752115" lon="6.709538"><ele>1838.0</ele></trkpt>
      <trkpt lat="45.751861" lon="6.709516"><ele>1921.0</ele></trkpt>
      <trkpt lat="45.751625" lon="6.709600"><ele>1921.0</ele></trkpt>
      <trkpt lat="45.751384" lon="6.709769"><ele>1921.0</ele></trkpt>
      <trkpt lat="45.751187" lon="6.709929"><ele>1921.0</ele></trkpt>
      <trkpt lat="45.750998" lon="6.710125"><ele>1921.0</ele></trkpt>
      <trkpt lat="45.750737" lon="6.710286"><ele>1921.0</ele></trkpt>
      <trkpt lat="45.750495" lon="6.710407"><ele>1921.0</ele></trkpt>
      <trkpt lat="45.750360" lon="6.710697"><ele>1911.0</ele></trkpt>
      <trkpt lat="45.750196" lon="6.710944"><ele>1911.0</ele></trkpt>
      <trkpt lat="45.750141" lon="6.711261"><ele>1911.0</ele></trkpt>
      <trkpt lat="45.750020" lon="6.711537"><ele>1911.0</ele></trkpt>
      <trkpt lat="45.749870" lon="6.711830"><ele>1972.0</ele></trkpt>
      <trkpt lat="45.749731" lon="6.712111"><ele>1972.0</ele></trkpt>
      <trkpt lat="45.749529" lon="6.712321"><ele>1972.0</ele></trkpt>
      <trkpt lat="45.749423" lon="6.712723"><ele>1923.0</ele></trkpt>
      <trkpt lat="45.749289" lon="6.713086"><ele>1923.0</ele></trkpt>
      <trkpt lat="45.749077" lon="6.713446"><ele>1923.0</ele></trkpt>
      <trkpt lat="45.748910" lon="6.713726"><ele>1923.0</ele></trkpt>
      <trkpt lat="45.748706" lon="6.714024"><ele>1923.0</ele></trkpt>
      <trkpt lat="45.748499" lon="6.714237"><ele>1923.0</ele></trkpt>
      <trkpt lat="45.748239" lon="6.714310"><ele>1923.0</ele></trkpt>
      <trkpt lat="45.748023" lon="6.714460"><ele>1923.0</ele></trkpt>
      <trkpt lat="45.747804" lon="6.714598"><ele>1942.0</ele></trkpt>
      <trkpt lat="45.747679" lon="6.714868"><ele>1942.0</ele></trkpt>
      <trkpt lat="45.747513" lon="6.715127"><ele>1942.0</ele></trkpt>
      <trkpt lat="45.747288" lon="6.715250"><ele>1942.0</ele></trkpt>
      <trkpt lat="45.747154" lon="6.715571"><ele>1942.0</ele></trkpt>
      <trkpt lat="45.747056" lon="6.715897"><ele>1942.0</ele></trkpt>
      <trkpt lat="45.746933" lon="6.716178"><ele>1942.0</ele></trkpt>
      <trkpt lat="45.746899" lon="6.716507"><ele>1942.0</ele></trkpt>
      <trkpt lat="45.746756" lon="6.716769"><ele>1966.0</ele></trkpt>
      <trkpt lat="45.746673" lon="6.717086"><ele>1966.0</ele></trkpt>
      <trkpt lat="45.746556" lon="6.717363"><ele>1966.0</ele></trkpt>
      <trkpt lat="45.746606" lon="6.717718"><ele>1966.0</ele></trkpt>
      <trkpt lat="45.746656" lon="6.718044"><ele>1966.0</ele></trkpt>
      <trkpt lat="45.746437" lon="6.717911"><ele>1966.0</ele></trkpt>
      <trkpt lat="45.746254" lon="6.717653"><ele>1966.0</ele></trkpt>
      <trkpt lat="45.746060" lon="6.717436"><ele>1966.0</ele></trkpt>
      <trkpt lat="45.745865" lon="6.717217"><ele>1966.0</ele></trkpt>
      <trkpt lat="45.745643" lon="6.717094"><ele>2054.0</ele></trkpt>
      <trkpt lat="45.745415" lon="6.717033"><ele>2054.0</ele></trkpt>
      <trkpt lat="45.745257" lon="6.716768"><ele>2054.0</ele></trkpt>
      <trkpt lat="45.745034" lon="6.716610"><ele>2040.0</ele></trkpt>
      <trkpt lat="45.744880" lon="6.716354"><ele>2040.0</ele></trkpt>
      <trkpt lat="45.744724" lon="6.716060"><ele>2040.0</ele></trkpt>
      <trkpt lat="45.744463" lon="6.715988"><ele>2040.0</ele></trkpt>
      <trkpt lat="45.744182" lon="6.715974"><ele>2040.0</ele></trkpt>
      <trkpt lat="45.743919" lon="6.715726"><ele>2040.0</ele></trkpt>
      <trkpt lat="45.743665" lon="6.715595"><ele>2079.0</ele></trkpt>
      <trkpt lat="45.743185" lon="6.715554"><ele>2079.0</ele></trkpt>
      <trkpt lat="45.742888" lon="6.715467"><ele>2079.0</ele></trkpt>
      <trkpt lat="45.742613" lon="6.715107"><ele>2079.0</ele></trkpt>
      <trkpt lat="45.742361" lon="6.714781"><ele>2079.0</ele></trkpt>
      <trkpt lat="45.742155" lon="6.714591"><ele>2079.0</ele></trkpt>
      <trkpt lat="45.741530" lon="6.714041"><ele>2109.0</ele></trkpt>
      <trkpt lat="45.741121" lon="6.713794"><ele>2109.0</ele></trkpt>
      <trkpt lat="45.740902" lon="6.713705"><ele>2109.0</ele></trkpt>
      <trkpt lat="45.740631" lon="6.713602"><ele>2109.0</ele></trkpt>
      <trkpt lat="45.740480" lon="6.713180"><ele>2109.0</ele></trkpt>
      <trkpt lat="45.740211" lon="6.712964"><ele>2109.0</ele></trkpt>
      <trkpt lat="45.740009" lon="6.712795"><ele>2109.0</ele></trkpt>
      <trkpt lat="45.739612" lon="6.712304"><ele>2148.0</ele></trkpt>
      <trkpt lat="45.739501" lon="6.711968"><ele>2153.0</ele></trkpt>
      <trkpt lat="45.739200" lon="6.711740"><ele>2153.0</ele></trkpt>
      <trkpt lat="45.739020" lon="6.711385"><ele>2153.0</ele></trkpt>
      <trkpt lat="45.738734" lon="6.710911"><ele>2153.0</ele></trkpt>
      <trkpt lat="45.738601" lon="6.710525"><ele>2153.0</ele></trkpt>
      <trkpt lat="45.738466" lon="6.710248"><ele>2230.0</ele></trkpt>
      <trkpt lat="45.738287" lon="6.709948"><ele>2230.0</ele></trkpt>
      <trkpt lat="45.738078" lon="6.709679"><ele>2230.0</ele></trkpt>
      <trkpt lat="45.737873" lon="6.709488"><ele>2230.0</ele></trkpt>
      <trkpt lat="45.737723" lon="6.709224"><ele>2230.0</ele></trkpt>
      <trkpt lat="45.737397" lon="6.708790"><ele>2275.0</ele></trkpt>
      <trkpt lat="45.737596" lon="6.708468"><ele>2230.0</ele></trkpt>
      <trkpt lat="45.737865" lon="6.708277"><ele>2263.0</ele></trkpt>
      <trkpt lat="45.737719" lon="6.707891"><ele>2263.0</ele></trkpt>
      <trkpt lat="45.737453" lon="6.707819"><ele>2299.0</ele></trkpt>
      <trkpt lat="45.737199" lon="6.707614"><ele>2299.0</ele></trkpt>
      <trkpt lat="45.736779" lon="6.707720"><ele>2299.0</ele></trkpt>
      <trkpt lat="45.736543" lon="6.707737"><ele>2299.0</ele></trkpt>
      <trkpt lat="45.736008" lon="6.707350"><ele>2299.0</ele></trkpt>
      <trkpt lat="45.735755" lon="6.707016"><ele>2299.0</ele></trkpt>
      <trkpt lat="45.735539" lon="6.706856"><ele>2299.0</ele></trkpt>
      <trkpt lat="45.735224" lon="6.706719"><ele>2323.0</ele></trkpt>
      <trkpt lat="45.735009" lon="6.706605"><ele>2323.0</ele></trkpt>
      <trkpt lat="45.734827" lon="6.706874"><ele>2323.0</ele></trkpt>
      <trkpt lat="45.734594" lon="6.707158"><ele>2323.0</ele></trkpt>
      <trkpt lat="45.734399" lon="6.707386"><ele>2323.0</ele></trkpt>
      <trkpt lat="45.734317" lon="6.707727"><ele>2323.0</ele></trkpt>
      <trkpt lat="45.734199" lon="6.708014"><ele>2323.0</ele></trkpt>
      <trkpt lat="45.734041" lon="6.708257"><ele>2323.0</ele></trkpt>
      <trkpt lat="45.733838" lon="6.708440"><ele>2392.0</ele></trkpt>
      <trkpt lat="45.733570" lon="6.708544"><ele>2392.0</ele></trkpt>
      <trkpt lat="45.733321" lon="6.708649"><ele>2418.0</ele></trkpt>
      <trkpt lat="45.732974" lon="6.708479"><ele>2418.0</ele></trkpt>
      <trkpt lat="45.732607" lon="6.708356"><ele>2418.0</ele></trkpt>
      <trkpt lat="45.732361" lon="6.708249"><ele>2313.0</ele></trkpt>
      <trkpt lat="45.732129" lon="6.708286"><ele>2313.0</ele></trkpt>
      <trkpt lat="45.731656" lon="6.708356"><ele>2418.0</ele></trkpt>
      <trkpt lat="45.731279" lon="6.708508"><ele>2418.0</ele></trkpt>
      <trkpt lat="45.731005" lon="6.708497"><ele>2417.0</ele></trkpt>
      <trkpt lat="45.730831" lon="6.708758"><ele>2417.0</ele></trkpt>
      <trkpt lat="45.730668" lon="6.709004"><ele>2417.0</ele></trkpt>
      <trkpt lat="45.730178" lon="6.709200"><ele>2417.0</ele></trkpt>
      <trkpt lat="45.729946" lon="6.709371"><ele>2417.0</ele></trkpt>
      <trkpt lat="45.729767" lon="6.709713"><ele>2417.0</ele></trkpt>
      <trkpt lat="45.729560" lon="6.710034"><ele>2417.0</ele></trkpt>
      <trkpt lat="45.729370" lon="6.710264"><ele>2417.0</ele></trkpt>
      <trkpt lat="45.728875" lon="6.710222"><ele>2382.0</ele></trkpt>
      <trkpt lat="45.728418" lon="6.710247"><ele>2382.0</ele></trkpt>
      <trkpt lat="45.728165" lon="6.710345"><ele>2382.0</ele></trkpt>
      <trkpt lat="45.728012" lon="6.710760"><ele>2433.0</ele></trkpt>
      <trkpt lat="45.727557" lon="6.711083"><ele>2433.0</ele></trkpt>
      <trkpt lat="45.727276" lon="6.711250"><ele>2433.0</ele></trkpt>
      <trkpt lat="45.727016" lon="6.711377"><ele>2388.0</ele></trkpt>
      <trkpt lat="45.726857" lon="6.711787"><ele>2388.0</ele></trkpt>
      <trkpt lat="45.726701" lon="6.712058"><ele>2388.0</ele></trkpt>
      <trkpt lat="45.726501" lon="6.712281"><ele>2388.0</ele></trkpt>
      <trkpt lat="45.726262" lon="6.712255"><ele>2388.0</ele></trkpt>
      <trkpt lat="45.726177" lon="6.712561"><ele>2443.0</ele></trkpt>
      <trkpt lat="45.725956" lon="6.712665"><ele>2443.0</ele></trkpt>
      <trkpt lat="45.725780" lon="6.712897"><ele>2443.0</ele></trkpt>
      <trkpt lat="45.725689" lon="6.713194"><ele>2443.0</ele></trkpt>
      <trkpt lat="45.725625" lon="6.713578"><ele>2443.0</ele></trkpt>
      <trkpt lat="45.725510" lon="6.713878"><ele>2443.0</ele></trkpt>
      <trkpt lat="45.725518" lon="6.714222"><ele>2443.0</ele></trkpt>
      <trkpt lat="45.725435" lon="6.714533"><ele>2443.0</ele></trkpt>
      <trkpt lat="45.725377" lon="6.714865"><ele>2483.0</ele></trkpt>
      <trkpt lat="45.725433" lon="6.715230"><ele>2483.0</ele></trkpt>
      <trkpt lat="45.725527" lon="6.715530"><ele>2483.0</ele></trkpt>
      <trkpt lat="45.725468" lon="6.715991"><ele>2483.0</ele></trkpt>
      <trkpt lat="45.725205" lon="6.716200"><ele>2483.0</ele></trkpt>
      <trkpt lat="45.725067" lon="6.716494"><ele>2483.0</ele></trkpt>
      <trkpt lat="45.724830" lon="6.716660"><ele>2450.0</ele></trkpt>
      <trkpt lat="45.724590" lon="6.716757"><ele>2484.0</ele></trkpt>
      <trkpt lat="45.724312" lon="6.716974"><ele>2484.0</ele></trkpt>
      <trkpt lat="45.724095" lon="6.717124"><ele>2484.0</ele></trkpt>
      <trkpt lat="45.723860" lon="6.717171"><ele>2484.0</ele></trkpt>
      <trkpt lat="45.723575" lon="6.717090"><ele>2484.0</ele></trkpt>
      <trkpt lat="45.723320" lon="6.717090"><ele>2484.0</ele></trkpt>
      <trkpt lat="45.723068" lon="6.717126"><ele>2484.0</ele></trkpt>
      <trkpt lat="45.722678" lon="6.717189"><ele>2439.0</ele></trkpt>
      <trkpt lat="45.722463" lon="6.717321"><ele>2439.0</ele></trkpt>
      <trkpt lat="45.722249" lon="6.717503"><ele>2439.0</ele></trkpt>
      <trkpt lat="45.722046" lon="6.717728"><ele>2439.0</ele></trkpt>
      <trkpt lat="45.722074" lon="6.718142"><ele>2439.0</ele></trkpt>
      <trkpt lat="45.722146" lon="6.718489"><ele>2439.0</ele></trkpt>
      <trkpt lat="45.722010" lon="6.718821"><ele>2423.0</ele></trkpt>
      <trkpt lat="45.721772" lon="6.718940"><ele>2423.0</ele></trkpt>
      <trkpt lat="45.721576" lon="6.719216"><ele>2423.0</ele></trkpt>
      <trkpt lat="45.721592" lon="6.719564"><ele>2423.0</ele></trkpt>
      <trkpt lat="45.721427" lon="6.719821"><ele>2423.0</ele></trkpt>
      <trkpt lat="45.721376" lon="6.720150"><ele>2423.0</ele></trkpt>
      <trkpt lat="45.721157" lon="6.720366"><ele>2423.0</ele></trkpt>
      <trkpt lat="45.720911" lon="6.720423"><ele>2423.0</ele></trkpt>
      <trkpt lat="45.720984" lon="6.720769"><ele>2423.0</ele></trkpt>
      <trkpt lat="45.720883" lon="6.721057"><ele>2409.0</ele></trkpt>
      <trkpt lat="45.720685" lon="6.721228"><ele>2349.0</ele></trkpt>
      <trkpt lat="45.720520" lon="6.721468"><ele>2349.0</ele></trkpt>
      <trkpt lat="45.720346" lon="6.721692"><ele>2349.0</ele></trkpt>
      <trkpt lat="45.720165" lon="6.721941"><ele>2349.0</ele></trkpt>
      <trkpt lat="45.719995" lon="6.722166"><ele>2349.0</ele></trkpt>
      <trkpt lat="45.719801" lon="6.722403"><ele>2349.0</ele></trkpt>
      <trkpt lat="45.719752" lon="6.722723"><ele>2349.0</ele></trkpt>
      <trkpt lat="45.719648" lon="6.723018"><ele>2359.0</ele></trkpt>
      <trkpt lat="45.719530" lon="6.723378"><ele>2359.0</ele></trkpt>
      <trkpt lat="45.719354" lon="6.723591"><ele>2359.0</ele></trkpt>
      <trkpt lat="45.719155" lon="6.723788"><ele>2359.0</ele></trkpt>
      <trkpt lat="45.718959" lon="6.724053"><ele>2359.0</ele></trkpt>
      <trkpt lat="45.718851" lon="6.724371"><ele>2359.0</ele></trkpt>
      <trkpt lat="45.718789" lon="6.724717"><ele>2359.0</ele></trkpt>
      <trkpt lat="45.718707" lon="6.725035"><ele>2302.0</ele></trkpt>
      <trkpt lat="45.718728" lon="6.725366"><ele>2302.0</ele></trkpt>
      <trkpt lat="45.718465" lon="6.725433"><ele>2302.0</ele></trkpt>
      <trkpt lat="45.718210" lon="6.725541"><ele>2302.0</ele></trkpt>
      <trkpt lat="45.717996" lon="6.725659"><ele>2302.0</ele></trkpt>
      <trkpt lat="45.717859" lon="6.725926"><ele>2302.0</ele></trkpt>
      <trkpt lat="45.717669" lon="6.725715"><ele>2302.0</ele></trkpt>
      <trkpt lat="45.717466" lon="6.725868"><ele>2302.0</ele></trkpt>
      <trkpt lat="45.717254" lon="6.726018"><ele>2302.0</ele></trkpt>
      <trkpt lat="45.717040" lon="6.725817"><ele>2302.0</ele></trkpt>
      <trkpt lat="45.716816" lon="6.725754"><ele>2302.0</ele></trkpt>
      <trkpt lat="45.716540" lon="6.725726"><ele>2238.0</ele></trkpt>
      <trkpt lat="45.716289" lon="6.725674"><ele>2238.0</ele></trkpt>
      <trkpt lat="45.716055" lon="6.725723"><ele>2238.0</ele></trkpt>
      <trkpt lat="45.715807" lon="6.725761"><ele>2238.0</ele></trkpt>
      <trkpt lat="45.715609" lon="6.725606"><ele>2238.0</ele></trkpt>
      <trkpt lat="45.715389" lon="6.725460"><ele>2238.0</ele></trkpt>
      <trkpt lat="45.715156" lon="6.725535"><ele>2238.0</ele></trkpt>
      <trkpt lat="45.715001" lon="6.725254"><ele>2238.0</ele></trkpt>
      <trkpt lat="45.714750" lon="6.725317"><ele>2238.0</ele></trkpt>
      <trkpt lat="45.714570" lon="6.725099"><ele>2170.0</ele></trkpt>
      <trkpt lat="45.714351" lon="6.725215"><ele>2170.0</ele></trkpt>
      <trkpt lat="45.714099" lon="6.725280"><ele>2170.0</ele></trkpt>
      <trkpt lat="45.713840" lon="6.725305"><ele>2170.0</ele></trkpt>
      <trkpt lat="45.713600" lon="6.725276"><ele>2170.0</ele></trkpt>
      <trkpt lat="45.713576" lon="6.724947"><ele>2131.0</ele></trkpt>
      <trkpt lat="45.713379" lon="6.724771"><ele>2131.0</ele></trkpt>
      <trkpt lat="45.713469" lon="6.724450"><ele>2131.0</ele></trkpt>
      <trkpt lat="45.713241" lon="6.724525"><ele>2131.0</ele></trkpt>
      <trkpt lat="45.713089" lon="6.724795"><ele>2131.0</ele></trkpt>
      <trkpt lat="45.712870" lon="6.724700"><ele>2131.0</ele></trkpt>
      <trkpt lat="45.712674" lon="6.724525"><ele>2131.0</ele></trkpt>
      <trkpt lat="45.712535" lon="6.724789"><ele>2131.0</ele></trkpt>
      <trkpt lat="45.712288" lon="6.724840"><ele>2060.0</ele></trkpt>
      <trkpt lat="45.712142" lon="6.725098"><ele>2073.0</ele></trkpt>
      <trkpt lat="45.711977" lon="6.725358"><ele>2073.0</ele></trkpt>
      <trkpt lat="45.711820" lon="6.725613"><ele>2073.0</ele></trkpt>
      <trkpt lat="45.711586" lon="6.725648"><ele>2073.0</ele></trkpt>
      <trkpt lat="45.711401" lon="6.725893"><ele>2073.0</ele></trkpt>
      <trkpt lat="45.711222" lon="6.726120"><ele>2073.0</ele></trkpt>
      <trkpt lat="45.711036" lon="6.726361"><ele>2073.0</ele></trkpt>
      <trkpt lat="45.710852" lon="6.726619"><ele>2073.0</ele></trkpt>
      <trkpt lat="45.710672" lon="6.726839"><ele>2073.0</ele></trkpt>
      <trkpt lat="45.710495" lon="6.727060"><ele>2073.0</ele></trkpt>
      <trkpt lat="45.710330" lon="6.727287"><ele>2029.0</ele></trkpt>
      <trkpt lat="45.710110" lon="6.727387"><ele>2029.0</ele></trkpt>
      <trkpt lat="45.709915" lon="6.727560"><ele>2029.0</ele></trkpt>
      <trkpt lat="45.709688" lon="6.727738"><ele>2029.0</ele></trkpt>
      <trkpt lat="45.709461" lon="6.727884"><ele>2029.0</ele></trkpt>
      <trkpt lat="45.709248" lon="6.728087"><ele>2029.0</ele></trkpt>
      <trkpt lat="45.709023" lon="6.728233"><ele>2029.0</ele></trkpt>
      <trkpt lat="45.708781" lon="6.728275"><ele>2029.0</ele></trkpt>
      <trkpt lat="45.708545" lon="6.728202"><ele>2029.0</ele></trkpt>
      <trkpt lat="45.708274" lon="6.728271"><ele>1971.0</ele></trkpt>
      <trkpt lat="45.708106" lon="6.728510"><ele>1971.0</ele></trkpt>
      <trkpt lat="45.707869" lon="6.728643"><ele>1971.0</ele></trkpt>
      <trkpt lat="45.707671" lon="6.728900"><ele>1971.0</ele></trkpt>
      <trkpt lat="45.707484" lon="6.729080"><ele>1971.0</ele></trkpt>
      <trkpt lat="45.707321" lon="6.728830"><ele>1971.0</ele></trkpt>
      <trkpt lat="45.707079" lon="6.728970"><ele>1971.0</ele></trkpt>
      <trkpt lat="45.706936" lon="6.729277"><ele>1979.0</ele></trkpt>
      <trkpt lat="45.706896" lon="6.729614"><ele>1979.0</ele></trkpt>
      <trkpt lat="45.706824" lon="6.729954"><ele>1979.0</ele></trkpt>
      <trkpt lat="45.706575" lon="6.729678"><ele>1979.0</ele></trkpt>
      <trkpt lat="45.706433" lon="6.729413"><ele>1979.0</ele></trkpt>
      <trkpt lat="45.706247" lon="6.729603"><ele>1902.0</ele></trkpt>
      <trkpt lat="45.706020" lon="6.729706"><ele>1902.0</ele></trkpt>
      <trkpt lat="45.705797" lon="6.729777"><ele>1902.0</ele></trkpt>
      <trkpt lat="45.705570" lon="6.729719"><ele>1902.0</ele></trkpt>
      <trkpt lat="45.705484" lon="6.729281"><ele>1902.0</ele></trkpt>
      <trkpt lat="45.705274" lon="6.729141"><ele>1894.0</ele></trkpt>
      <trkpt lat="45.705150" lon="6.729453"><ele>1902.0</ele></trkpt>
      <trkpt lat="45.705062" lon="6.729793"><ele>1902.0</ele></trkpt>
      <trkpt lat="45.704834" lon="6.729990"><ele>1902.0</ele></trkpt>
      <trkpt lat="45.704576" lon="6.730059"><ele>1902.0</ele></trkpt>
      <trkpt lat="45.704380" lon="6.730232"><ele>1902.0</ele></trkpt>
      <trkpt lat="45.704065" lon="6.730258"><ele>1833.0</ele></trkpt>
      <trkpt lat="45.703835" lon="6.730294"><ele>1833.0</ele></trkpt>
      <trkpt lat="45.703577" lon="6.730228"><ele>1833.0</ele></trkpt>
      <trkpt lat="45.703349" lon="6.730185"><ele>1833.0</ele></trkpt>
      <trkpt lat="45.703113" lon="6.730056"><ele>1833.0</ele></trkpt>
      <trkpt lat="45.702842" lon="6.730058"><ele>1833.0</ele></trkpt>
      <trkpt lat="45.702616" lon="6.730041"><ele>1833.0</ele></trkpt>
      <trkpt lat="45.702377" lon="6.729936"><ele>1833.0</ele></trkpt>
      <trkpt lat="45.702155" lon="6.729847"><ele>1833.0</ele></trkpt>
      <trkpt lat="45.701912" lon="6.729777"><ele>1768.0</ele></trkpt>
      <trkpt lat="45.701693" lon="6.729704"><ele>1768.0</ele></trkpt>
      <trkpt lat="45.701395" lon="6.729500"><ele>1768.0</ele></trkpt>
      <trkpt lat="45.701016" lon="6.729169"><ele>1768.0</ele></trkpt>
      <trkpt lat="45.700827" lon="6.728877"><ele>1805.0</ele></trkpt>
      <trkpt lat="45.700569" lon="6.728547"><ele>1805.0</ele></trkpt>
      <trkpt lat="45.700383" lon="6.728280"><ele>1805.0</ele></trkpt>
      <trkpt lat="45.700213" lon="6.728008"><ele>1805.0</ele></trkpt>
      <trkpt lat="45.700192" lon="6.727618"><ele>1805.0</ele></trkpt>
      <trkpt lat="45.700052" lon="6.727341"><ele>1805.0</ele></trkpt>
      <trkpt lat="45.699756" lon="6.727183"><ele>1733.0</ele></trkpt>
      <trkpt lat="45.699338" lon="6.727134"><ele>1733.0</ele></trkpt>
      <trkpt lat="45.699115" lon="6.727035"><ele>1764.0</ele></trkpt>
      <trkpt lat="45.699263" lon="6.727532"><ele>1733.0</ele></trkpt>
      <trkpt lat="45.699061" lon="6.727738"><ele>1733.0</ele></trkpt>
      <trkpt lat="45.698803" lon="6.727771"><ele>1733.0</ele></trkpt>
      <trkpt lat="45.698584" lon="6.727580"><ele>1733.0</ele></trkpt>
      <trkpt lat="45.698403" lon="6.727291"><ele>1733.0</ele></trkpt>
      <trkpt lat="45.698325" lon="6.727636"><ele>1733.0</ele></trkpt>
      <trkpt lat="45.698429" lon="6.727925"><ele>1733.0</ele></trkpt>
      <trkpt lat="45.698535" lon="6.728316"><ele>1733.0</ele></trkpt>
      <trkpt lat="45.698637" lon="6.728673"><ele>1733.0</ele></trkpt>
      <trkpt lat="45.698766" lon="6.728983"><ele>1733.0</ele></trkpt>
      <trkpt lat="45.698895" lon="6.729285"><ele>1680.0</ele></trkpt>
      <trkpt lat="45.698634" lon="6.729066"><ele>1733.0</ele></trkpt>
      <trkpt lat="45.698421" lon="6.728867"><ele>1733.0</ele></trkpt>
      <trkpt lat="45.698170" lon="6.728497"><ele>1733.0</ele></trkpt>
      <trkpt lat="45.697916" lon="6.728323"><ele>1683.0</ele></trkpt>
      <trkpt lat="45.697638" lon="6.728124"><ele>1683.0</ele></trkpt>
      <trkpt lat="45.697241" lon="6.728254"><ele>1683.0</ele></trkpt>
      <trkpt lat="45.697355" lon="6.728570"><ele>1683.0</ele></trkpt>
      <trkpt lat="45.697497" lon="6.728834"><ele>1683.0</ele></trkpt>
      <trkpt lat="45.697439" lon="6.729202"><ele>1651.0</ele></trkpt>
      <trkpt lat="45.697281" lon="6.729581"><ele>1651.0</ele></trkpt>
      <trkpt lat="45.697300" lon="6.729907"><ele>1651.0</ele></trkpt>
      <trkpt lat="45.697348" lon="6.730265"><ele>1651.0</ele></trkpt>
      <trkpt lat="45.697400" lon="6.730594"><ele>1651.0</ele></trkpt>
      <trkpt lat="45.697443" lon="6.730921"><ele>1651.0</ele></trkpt>
      <trkpt lat="45.697188" lon="6.731020"><ele>1651.0</ele></trkpt>
      <trkpt lat="45.696951" lon="6.731014"><ele>1651.0</ele></trkpt>
      <trkpt lat="45.697265" lon="6.731333"><ele>1597.0</ele></trkpt>
      <trkpt lat="45.697188" lon="6.731657"><ele>1597.0</ele></trkpt>
      <trkpt lat="45.696926" lon="6.731740"><ele>1597.0</ele></trkpt>
      <trkpt lat="45.697153" lon="6.731943"><ele>1597.0</ele></trkpt>
      <trkpt lat="45.696894" lon="6.732132"><ele>1597.0</ele></trkpt>
      <trkpt lat="45.697001" lon="6.732575"><ele>1597.0</ele></trkpt>
      <trkpt lat="45.696771" lon="6.732765"><ele>1597.0</ele></trkpt>
      <trkpt lat="45.696863" lon="6.733134"><ele>1597.0</ele></trkpt>
      <trkpt lat="45.696657" lon="6.733304"><ele>1597.0</ele></trkpt>
      <trkpt lat="45.696617" lon="6.733640"><ele>1552.0</ele></trkpt>
    </trkseg>
  </trk>
</gpx>
